0171289520999992000010100004+53220+063620FM-12+015699999V0209999C000019999999N9999999N1-01251-01521102021ADDAY171061AY221061GF108991081001999999011999MA1999999099961MD1710061+9999MW1221REMSYN082AAXX  01001 28952 419// 80000 11125 21152 39996 40202 57006 72272 8801/ 555 1/113;
0220289520999992000010103004+53220+063620FM-12+015699999V0209999C000019999999N9999999N1-01401-01601102061ADDAA112000791AJ100179199999999AY171031AY221031GF108991081001999999021999GJ100009IA1239MD1310031+9999MW1711REMSYN104AAXX  01031 28952 /19// 80000 11140 21160 40206 53003 77172 8802/ 333 47017 55000 555 21140 69972 7003/;
0199289520999992000010106004+53220+063620FM-12+015699999V0203601N002019999999N0040001N1-01561-01751102161ADDAA100000891AY171061AY221061GF108991081001999999021999KA1999N+99999MD1210081+9999MW1711REMSYN082AAXX  01061 28952 11996 83602 11156 21175 40216 52008 69970 77172 8802/ 333 21140;EQDQ01 -01402ATMN  
0140289520999992000010109004+53220+063620FM-12+015699999V0203601N001012200019N0200001N1-01791-02051102301ADDAY171031AY211031GF102991001001999999001011MD1210131+9999MW1011REMSYN066AAXX  01091 28952 42998 23601 11179 21205 40230 52013 70171 80001;
0143289520999992000010112004+53220+063620FM-12+015699999V0203601N003019999999N0200001N1-02231-02481102551ADDGF106991001001999999001011MA1999999100401MD1210201+9999REMSYN076AAXX  01121 28952 42998 63603 11223 21248 30040 40255 52020 80001 555 1/123;
0173289520999992000010115004+53220+063620FM-12+015699999V0203601N003019999999N9999999N1-02411-02661102791ADDAY171031AY221031GF108991081001999999021999KA1120M-01561MD1210221+9999MW1711REMSYN086AAXX  01151 28952 /19// 83603 11241 21266 40279 52022 77172 8802/ 333 11156 555 69922;
0180289520999992000010118004+53220+063620FM-12+015699999V0203601N003019999999N9999999N1-02311-02551102971ADDAA100000191AY171061AY221061GF108991081001999999021999KA1999M-01401MD1210181+9999MW1711REMSYN082AAXX  01181 28952 119// 83603 11231 21255 40297 52018 69920 77172 8802/ 333 11140;
0150289520999992000010121004+53220+063620FM-12+015699999V0203601N001012200019N9999999N1-02671-02911103211ADDAY171031AY211031GA1001+999999999GF100991001001999999001001MD1210221+9999MW1011REMSYN060AAXX  01211 28952 419// 03601 11267 21291 40321 52022 70171;
0181289520999992000010200004+53220+063620FM-12+015699999V0203601N001012200019N9999999N1-02851-03081103451ADDAY171061AY211061GA1001+999999999GF100991001001999999001001MA1999999101231MD1210211+9999MW1021REMSYN076AAXX  02001 28952 419// 03601 11285 21308 30123 40345 52021 70271 555 1/132;
0192289520999992000010203004+53220+063620FM-12+015699999V0209999C000012200019N9999999N1-03051-03271103771ADDAA112999929AJ100189199999999GA1001+999999999GF100991001001999999001001GJ101389IA1239MD1210301+9999REMSYN082AAXX  02031 28952 329// 00000 11305 21327 40377 52030 333 47018 55023 69902 7992/;
0162289520999992000010206004+53220+063620FM-12+015699999V0209999C000012200019N0200001N1-03071-03291104101ADDAA100000791GA1001+999999999GF100991001001999999001001KA1999N-03051MD1210321+9999REMSYN070AAXX  02061 28952 12998 00000 11307 21329 40410 52032 69900 333 21305;
0122289520999992000010209004+53220+063620FM-12+015699999V0203401N002012200019N0200001N1-02711-03011104231ADDGA1001+999999999GF100991001001999999001001MD1210151+9999REMSYN054AAXX  02091 28952 42998 03402 11271 21301 40423 52015;
0153289520999992000010212004+53220+063620FM-12+015699999V0203401N001012200019N0200001N1-02791-03091104371ADDGA1001+999999999GF100991001001999999001001MA1999999102141MD1210141+9999REMSYN070AAXX  02121 28952 42998 03401 11279 21309 30214 40437 52014 555 1/131;
0175289520999992000010215004+53220+063620FM-12+015699999V0209999C000012200019N9999999N1-03141-03361104571ADDAA106000091GA1001+999999999GF100991001001999999001001KA1999M-02701MD1210151+9999REMSYN064AAXX  02151 28952 329// 00000 11314 21336 40457 52015 333 11270;EQDQ01  00002PRCP06
0175289520999992000010218004+53220+063620FM-12+015699999V0209999C000012200019N9999999N1-03241-03481104581ADDAA106000091GA1001+999999999GF100991001001999999001001KA1999M-02701MD1210011+9999REMSYN064AAXX  02181 28952 329// 00000 11324 21348 40458 52001 333 11270;EQDQ01  00002PRCP06
0122289520999992000010221004+53220+063620FM-12+015699999V0209999C000012200019N9999999N1-03341-03561104071ADDGA1001+999999999GF100991001001999999001001MD1810031+9999REMSYN054AAXX  02211 28952 429// 00000 11334 21356 40407 58003;
0172289520999992000010300004+53220+063620FM-12+015699999V0209999C000012200019N9999999N1-03471-03701999999ADDGA1001+999999999GF100991001001999999001001MA1999999102381MD1310111+9999REMSYN070AAXX  03001 28952 429// 00000 11347 21370 30238 40468 53011 555 1/135;EQDQ01+104683APOSLP
0205289520999992000010303004+53220+063620FM-12+015699999V0209999C000019999999N9999999N1-03341-03561104041ADDAA106000091AJ100179199999999GF108991081001999999011999GJ102589IA1239MD1810041+9999REMSYN092AAXX  03031 28952 329// 80000 11334 21356 40404 58004 8801/ 333 47017 55043 555 21348 7000/;EQDQ01  00002PRCP06
0165289520999992000010306004+53220+063620FM-12+015699999V0209999C000019999999N0200001N1-03011-03251104591ADDAA106000091GF108991081001999999011999KA1999N-03481MD1710011+9999REMSYN070AAXX  03061 28952 32998 80000 11301 21325 40459 57001 8801/ 333 21348;EQDQ01  00002PRCP06
0112289520999992000010309004+53220+063620FM-12+015699999V0209999C000019999999N0200001N1-02641-02951104541ADDGF106991061001999999041001MD1710021+9999REMSYN060AAXX  03091 28952 42998 60000 11264 21295 40454 57002 86040;
0143289520999992000010312004+53220+063620FM-12+015699999V0209999C000019999999N0200001N1-02531-02841104491ADDGF106991061001999999041001MA1999999102261MD1710051+9999REMSYN076AAXX  03121 28952 42998 60000 11253 21284 30226 40449 57005 86040 555 1/125;
0165289520999992000010315004+53220+063620FM-12+015699999V0200901N001012200019N9999999N1-02531-02841104461ADDAA106000091GF102991021001999999031001KA1999M-02531MD1710021+9999REMSYN070AAXX  03151 28952 329// 20901 11253 21284 40446 57002 82030 333 11253;EQDQ01  00002PRCP06
0175289520999992000010318004+53220+063620FM-12+015699999V0200901N002012200019N9999999N1-02571-02881104431ADDAA106000091GA1001+999999999GF100991001001999999001001KA1999M-02531MD1710031+9999REMSYN064AAXX  03181 28952 329// 00902 11257 21288 40443 57003 333 11253;EQDQ01  00002PRCP06
0112289520999992000010321004+53220+063620FM-12+015699999V0200901N002010075019N9999999N1-02391-02711104371ADDGF105991051051008001001001MD1710041+9999REMSYN060AAXX  03211 28952 425// 50902 11239 21271 40437 57004 85500;
0143289520999992000010400004+53220+063620FM-12+015699999V0201401N002010075019N9999999N1-02191-02671104261ADDGF106991061051008001001001MA1999999102081MD1710091+9999REMSYN076AAXX  04001 28952 425// 61402 11219 21267 30208 40426 57009 86500 555 1/123;
0205289520999992000010403004+53220+063620FM-12+015699999V0201401N003010075019N9999999N1-02091-02491104111ADDAA106000091AJ100179199999999GF106991061051008001001001GJ100009IA1239MD1710131+9999REMSYN092AAXX  04031 28952 325// 61403 11209 21249 40411 57013 86500 333 47017 55000 555 21258 7000/;EQDQ01  00002PRCP06
0181289520999992000010406004+53220+063620FM-12+015699999V0201401N002019999999N0200001N1-01961-02451103122ADDAA106000091GF108991081001999999011999KA1999N-02581MD1710191+9999REMSYN070AAXX  04061 28952 32998 81402 11196 21245 40312 57019 8801/ 333 21258;EQDQ01+103123APOSLPQ02  00002PRCP06
0143289520999992000010412004+53220+063620FM-12+015699999V0201101N002019999999N0200001N1-01501-02101103481ADDGF108991081001999999011999MA1999999101381MD1710221+9999REMSYN076AAXX  04121 28952 42998 81102 11150 21210 30138 40348 57022 8801/ 555 1/116;
0165289520999992000010415004+53220+063620FM-12+015699999V0201401N002019999999N9999999N1-01511-02111103251ADDAA106000091GF106991061001999999031001KA1999M-01501MD1710231+9999REMSYN070AAXX  04151 28952 329// 61402 11151 21211 40325 57023 86030 333 11150;EQDQ01  00002PRCP06
0181289520999992000010418004+53220+063620FM-12+015699999V0201401N005010075019N9999999N1-01421-02031102911ADDAA106000091GF107991071051008001999999KA1999M+99999MD1710331+9999REMSYN070AAXX  04181 28952 325// 71405 11142 21203 40291 57033 875// 333 11150;EQDQ01  00002PRCP06Q02 -01502ATMX  
0112289520999992000010421004+53220+063620FM-12+015699999V0200901N003010075019N9999999N1-01381-01991102621ADDGF107991071051008001999999MD1710281+9999REMSYN060AAXX  04211 28952 425// 70903 11138 21199 40262 57028 875//;
0143289520999992000010500004+53220+063620FM-12+015699999V0201401N002010075019N9999999N1-01361-01881102341ADDGF107991071051008001999999MA1999999100261MD1710281+9999REMSYN076AAXX  05001 28952 425// 71402 11136 21188 30026 40234 57028 875// 555 1/114;
0205289520999992000010503004+53220+063620FM-12+015699999V0201801N002010075019N9999999N1-01331-01851102101ADDAA106000091AJ100179199999999GF107991071051008001999999GJ100009IA1239MD1710231+9999REMSYN092AAXX  05031 28952 325// 71802 11133 21185 40210 57023 875// 333 47017 55000 555 21151 7000/;EQDQ01  00002PRCP06
0165289520999992000010506004+53220+063620FM-12+015699999V0201801N002010075019N0200001N1-01261-01781101971ADDAA106000091GF107991071051008001999999KA1999N-01511MD1710121+9999REMSYN070AAXX  05061 28952 32598 71802 11126 21178 40197 57012 875// 333 21151;EQDQ01  00002PRCP06
0140289520999992000010509004+53220+063620FM-12+015699999V0209999C000010075019N0200001N1-01201-01551101811ADDAY171031AY221031GF108991081091008001999999MD1710151+9999MW1021REMSYN066AAXX  05091 28952 41598 80000 11120 21155 40181 57015 70272 889//;
0171289520999992000010512004+53220+063620FM-12+015699999V0203201N001012200019N0200001N1-01201-01551101781ADDAY171061AY221061GF103991031091008001001001MA1999999099931MD1710021+9999MW1011REMSYN082AAXX  05121 28952 41598 33201 11120 21155 39993 40178 57002 70172 83900 555 1/114;
0155289520999992000010515004+53220+063620FM-12+015699999V0209999C000012200019N9999999N1-01751-01941101851ADDGA1001+999999999GF100991001001999999001001KA1120M-01201MD1310061+9999REMSYN074AAXX  05151 28952 /29// 00000 11175 21194 40185 53006 333 11120 555 69952;
0122289520999992000010521004+53220+063620FM-12+015699999V0209999C000012200019N9999999N1-02211-02401102051ADDGA1001+999999999GF100991001001999999001001MD1210071+9999REMSYN054AAXX  05211 28952 429// 00000 11221 21240 40205 52007;
0205289520999992000010603004+53220+063620FM-12+015699999V0209999C000019999999N9999999N1-02191-02371102181ADDAA106000091AJ100179199999999GF108991081001999999021999GJ100009IA1239MD1210101+9999REMSYN092AAXX  06031 28952 329// 80000 11219 21237 40218 52010 8802/ 333 47017 55000 555 21232 7995/;EQDQ01  00002PRCP06
0193289520999992000010606004+53220+063620FM-12+015699999V0209999C000010075019N0040001N1-02091-02281102281ADDAA106000091AY111061AY211061GF107991071051008001001001KA1999N-02321MD1210121+9999MW1101REMSYN076AAXX  06061 28952 31596 70000 11209 21228 40228 52012 71011 87500 333 21232;EQDQ01  00002PRCP06
0112289520999992000010609004+53220+063620FM-12+015699999V0209999C000010075019N0200001N1-01731-01921102201ADDGF107991071051008001001001MD1810061+9999REMSYN060AAXX  06091 28952 42598 70000 11173 21192 40220 58006 87500;
0143289520999992000010612004+53220+063620FM-12+015699999V0209999C000010075019N0200001N1-01501-01701102121ADDGF107991071051008001001001MA1999999100051MD1710051+9999REMSYN076AAXX  06121 28952 42598 70000 11150 21170 30005 40212 57005 87500 555 1/115;
0173289520999992000010615004+53220+063620FM-12+015699999V0209999C000019999999N9999999N1-01541-01731102131ADDAY171031AY221031GF108991081001999999021999KA1120M-01501MD1710011+9999MW1711REMSYN086AAXX  06151 28952 /19// 80000 11154 21173 40213 57001 77172 8802/ 333 11150 555 69902;
0150289520999992000010621004+53220+063620FM-12+015699999V0201401N003012200019N9999999N1-01791-01981102021ADDAY171031AY211031GA1001+999999999GF100991001001999999001001MD1710031+9999MW1011REMSYN060AAXX  06211 28952 419// 01403 11179 21198 40202 57003 70171;
0181289520999992000010700004+53220+063620FM-12+015699999V0209999C000012200019N9999999N1-02191-02371102131ADDAY171061AY211061GA1001+999999999GF100991001001999999001001MA1999999099991MD1310071+9999MW1021REMSYN076AAXX  07001 28952 419// 00000 11219 21237 39999 40213 53007 70271 555 1/123;
0202289520999992000010703004+53220+063620FM-12+015699999V0209999C000012200019N9999999N1-01891-02081101951ADDAA112999929AJ100179199999999GA1001+999999999GF100991001001999999001001GJ100009IA1239MD1810141+9999REMSYN092AAXX  07031 28952 /29// 00000 11189 21208 40195 58014 333 47017 55000 555 21219 69902 7990/;
0199289520999992000010706004+53220+063620FM-12+015699999V0201801N002010075019N0100001N1-01621-01811101921ADDAA100000791AY111061AY211061GF107991071091008001001001KA1999N-02191MD1710021+9999MW1251REMSYN082AAXX  07061 28952 11597 71802 11162 21181 40192 57002 69900 72511 87900 333 21219;EQDQ01+000002PRSWM1
0112289520999992000010709004+53220+063620FM-12+015699999V0201801N002019999999N0200001N1-01421-01621101831ADDGF108991081001999999021999MD1710071+9999REMSYN060AAXX  07091 28952 42998 81802 11142 21162 40183 57007 8802/;
0172289520999992000010712004+53220+063620FM-12+015699999V0209999C000012200019N0200001N1-01501-01701101761ADDGA1001+999999999GF100991001001999999001001MA1999999999999MD1710061+9999REMSYN070AAXX  07121 28952 42998 00000 11150 21170 39570 40176 57006 555 1/117;EQDQ01 095703APOSP 
0155289520999992000010715004+53220+063620FM-12+015699999V0209999C000012200019N9999999N1-01481-01611101631ADDGA1001+999999999GF100991001001999999001001KA1120M-01201MD1710131+9999REMSYN074AAXX  07151 28952 /29// 00000 11148 21161 40163 57013 333 11120 555 69902;
0152289520999992000010718004+53220+063620FM-12+015699999V0209999C000010075019N9999999N1-01741-01861101641ADDAA100000791GF106991061051008001001001KA1999M-01201MD1710021+9999REMSYN076AAXX  07181 28952 125// 60000 11174 21186 40164 57002 69900 86500 333 11120;
0112289520999992000010721004+53220+063620FM-12+015699999V0209999C000010075019N9999999N1-01551-01681101631ADDGF108991081091008001999999MD1410001+9999REMSYN060AAXX  07211 28952 425// 80000 11155 21168 40163 54000 889//;
0143289520999992000010800004+53220+063620FM-12+015699999V0203201N002019999999N9999999N1-01361-01491101691ADDGF108991081001999999021999MA1999999099631MD1310081+9999REMSYN076AAXX  08001 28952 429// 83202 11136 21149 39963 40169 53008 8802/ 555 1/114;
0205289520999992000010803004+53220+063620FM-12+015699999V0203201N002019999999N9999999N1-01481-01611101801ADDAA106000091AJ100179199999999GF108991081001999999021999GJ100969IA1239MD1210111+9999REMSYN092AAXX  08031 28952 329// 83202 11148 21161 40180 52011 8802/ 333 47017 55016 555 21175 7990/;EQDQ01  00002PRCP06
0174289520999992000010806004+53220+063620FM-12+015699999V0203201N001019999999N0100001N1-01511-01701101971ADDAA106000021AY171061AY221061GF108991081001999999021999KA1999N-01751MD1210161+9999MW1711REMSYN076AAXX  08061 28952 31997 83201 11151 21170 40197 52016 77172 8802/ 333 21175;
0140289520999992000010809004+53220+063620FM-12+015699999V0203201N002019999999N0200001N1-01671-01931102111ADDAY171031AY221031GF107991071001999999051001MD1210121+9999MW1021REMSYN066AAXX  08091 28952 41998 73202 11167 21193 40211 52012 70272 87050;
0171289520999992000010812004+53220+063620FM-12+015699999V0203201N001019999999N0200001N1-01721-01981102261ADDAY171061AY221061GF107991071001999999051001MA1999999100161MD1210141+9999MW1021REMSYN082AAXX  08121 28952 41998 73201 11172 21198 30016 40226 52014 70272 87050 555 1/116;
0145289520999992000010815004+53220+063620FM-12+015699999V0209999C000012200019N9999999N1-01931-02191102431ADDGF103991031001999999031001KA1120M-01481MD1210141+9999REMSYN080AAXX  08151 28952 /29// 30000 11193 21219 40243 52014 83030 333 11148 555 69902;
0152289520999992000010818004+53220+063620FM-12+015699999V0209999C000019999999N9999999N1-01831-02091102531ADDAA100000791GF107991071001999999051999KA1999M-01481MD1210121+9999REMSYN076AAXX  08181 28952 129// 70000 11183 21209 40253 52012 69900 8705/ 333 11148;
0112289520999992000010821004+53220+063620FM-12+015699999V0209999C000019999999N9999999N1-01641-01831102521ADDGF107991071001999999051999MD1410001+9999REMSYN060AAXX  08211 28952 429// 70000 11164 21183 40252 54000 8705/;
0143289520999992000010900004+53220+063620FM-12+015699999V0201801N001012200019N9999999N1-01461-01661102521ADDGF103991031001999999031001MA1999999100441MD1310021+9999REMSYN076AAXX  09001 28952 429// 31801 11146 21166 30044 40252 53002 83030 555 1/115;
0209289520999992000010903004+53220+063620FM-12+015699999V0201801N001012200019N9999999N1+99999+99999102531ADDAA106000091AJ100179199999999GA1001+999999999GF100991001001999999001001GJ100489IA1239MD1210011+9999REMSYN080AAXX  09031 28952 329// 01801 21155 40253 52001 333 47017 55008 555 21230 7990/;EQDQ01  00002PRCP06
0122289520999992000010909004+53220+063620FM-12+015699999V0201801N001012200019N0200001N1-00851-01231102491ADDGA1001+999999999GF100991001001999999001001MD1810021+9999REMSYN054AAXX  09091 28952 42998 01801 11085 21123 40249 58002;
0143289520999992000010912004+53220+063620FM-12+015699999V0201801N001010075019N0200001N1-00961-01221102561ADDGF107991071051008001001001MA1999999100511MD1310051+9999REMSYN076AAXX  09121 28952 42598 71801 11096 21122 30051 40256 53005 87500 555 1/111;
0175289520999992000010915004+53220+063620FM-12+015699999V0201801N002012200019N9999999N1-01081-01211102521ADDAA106000091GA1001+999999999GF100991001001999999001001KA1999M-00851MD1810041+9999REMSYN064AAXX  09151 28952 329// 01802 11108 21121 40252 58004 333 11085;EQDQ01  00002PRCP06
0175289520999992000010918004+53220+063620FM-12+015699999V0201801N002012200019N9999999N1-01281-01411102491ADDAA106000091GA1001+999999999GF100991001001999999001001KA1999M-00851MD1710051+9999REMSYN064AAXX  09181 28952 329// 01802 11128 21141 40249 57005 333 11085;EQDQ01  00002PRCP06
0122289520999992000010921004+53220+063620FM-12+015699999V0201801N003012200019N9999999N1-01401-01531102361ADDGA1001+999999999GF100991001001999999001001MD1710141+9999REMSYN054AAXX  09211 28952 429// 01803 11140 21153 40236 57014;
0171289520999992000011000004+53220+063620FM-12+015699999V0201801N005019999999N9999999N1-01431-01561102211ADDAY171061AY211061GF108991081001999999021999MA1999999100141MD1710141+9999MW1711REMSYN082AAXX  10001 28952 419// 81805 11143 21156 30014 40221 57014 77171 8802/ 555 1/116;
0214289520999992000011003004+53220+063620FM-12+015699999V0201801N005019999999N9999999N1-01111-01241102081ADDAA112999929AJ100179199999999AY171031AY271031GF108991081001999999021999GJ102469IA1239MD1710101+9999MW1711REMSYN098AAXX  10031 28952 /19// 81805 11111 21124 40208 57010 77177 8802/ 333 47017 55041 555 69902 7990/;
0180289520999992000011006004+53220+063620FM-12+015699999V0202301N005019999999N0100001N1-00951-01111102081ADDAA100000791AY171061AY221061GF108991081001999999021999KA1999N-01461MD1410001+9999MW1711REMSYN082AAXX  10061 28952 11997 82305 11095 21111 40208 54000 69900 77172 8802/ 333 21146;
0140289520999992000011009004+53220+063620FM-12+015699999V0202301N003010075019N0200001N1-00721-00971102051ADDAY171031AY221031GF108991081091008001999999MD1410001+9999MW1021REMSYN066AAXX  10091 28952 41598 82303 11072 21097 40205 54000 70272 889//;
0184289520999992000011012004+53220+063620FM-12+015699999V0202301N004010075019N0200001N1-00681-00921102031ADDAY181061AY271061GF108991081091008001999999MA1999999100021MD1310021+9999REMSYN082AAXX  10121 28952 41598 82304 11068 21092 30002 40203 53002 78087 889// 555 1/107;EQDQ01+000802PRSWM1
0173289520999992000011015004+53220+063620FM-12+015699999V0202301N003010075019N9999999N1-00641-00831102021ADDAY181031AY221031GF108991081091008001999999KA1120M-00681MD1710011+9999MW1021REMSYN086AAXX  10151 28952 /15// 82303 11064 21083 40202 57001 70282 889// 333 11068 555 69942;
0199289520999992000011018004+53220+063620FM-12+015699999V0202301N003010075019N9999999N1-00561-00781102011ADDAA100000591AY181061AY221061GF108991081091008001999999KA1999M+99999MD1710011+9999MW1021REMSYN082AAXX  10181 28952 115// 82303 11056 21078 40201 57001 69940 70282 889// 333 11064;EQDQ01 -00642ATMX  
0112289520999992000011021004+53220+063620FM-12+015699999V0209999C000010075019N9999999N1-00491-00701102011ADDGF108991081091008001999999MD1310021+9999REMSYN060AAXX  10211 28952 425// 80000 11049 21070 40201 53002 889//;
0143289520999992000011100004+53220+063620FM-12+015699999V0209999C000010075019N9999999N1-00421-00651102021ADDGF108991081091008001999999MA1999999100021MD1210011+9999REMSYN076AAXX  11001 28952 425// 80000 11042 21065 30002 40202 52001 889// 555 1/105;
0205289520999992000011103004+53220+063620FM-12+015699999V0202001N002010075019N9999999N1-00421-00611101991ADDAA106000091AJ100179199999999GF108991081091008001999999GJ100129IA1239MD1810031+9999REMSYN092AAXX  11031 28952 325// 82002 11042 21061 40199 58003 889// 333 47017 55002 555 21064 7994/;EQDQ01  00002PRCP06
0165289520999992000011106004+53220+063620FM-12+015699999V0202001N002019999999N0200001N1-00341-00551102021ADDAA106000091GF108991081001999999021999KA1999N-00641MD1310031+9999REMSYN070AAXX  11061 28952 32998 82002 11034 21055 40202 53003 8802/ 333 21064;EQDQ01  00002PRCP06
0112289520999992000011109004+53220+063620FM-12+015699999V0201801N003019999999N0200001N1-00241-00531101901ADDGF108991081001999999021999MD1810111+9999REMSYN060AAXX  11091 28952 42998 81803 11024 21053 40190 58011 8802/;
0171289520999992000011112004+53220+063620FM-12+015699999V0202001N003010075019N0040001N1-00201-00451101831ADDAY121061AY221061GF108991081061008001999999MA1999999099851MD1710071+9999MW1101REMSYN082AAXX  11121 28952 41596 82003 11020 21045 39985 40183 57007 71022 886// 555 1/103;
0173289520999992000011115004+53220+063620FM-12+015699999V0201801N003010075019N9999999N1-00281-00351101761ADDAY181031AY221031GF108991081091008001999999KA1120M-00201MD1710071+9999MW1851REMSYN086AAXX  11151 28952 /15// 81803 11028 21035 40176 57007 78582 889// 333 11020 555 69922;
0180289520999992000011118004+53220+063620FM-12+015699999V0201801N002010075019N9999999N1-00381-00501101651ADDAA100000191AY181061AY221061GF108991081091008001999999KA1999M-00201MD1710111+9999MW1851REMSYN082AAXX  11181 28952 115// 81802 11038 21050 40165 57011 69920 78582 889// 333 11020;
0140289520999992000011121004+53220+063620FM-12+015699999V0209999C000010075019N9999999N1-00401-00491101631ADDAY181031AY281031GF108991081091008001999999MD1710021+9999MW1851REMSYN066AAXX  11211 28952 415// 80000 11040 21049 40163 57002 78588 889//;
0171289520999992000011200004+53220+063620FM-12+015699999V0202701N004010075019N9999999N1-00361-00471101671ADDAY181061AY221061GF108991081091008001999999MA1999999099691MD1310041+9999MW1251REMSYN082AAXX  12001 28952 415// 82704 11036 21047 39969 40167 53004 72582 889// 555 1/104;
0192289520999992000011203004+53220+063620FM-12+015699999V0203201N003012200019N9999999N1-00401-00521101781ADDAA112000791AJ100199199999999GF102991021091008001001001GJ100009IA1239MD1210101+9999REMSYN098AAXX  12031 28952 /25// 23203 11040 21052 40178 52010 82900 333 47019 55000 555 21040 69972 7999/;
0171289520999992000011206004+53220+063620FM-12+015699999V0202901N002010075019N0200001N1-00541-00641101921ADDAA100000591GF107991071091008001001001KA1999N+99999MD1210131+9999REMSYN076AAXX  12061 28952 12598 72902 11054 21064 40192 52013 69960 87900 333 21040;EQDQ01 -00402ATMN  
0140289520999992000011209004+53220+063620FM-12+015699999V0203201N005010075019N0100001N1-00161-00431101981ADDAY181031AY221031GF108991081091008001999999MD1210081+9999MW1851REMSYN066AAXX  12091 28952 41597 83205 11016 21043 40198 52008 78582 889//;
0171289520999992000011212004+53220+063620FM-12+015699999V0202901N002012200019N0200001N1-00391-00681102191ADDAY181061AY211061GF102991021001999999031001MA1999999100201MD1210201+9999MW1011REMSYN082AAXX  12121 28952 41998 22902 11039 21068 30020 40219 52020 70181 82030 555 1/108;
0145289520999992000011215004+53220+063620FM-12+015699999V0202901N001012200019N9999999N1-00601-00831102381ADDGF103991031001999999031001KA1120M-00161MD1210161+9999REMSYN080AAXX  12151 28952 /29// 32901 11060 21083 40238 52016 83030 333 11016 555 69932;
0145289520999992000011218004+53220+063620FM-12+015699999V0202701N001012200019N9999999N1-00721-00891102381ADDGA1001+999999999GF100991001001999999001001KA1999M-00161MD1410001+9999REMSYN064AAXX  12181 28952 129// 02701 11072 21089 40238 54000 333 11016;
0122289520999992000011221004+53220+063620FM-12+015699999V0209999C000012200019N9999999N1-00741-00911102371ADDGA1001+999999999GF100991001001999999001001MD1810021+9999REMSYN054AAXX  12211 28952 429// 00000 11074 21091 40237 58002;
0143289520999992000011300004+53220+063620FM-12+015699999V0202301N002019999999N9999999N1-00881-01161102371ADDGF107991071001999999051001MA1999999100341MD1410001+9999REMSYN076AAXX  13001 28952 429// 72302 11088 21116 30034 40237 54000 87050 555 1/110;
0205289520999992000011303004+53220+063620FM-12+015699999V0202301N001019999999N9999999N1-00761-01021102261ADDAA106000091AJ100199199999999GF106991061001999999051001GJ101269IA1239MD1810101+9999REMSYN092AAXX  13031 28952 329// 62301 11076 21102 40226 58010 86050 333 47019 55021 555 21088 7993/;EQDQ01  00002PRCP06
0163289520999992000011306004+53220+063620FM-12+015699999V0202301N001010075019N0200001N1-00741-00951102251ADDAY181061AY221061GF107991071091008001001001KA1999N-00881MD1710011+9999MW1021REMSYN076AAXX  13061 28952 11598 72301 11074 21095 40225 57001 70282 87900 333 21088;
0140289520999992000011309004+53220+063620FM-12+015699999V0202301N001010075019N0100001N1-00561-00781102201ADDAY181031AY221031GF108991081091008001999999MD1710041+9999MW1851REMSYN066AAXX  13091 28952 41597 82301 11056 21078 40220 57004 78582 889//;
0171289520999992000011312004+53220+063620FM-12+015699999V0202301N001012200019N0200001N1-00521-00811102261ADDAY181061AY211061GF103991031001999999031001MA1999999100261MD1310071+9999MW1011REMSYN082AAXX  13121 28952 41998 32301 11052 21081 30026 40226 53007 70181 83030 555 1/109;
0145289520999992000011315004+53220+063620FM-12+015699999V0209999C000012200019N9999999N1-01061-01121102371ADDGF102991021001999999041001KA1120M-00501MD1210061+9999REMSYN080AAXX  13151 28952 /29// 20000 11106 21112 40237 52006 82040 333 11050 555 69942;
0162289520999992000011318004+53220+063620FM-12+015699999V0209999C000012200019N9999999N1-01221-01351102351ADDAA100000591GA1001+999999999GF100991001001999999001001KA1999M-00501MD1810041+9999REMSYN070AAXX  13181 28952 129// 00000 11122 21135 40235 58004 69940 333 11050;
0116289520999992000011321004+53220+063620FM-12+015699999V0201801N002019999999N9999999N1-00981-01061102151ADDGF107991071001999999031001MD1710171+9999REMSYN064    AAXX  13211 28952 429// 71802 11098 21106 40215 57017 87030;
0147289520999992000011400004+53220+063620FM-12+015699999V0202301N003010075019N9999999N1-00901-01011101831ADDGF108991081091008001999999MA1999999099811MD1710301+9999REMSYN080    AAXX  14001 28952 425// 82303 11090 21101 39981 40183 57030 889// 555 1/110;
0224289520999992000011403004+53220+063620FM-12+015699999V0202301N006010075019N9999999N1-00581-00581101461ADDAA112002091AJ100199199999999AY181031AY221031GF108991081091008001999999GJ100669IA1239MD1710351+9999MW1861REMSYN108    AAXX  14031 28952 /15// 82306 11058 21058 40146 57035 78682 889// 333 47019 55011 555 21122 60022 7002/;
0184289520999992000011406004+53220+063620FM-12+015699999V0202301N004010075019N0200001N1-00371-00741101351ADDAA100002091AY181061AY231061GF106991061091008001001001KA1999N-01221MD1710091+9999MW1361REMSYN086    AAXX  14061 28952 11598 62304 11037 21074 40135 57009 60020 73683 86900 333 21122;
0144289520999992000011409004+53220+063620FM-12+015699999V0202701N006019999999N0200001N1-00281-00771101361ADDAY131031AY221031GF106991041001999999031011MD1310021+9999MW1361REMSYN070    AAXX  14091 28952 41998 62706 11028 21077 40136 53002 73632 84031;
0175289520999992000011412004+53220+063620FM-12+015699999V0202701N005019999999N0200001N1-00311-00731101461ADDAY131061AY221061GF107991071001999999031001MA1999999099491MD1210101+9999MW1361REMSYN086    AAXX  14121 28952 41998 72705 11031 21073 39949 40146 52010 73632 87030 555 1/108;
0184289520999992000011418004+53220+063620FM-12+015699999V0202701N004019999999N9999999N1-00431-00771101481ADDAA100000791AY131061AY231061GF108991081001999999011999KA1999M-00221MD1810021+9999MW1361REMSYN086    AAXX  14181 28952 119// 82704 11043 21077 40148 58002 69900 73633 8801/ 333 11022;
0144289520999992000011421004+53220+063620FM-12+015699999V0202301N001019999999N9999999N1-00611-00801101441ADDAY131031AY221031GF106991061001999999031001MD1710061+9999MW1021REMSYN070    AAXX  14211 28952 419// 62301 11061 21080 40144 57006 70232 86030;
0175289520999992000011500004+53220+063620FM-12+015699999V0202301N002019999999N9999999N1-00631-00671101381ADDAY181061AY231061GF108991081091999999999999MA1999999099381MD1710061+9999MW1851REMSYN086    AAXX  15001 28952 419// 82302 11063 21067 39938 40138 57006 78583 889// 555 1/109;
0224289520999992000011503004+53220+063620FM-12+015699999V0202001N001010075019N9999999N1-00511-00511101321ADDAA112000891AJ100209199999999AY181031AY281031GF108991081091008001999999GJ101689IA1239MD1710041+9999MW1851REMSYN108    AAXX  15031 28952 /15// 82001 11051 21051 40132 57004 78588 889// 333 47020 55028 555 21063 69982 7998/;
0184289520999992000011506004+53220+063620FM-12+015699999V0203601N005010075019N0100001N1-00441-00531101611ADDAA100000891AY181061AY281061GF108991081091008001999999KA1999N-00631MD1310291+9999MW1851REMSYN086    AAXX  15061 28952 11597 83605 11044 21053 40161 53029 69980 78588 889// 333 21063;
0144289520999992000011509004+53220+063620FM-12+015699999V0203601N006010075019N0200001N1-00821-01241102051ADDAY181031AY221031GF107991071091008001001001MD1210401+9999MW1021REMSYN070    AAXX  15091 28952 41598 73606 11082 21124 40205 52040 70282 87900;
0185289520999992000011512004+53220+063620FM-12+015699999V0203201N003012200019N0200001N1-01501-02011102581ADDAY181061AY211061GA1001+999999999GF100991001001999999001001MA1999999100501MD1210471+9999MW1011REMSYN080    AAXX  15121 28952 41998 03203 11150 21201 30050 40258 52047 70181 555 1/117;
0159289520999992000011515004+53220+063620FM-12+015699999V0203601N003012200019N9999999N1-02171-02491102981ADDGA1001+999999999GF100991001001999999001001KA1120M-00441MD1210321+9999REMSYN078    AAXX  15151 28952 /29// 03603 11217 21249 40298 52032 333 11044 555 60012;
0166289520999992000011518004+53220+063620FM-12+015699999V0203601N001012200019N9999999N1-02671-02911103191ADDAA100001091GA1001+999999999GF100991001001999999001001KA1999M-00441MD1210181+9999REMSYN074    AAXX  15181 28952 129// 03601 11267 21291 40319 52018 60010 333 11044;
0126289520999992000011521004+53220+063620FM-12+015699999V0209999C000012200019N9999999N1-02711-02941103251ADDGA1001+999999999GF100991001001999999001001MD1210051+9999REMSYN058    AAXX  15211 28952 429// 00000 11271 21294 40325 52005;
0157289520999992000011600004+53220+063620FM-12+015699999V0209999C000012200019N9999999N1-02471-02711103331ADDGA1001+999999999GF100991001001999999001001MA1999999101151MD1210101+9999REMSYN074    AAXX  16001 28952 429// 00000 11247 21271 30115 40333 52010 555 1/127;
0209289520999992000011603004+53220+063620FM-12+015699999V0201801N003010075019N9999999N1-01991-02251103261ADDAA199000091AJ100219199999999GF107991071091008001001001GJ101869IA1239MD1810031+9999REMSYN096    AAXX  16031 28952 325// 71803 11199 21225 40326 58003 87900 333 47021 55031 555 21286 7001/;EQDQ01  00002PRCP99
0178289520999992000011606004+53220+063620FM-12+015699999V0201801N002012200019N0200001N1-01501-01701103121ADDAA199000021AY111061AY201061GF102991001001999999001011KA1999N-02861MD1310091+9999MW1221REMSYN080    AAXX  16061 28952 31998 21802 11150 21170 40312 53009 72210 80001 333 21286;
0126289520999992000011609004+53220+063620FM-12+015699999V0201601N002012200019N0200001N1-01041-01401102911ADDGA1001+999999999GF100991001001999999001001MD1810181+9999REMSYN058    AAXX  16091 28952 42998 01602 11104 21140 40291 58018;
0157289520999992000011612004+53220+063620FM-12+015699999V0201801N003012200019N0200001N1-00971-01281102721ADDGA1001+999999999GF100991001001999999001001MA1999999100671MD1710181+9999REMSYN074    AAXX  16121 28952 42998 01803 11097 21128 30067 40272 57018 555 1/109;
0170289520999992000011615004+53220+063620FM-12+015699999V0209999C000012200019N9999999N1-01501-01771102691ADDAA199000021GA1001+999999999GF100991001001999999001001KA1120M-00851MD1710061+9999REMSYN078    AAXX  16151 28952 329// 00000 11150 21177 40269 57006 333 11085 555 69902;
0203289520999992000011618004+53220+063620FM-12+015699999V0201801N003010075019N9999999N1-01231-01431102501ADDAA100000791AY171061AY211061GF107991071051008001001001KA1999N+99999MD1710181+9999MW1711REMSYN086    AAXX  16181 28952 115// 71803 11123 21143 40250 57018 69900 77171 87500 333 21085;EQDQ01 -00852ATMN  
0144289520999992000011621004+53220+063620FM-12+015699999V0201801N003010075019N9999999N1-01101-01301102271ADDAY171031AY221031GF108991081091008001999999MD1710201+9999MW1021REMSYN070    AAXX  16211 28952 415// 81803 11110 21130 40227 57020 70272 889//;
0175289520999992000011700004+53220+063620FM-12+015699999V0201801N003010075019N9999999N1-01161-01361102191ADDAY181061AY271061GF108991081091008001999999MA1999999100131MD1710101+9999MW1851REMSYN086    AAXX  17001 28952 415// 81803 11116 21136 30013 40219 57010 78587 889// 555 1/112;
0175289520999992000011703004+53220+063620FM-12+015699999V0201801N003010075019N9999999N1-01161-01361102191ADDAY181031AY271031GF108991081091008001999999MA1999999100131MD1710101+9999MW1851REMSYN086    AAXX  17031 28952 415// 81803 11116 21136 30013 40219 57010 78587 889// 555 1/112;
0184289520999992000011706004+53220+063620FM-12+015699999V0201801N003010075019N0100001N1-00761-00941101851ADDAA100000791AY181061AY281061GF108991081091008001999999KA1999N-01501MD1710161+9999MW1851REMSYN086    AAXX  17061 28952 11597 81803 11076 21094 40185 57016 69900 78588 889// 333 21150;
0144289520999992000011709004+53220+063620FM-12+015699999V0201801N003010075019N0100001N1-00521-00771101771ADDAY181031AY281031GF108991081091008001999999MD1710051+9999MW1851REMSYN070    AAXX  17091 28952 41597 81803 11052 21077 40177 57005 78588 889//;
0177289520999992000011715004+53220+063620FM-12+015699999V0201801N003019999999N9999999N1-00621-00851101611ADDAY181031AY221031GF107991071001999999051001KA1120M-00521MD1710071+9999MW1021REMSYN090    AAXX  17151 28952 /19// 71803 11062 21085 40161 57007 70282 87050 333 11052 555 69942;
0184289520999992000011718004+53220+063620FM-12+015699999V0202301N003019999999N9999999N1-00661-00821101511ADDAA100000591AY181061AY221061GF107991071001999999051001KA1999M-00521MD1710101+9999MW1021REMSYN086    AAXX  17181 28952 119// 72303 11066 21082 40151 57010 69940 70282 87050 333 11052;
0116289520999992000011721004+53220+063620FM-12+015699999V0202301N003019999999N9999999N1-00761-00941101511ADDGF108991081001999999021999MD1710011+9999REMSYN064    AAXX  17211 28952 429// 82303 11076 21094 40151 57001 8802/;
0147289520999992000011800004+53220+063620FM-12+015699999V0202301N003019999999N9999999N1-00961-01171101531ADDGF108991081001999999021999MA1999999099501MD1410001+9999REMSYN080    AAXX  18001 28952 429// 82303 11096 21117 39950 40153 54000 8802/ 555 1/111;
0209289520999992000011803004+53220+063620FM-12+015699999V0202301N003010075019N9999999N1-01371-01501101581ADDAA199000091AJ100249199999999GF107991071051008001001001GJ100009IA1239MD1310021+9999REMSYN096    AAXX  18031 28952 325// 72303 11137 21150 40158 53002 87500 333 47024 55000 555 21137 7994/;EQDQ01  00002PRCP99
0169289520999992000011806004+53220+063620FM-12+015699999V0201801N003019999999N0200001N1-01111-01311101591ADDAA199000091GF106991061001999999041001KA1999N-01371MD1210041+9999REMSYN074    AAXX  18061 28952 32998 61803 11111 21131 40159 52004 86040 333 21137;EQDQ01  00002PRCP99
0126289520999992000011809004+53220+063620FM-12+015699999V0201801N003012200019N0200001N1-00761-01111101601ADDGA1001+999999999GF100991001001999999001001MD1210031+9999REMSYN058    AAXX  18091 28952 42998 01803 11076 21111 40160 52003;
0147289520999992000011812004+53220+063620FM-12+015699999V0201801N002019999999N0200001N1-01021-01221101691ADDGF105991051001999999051001MA1999999099661MD1210071+9999REMSYN080    AAXX  18121 28952 42998 51802 11102 21122 39966 40169 52007 85050 555 1/111;
0169289520999992000011815004+53220+063620FM-12+015699999V0201801N002012200019N9999999N1-01041-01101101791ADDAA199000091GF102991021001999999031001KA1999M-00761MD1210091+9999REMSYN074    AAXX  18151 28952 329// 21802 11104 21110 40179 52009 82030 333 11076;EQDQ01  00002PRCP99
0169289520999992000011818004+53220+063620FM-12+015699999V0201801N001019999999N9999999N1-00941-01101101891ADDAA199000091GF107991071001999999051001KA1999M-00761MD1210101+9999REMSYN074    AAXX  18181 28952 329// 71801 11094 21110 40189 52010 87050 333 11076;EQDQ01  00002PRCP99
0144289520999992000011821004+53220+063620FM-12+015699999V0201801N002010075019N9999999N1-00861-00971101931ADDAY181031AY221031GF108991081091008001999999MD1210061+9999MW1851REMSYN070    AAXX  18211 28952 415// 81802 11086 21097 40193 52006 78582 889//;
0175289520999992000011900004+53220+063620FM-12+015699999V0201801N002010075019N9999999N1-00861-01011102171ADDAY181061AY221061GF108991081091008001999999MA1999999100151MD1210241+9999MW1021REMSYN086    AAXX  19001 28952 415// 81802 11086 21101 30015 40217 52024 70282 889// 555 1/111;
0196289520999992000011903004+53220+063620FM-12+015699999V0201801N004010075019N9999999N1-00951-01071102191ADDAA112000591AJ100249199999999GF108991081091008001999999GJ101989IA1239MD1410001+9999REMSYN102    AAXX  19031 28952 /25// 81804 11095 21107 40219 54000 889// 333 47024 55033 555 21104 69952 7995/;
0175289520999992000011906004+53220+063620FM-12+015699999V0201801N002019999999N0200001N1-01101-01231102271ADDAA100000591GF107991071001999999051001KA1999N+99999MD1310081+9999REMSYN080    AAXX  19061 28952 12998 71802 11110 21123 40227 53008 69950 87050 333 21104;EQDQ01 -01042ATMN  
0116289520999992000011909004+53220+063620FM-12+015699999V0201801N002012200019N0200001N1-00951-01251102271ADDGF102991021001999999031001MD1410001+9999REMSYN064    AAXX  19091 28952 42998 21802 11095 21125 40227 54000 82030;
0147289520999992000011912004+53220+063620FM-12+015699999V0201401N002012200019N0200001N1-01031-01311102321ADDGF102991001001999999001011MA1999999100271MD1310041+9999REMSYN080    AAXX  19121 28952 42998 21402 11103 21131 30027 40232 53004 80001 555 1/113;
0169289520999992000011915004+53220+063620FM-12+015699999V0201401N001012200019N9999999N1-01381-01581102331ADDAA199000091GF102991001001999999001011KA1999M-00851MD1810021+9999REMSYN074    AAXX  19151 28952 329// 21401 11138 21158 40233 58002 80001 333 11085;EQDQ01  00002PRCP99
0165289520999992000011918004+53220+063620FM-12+015699999V0201101N004019999999N9999999N1-01151-01211102101ADDAA199000091GF106991051001999999031011KA1999M-00851MD1710211+9999REMSYN070AAXX  19181 28952 329// 61104 11115 21121 40210 57021 85031 333 11085;EQDQ01  00002PRCP99
0112289520999992000011921004+53220+063620FM-12+015699999V0201401N005019999999N9999999N1-01101-01231101911ADDGF108991001001999999001091MD1710171+9999REMSYN060AAXX  19211 28952 429// 81405 11110 21123 40191 57017 80009;
0143289520999992000012000004+53220+063620FM-12+015699999V0201401N005019999999N9999999N1-01101-01231101661ADDGF108991081001999999011999MA1999999099631MD1710241+9999REMSYN076AAXX  20001 28952 429// 81405 11110 21123 39963 40166 57024 8801/ 555 1/113;
0233289520999992000012003004+53220+063620FM-12+015699999V0201401N007019999999N9999999N1-00811-01081101191ADDAA199000091AJ100239199999999AY131031AY221031GF108991051001999999031011GJ102529IA1239MD1710441+9999MW1361REMSYN098AAXX  20031 28952 319// 81407 11081 21108 40119 57044 73632 85031 333 47023 55042 555 21140 7000/;EQDQ01  00002PRCP99
0193289520999992000012006004+53220+063620FM-12+015699999V0201401N007010075019N0200001N1-00821-01191101031ADDAA199000091AY131061AY221061GF107991071051008001999999KA1999N-01401MD1710161+9999MW1361REMSYN076AAXX  20061 28952 31598 71407 11082 21119 40103 57016 73632 875// 333 21140;EQDQ01  00002PRCP99
0140289520999992000012009004+53220+063620FM-12+015699999V0201401N007010075019N0200001N1-00631-01031100701ADDAY131031AY231031GF107991071051008001001001MD1710311+9999MW1361REMSYN066AAXX  20091 28952 41598 71407 11063 21103 40070 57031 73633 87500;
0171289520999992000012012004+53220+063620FM-12+015699999V0201401N009010075019N0200001N1-00441-00781100391ADDAY131061AY231061GF107991071051008001999999MA1999999098431MD1710291+9999MW1361REMSYN082AAXX  20121 28952 41598 71409 11044 21078 39843 40039 57029 73633 875// 555 1/105;
0173289520999992000012015004+53220+063620FM-12+015699999V0201401N009010075019N9999999N1-00421-00511100261ADDAY181031AY231031GF108991081091008001999999KA1120M-00421MD1710131+9999MW1851REMSYN086AAXX  20151 28952 /15// 81409 11042 21051 40026 57013 78583 889// 333 11042 555 69902;
0199289520999992000012018004+53220+063620FM-12+015699999V0201401N007010075019N9999999N1-00281-00441100281ADDAA100000791AY181061AY231061GF108991081091008001999999KA1999M+99999MD1310031+9999MW1851REMSYN082AAXX  20181 28952 115// 81407 11028 21044 40028 53003 69900 78583 889// 333 11042;EQDQ01 -00422ATMX  
0150289520999992000012021004+53220+063620FM-12+015699999V0201401N005012200019N9999999N1-00561-00671100691ADDAY181031AY231031GA1001+999999999GF100991001001999999001001MD1210381+9999MW1011REMSYN060AAXX  20211 28952 419// 01405 11056 21067 40069 52038 70183;
0181289520999992000012100004+53220+063620FM-12+015699999V0201401N001012200019N9999999N1-00941-01101101021ADDAY181061AY231061GA1001+999999999GF100991001001999999001001MA1999999099001MD1210291+9999MW1021REMSYN076AAXX  21001 28952 419// 01401 11094 21110 39900 40102 52029 70283 555 1/113;
0175289520999992000012103004+53220+063620FM-12+015699999V0201401N001010075019N9999999N1-00981-01101101371ADDAJ100239199999999GF108991081091008001999999GJ100009IA1239MD1210341+9999REMSYN092AAXX  21031 28952 /25// 81401 11098 21110 40137 52034 889// 333 47023 55000 555 21098 7003/;
0152289520999992000012106004+53220+063620FM-12+015699999V0201401N003019999999N0200001N1-00841-00991101541ADDAA100003091GF106991031001999999031091KA1999N-00981MD1210191+9999REMSYN076AAXX  21061 28952 13998 61403 11084 21099 40154 52019 60030 83039 333 21098;
0112289520999992000012109004+53220+063620FM-12+015699999V0201401N006010075019N0200001N1-00541-00721101521ADDGF108991081091008001999999MD1410001+9999REMSYN060AAXX  21091 28952 42598 81406 11054 21072 40152 54000 889//;
0143289520999992000012112004+53220+063620FM-12+015699999V0201401N006010075019N0200001N1-00501-00601101421ADDGF108991081091008001999999MA1999999099441MD1810091+9999REMSYN076AAXX  21121 28952 42598 81406 11050 21060 39944 40142 58009 889// 555 1/105;
0193289520999992000012115004+53220+063620FM-12+015699999V0201401N007010075019N9999999N1-00381-00461101111ADDAA199000091AY131031AY221031GF108991081091008001999999KA1999M-00381MD1710301+9999MW1361REMSYN076AAXX  21151 28952 315// 81407 11038 21046 40111 57030 73632 889// 333 11038;EQDQ01  00002PRCP99
0209289520999992000012118004+53220+063620FM-12+015699999V0201401N008010075019N9999999N1-00161-00271100961ADDAA199000091AY131061AY221061GF108991081091008001999999KA1999M+99999MD1710141+9999MW1361REMSYN076AAXX  21181 28952 315// 81408 11016 21027 40096 57014 73632 889// 333 11038;EQDQ01  00002PRCP99Q02 -00382ATMX  
0140289520999992000012121004+53220+063620FM-12+015699999V0201401N006010075019N9999999N1-00101-00201100851ADDAY131031AY231031GF108991081091008001999999MD1710091+9999MW1361REMSYN066AAXX  21211 28952 415// 81406 11010 21020 40085 57009 73633 889//;
0171289520999992000012200004+53220+063620FM-12+015699999V0201401N006010075019N9999999N1-00181-00261100871ADDAY131061AY231061GF108991081091008001999999MA1999999098911MD1410001+9999MW1361REMSYN082AAXX  22001 28952 415// 81406 11018 21026 39891 40087 54000 73633 889// 555 1/103;
0233289520999992000012203004+53220+063620FM-12+015699999V0201401N005010075019N9999999N1-00251-00411100691ADDAA199000091AJ100219199999999AY131031AY221031GF108991081091008001999999GJ100549IA1239MD1810171+9999MW1021REMSYN098AAXX  22031 28952 315// 81405 11025 21041 40069 58017 70232 889// 333 47021 55009 555 21038 7000/;EQDQ01  00002PRCP99
0193289520999992000012206004+53220+063620FM-12+015699999V0201401N001010075019N0200001N1-00251-00281100641ADDAA199000091AY131061AY221061GF108991081091008001999999KA1999N-00381MD1710051+9999MW1021REMSYN076AAXX  22061 28952 31598 81401 11025 21028 40064 57005 70232 889// 333 21038;EQDQ01  00002PRCP99
0112289520999992000012209004+53220+063620FM-12+015699999V0201801N001010075019N0200001N1-00141-00251100721ADDGF108991081091008001999999MD1310091+9999REMSYN060AAXX  22091 28952 42598 81801 11014 21025 40072 53009 889//;
0171289520999992000012212004+53220+063620FM-12+015699999V0209999C000010075019N0100001N1-00121-00191100861ADDAY181061AY221061GF108991081091008001999999MA1999999098921MD1210141+9999MW1851REMSYN082AAXX  22121 28952 41597 80000 11012 21019 39892 40086 52014 78582 889// 555 1/102;
0173289520999992000012215004+53220+063620FM-12+015699999V0209999C000010075019N9999999N1-00201-00261100991ADDAY181031AY281031GF108991081091008001999999KA1120M-00121MD1210111+9999MW1851REMSYN086AAXX  22151 28952 /15// 80000 11020 21026 40099 52011 78588 889// 333 11012 555 60022;
0180289520999992000012218004+53220+063620FM-12+015699999V0203201N002010075019N9999999N1-00371-00451101101ADDAA100002091AY181061AY281061GF108991081091008001999999KA1999M-00121MD1210101+9999MW1851REMSYN082AAXX  22181 28952 115// 83202 11037 21045 40110 52010 60020 78588 889// 333 11012;
0140289520999992000012221004+53220+063620FM-12+015699999V0203201N003010075019N9999999N1-00541-00681101191ADDAY181031AY221031GF108991081091008001999999MD1210081+9999MW1021REMSYN066AAXX  22211 28952 415// 83203 11054 21068 40119 52008 70282 889//;
0171289520999992000012300004+53220+063620FM-12+015699999V0203201N003019999999N9999999N1-00601-00751101261ADDAY171061AY221061GF108991081001999999021999MA1999999099261MD1210051+9999MW1711REMSYN082AAXX  23001 28952 419// 83203 11060 21075 39926 40126 52005 77172 8802/ 555 1/107;
0220289520999992000012303004+53220+063620FM-12+015699999V0203201N003019999999N9999999N1-00761-00981101341ADDAA112003091AJ100259199999999AY171031AY271031GF108991081001999999021999GJ100009IA1239MD1210071+9999MW1711REMSYN104AAXX  23031 28952 /19// 83203 11076 21098 40134 52007 77177 8802/ 333 47025 55000 555 21076 60032 7005/;
0180289520999992000012306004+53220+063620FM-12+015699999V0203201N001019999999N0200001N1-00871-01111101431ADDAA100003091AY171061AY221061GF108991081001999999011999KA1999M-00761MD1210091+9999MW1021REMSYN082AAXX  23061 28952 11998 83201 11087 21111 40143 52009 60030 70272 8801/ 333 11076;
0112289520999992000012309004+53220+063620FM-12+015699999V0202701N001010075019N0200001N1-00921-01221101561ADDGF107991071051008001999999MD1210121+9999REMSYN060AAXX  23091 28952 42598 72701 11092 21122 40156 52012 875//;
0171289520999992000012312004+53220+063620FM-12+015699999V0202701N001019999999N0040001N1-00871-01111101621ADDAY171061AY221061GF108991081001999999021999MA1999999099611MD1210071+9999MW1711REMSYN082AAXX  23121 28952 41996 82701 11087 21111 39961 40162 52007 77172 8802/ 555 1/109;
0173289520999992000012315004+53220+063620FM-12+015699999V0202701N001019999999N9999999N1-01171-01441101671ADDAY171031AY271031GF108991081001999999021999KA1120M-00761MD1210011+9999MW1711REMSYN086AAXX  23151 28952 /19// 82701 11117 21144 40167 52001 77177 8802/ 333 11076 555 69932;
0180289520999992000012318004+53220+063620FM-12+015699999V0202701N001019999999N9999999N1-01121-01401101661ADDAA100000391AY171061AY221061GF108991081001999999021999KA1999M-00761MD1410001+9999MW1711REMSYN082AAXX  23181 28952 119// 82701 11112 21140 40166 54000 69930 77172 8802/ 333 11076;
0140289520999992000012321004+53220+063620FM-12+015699999V0209999C000019999999N9999999N1-01131-01331101721ADDAY171031AY221031GF108991081001999999011999MD1310051+9999MW1021REMSYN066AAXX  23211 28952 419// 80000 11113 21133 40172 53005 70272 8801/;
0171289520999992000012400004+53220+063620FM-12+015699999V0202301N001012200019N9999999N1-01711-01901101761ADDAY171061AY211061GF103991031001999999031001MA1999999099671MD1410001+9999MW1011REMSYN082AAXX  24001 28952 419// 32301 11171 21190 39967 40176 54000 70171 83030 555 1/121;
0192289520999992000012403004+53220+063620FM-12+015699999V0202001N001019999999N9999999N1-01741-01931101781ADDAA112999929AJ100259199999999GF105991051001999999031001GJ101149IA1239MD1310021+9999REMSYN098AAXX  24031 28952 /29// 52001 11174 21193 40178 53002 85030 333 47025 55019 555 21187 69902 7994/;
0171289520999992000012406004+53220+063620FM-12+015699999V0209999C000012200019N0200001N1-01791-01981101871ADDAA100000791GF103991031091008001001001KA1999M+99999MD1210081+9999REMSYN076AAXX  24061 28952 12598 30000 11179 21198 40187 52008 69900 83900 333 11187;EQDQ01 -01872ATMX  
0112289520999992000012409004+53220+063620FM-12+015699999V0201801N003010075019N0200001N1-01241-01591101811ADDGF105991051091008001001001MD1810021+9999REMSYN060AAXX  24091 28952 42598 51803 11124 21159 40181 58002 85900;
0143289520999992000012412004+53220+063620FM-12+015699999V0202301N003019999999N0200001N1-01461-01891101901ADDGF106991061001999999031001MA1999999099831MD1310081+9999REMSYN076AAXX  24121 28952 42998 62303 11146 21189 39983 40190 53008 86030 555 1/117;
0173289520999992000012415004+53220+063620FM-12+015699999V0202301N005019999999N9999999N1-01361-01791102031ADDAY171031AY221031GF108991081001999999011999KA1120M-01241MD1210131+9999MW1711REMSYN086AAXX  24151 28952 /19// 82305 11136 21179 40203 52013 77172 8801/ 333 11124 555 69902;
0180289520999992000012418004+53220+063620FM-12+015699999V0202301N003019999999N9999999N1-01421-01851102181ADDAA100000791AY171061AY221061GF108991081001999999011999KA1999M-01241MD1210151+9999MW1021REMSYN082AAXX  24181 28952 119// 82303 11142 21185 40218 52015 69900 70272 8801/ 333 11124;
0140289520999992000012421004+53220+063620FM-12+015699999V0202301N004019999999N9999999N1-01331-01761102551ADDAY171031AY221031GF108991081001999999011999MD1210361+9999MW1711REMSYN066AAXX  24211 28952 419// 82304 11133 21176 40255 52036 77172 8801/;
0181289520999992000012500004+53220+063620FM-12+015699999V0202301N003012200019N9999999N1-01911-02321102941ADDAY171061AY211061GA1001+999999999GF100991001001999999001001MA1999999100801MD1210331+9999MW1011REMSYN076AAXX  25001 28952 419// 02303 11191 21232 30080 40294 52033 70171 555 1/120;
0202289520999992000012503004+53220+063620FM-12+015699999V0202301N004012200019N9999999N1-02251-02651103181ADDAA112000491AJ100289199999999GA1001+999999999GF100991001001999999001001GJ103249IA1239MD1210221+9999REMSYN092AAXX  25031 28952 /29// 02304 11225 21265 40318 52022 333 47028 55054 555 21225 69942 7994/;
0162289520999992000012506004+53220+063620FM-12+015699999V0202001N001012200019N0200001N1-02161-02481103381ADDAA100000591GA1001+999999999GF100991001001999999001001KA1999N-02251MD1210201+9999REMSYN070AAXX  25061 28952 12998 02001 11216 21248 40338 52020 69940 333 21225;
0112289520999992000012509004+53220+063620FM-12+015699999V0202301N004019999999N0200001N1-01651-02151103531ADDGF106991001001999999001011MD1210191+9999REMSYN060AAXX  25091 28952 42998 62304 11165 21215 40353 52019 80001;
0143289520999992000012512004+53220+063620FM-12+015699999V0201801N003019999999N0200001N1-01721-02221103781ADDGF106991001001999999001021MA1999999101641MD1210231+9999REMSYN076AAXX  25121 28952 42998 61803 11172 21222 30164 40378 52023 80002 555 1/121;
0175289520999992000012515004+53220+063620FM-12+015699999V0202001N003012200019N9999999N1-02031-02361103831ADDAA199000091GA1001+999999999GF100991001001999999001001KA1999M-01661MD1210041+9999REMSYN064AAXX  25151 28952 329// 02003 11203 21236 40383 52004 333 11166;EQDQ01  00002PRCP99
0175289520999992000012518004+53220+063620FM-12+015699999V0202001N002012200019N9999999N1-02111-02441103951ADDAA199000091GA1001+999999999GF100991001001999999001001KA1999M-01651MD1210101+9999REMSYN064AAXX  25181 28952 329// 02002 11211 21244 40395 52010 333 11165;EQDQ01  00002PRCP99
0112289520999992000012521004+53220+063620FM-12+015699999V0201801N003012200019N9999999N1-02311-02631103971ADDGF103991001001999999001091MD1410001+9999REMSYN060AAXX  25211 28952 429// 31803 11231 21263 40397 54000 80009;
0143289520999992000012600004+53220+063620FM-12+015699999V0201801N004019999999N9999999N1-02001-02261103941ADDGF106991001001999999001091MA1999999101781MD1410001+9999REMSYN076AAXX  26001 28952 429// 61804 11200 21226 30178 40394 54000 80009 555 1/122;
0205289520999992000012603004+53220+063620FM-12+015699999V0201401N005019999999N9999999N1-02131-02381103881ADDAA199000091AJ100289199999999GF106991001001999999001091GJ103969IA1239MD1810071+9999REMSYN092AAXX  26031 28952 329// 61405 11213 21238 40388 58007 80009 333 47028 55066 555 21231 7000/;EQDQ01  00002PRCP99
0165289520999992000012606004+53220+063620FM-12+015699999V0201401N003019999999N0200001N1-01911-02171103781ADDAA199000091GF107991001001999999001091KA1999N-02311MD1710081+9999REMSYN070AAXX  26061 28952 32998 71403 11191 21217 40378 57008 80009 333 21231;EQDQ01  00002PRCP99
0112289520999992000012609004+53220+063620FM-12+015699999V0201401N004019999999N0200001N1-01361-01971103491ADDGF107991001001999999001091MD1710241+9999REMSYN060AAXX  26091 28952 42998 71404 11136 21197 40349 57024 80009;
0143289520999992000012612004+53220+063620FM-12+015699999V0201401N004019999999N0200001N1-01301-01821103281ADDGF106991061001999999031001MA1999999101201MD1710191+9999REMSYN076AAXX  26121 28952 42998 61404 11130 21182 30120 40328 57019 86030 555 1/115;
0165289520999992000012615004+53220+063620FM-12+015699999V0201401N006012200019N9999999N1-01161-01511103061ADDAA199000091GF103991031001999999031001KA1999M-01161MD1710221+9999REMSYN070AAXX  26151 28952 329// 31406 11116 21151 40306 57022 83030 333 11116;EQDQ01  00002PRCP99
0181289520999992000012618004+53220+063620FM-12+015699999V0201401N006019999999N9999999N1-01071-01271102931ADDAA199000091GF105991051001999999031001KA1999M+99999MD1710111+9999REMSYN070AAXX  26181 28952 329// 51406 11107 21127 40293 57011 85030 333 11116;EQDQ01  00002PRCP99Q02 -01162ATMX  
0112289520999992000012621004+53220+063620FM-12+015699999V0201401N006012200019N9999999N1-00951-01161102701ADDGF103991001001999999001021MD1710221+9999REMSYN060AAXX  26211 28952 429// 31406 11095 21116 40270 57022 80002;
0143289520999992000012700004+53220+063620FM-12+015699999V0201401N006012200019N9999999N1-00911-01161102441ADDGF103991001001999999001021MA1999999100411MD1710241+9999REMSYN076AAXX  27001 28952 429// 31406 11091 21116 30041 40244 57024 80002 555 1/111;
0205289520999992000012703004+53220+063620FM-12+015699999V0201401N005019999999N9999999N1-00861-01141102361ADDAA199000091AJ100289199999999GF106991061001999999041001GJ100729IA1239MD1510001+9999REMSYN092AAXX  27031 28952 329// 61405 11086 21114 40236 55000 86040 333 47028 55012 555 21116 7000/;EQDQ01  00002PRCP99
0159289520999992000012706004+53220+063620FM-12+015699999V0201801N002019999999N0200001N1-00781-01091999999ADDAA199000091GF107991071001999999051999KA1999N-01161MD1710091+9999REMSYN064AAXX  27061 28952 32998 71802 11078 21109 57009 8705/ 333 21116;EQDQ01  00002PRCP99
0112289520999992000012709004+53220+063620FM-12+015699999V0201401N005019999999N0200001N1-00631-00941102071ADDGF107991071001999999051999MD1710181+9999REMSYN060AAXX  27091 28952 42998 71405 11063 21094 40207 57018 8705/;
0143289520999992000012712004+53220+063620FM-12+015699999V0201601N004019999999N0200001N1-00651-00931102051ADDGF108991081001999999011999MA1999999100041MD1710021+9999REMSYN076AAXX  27121 28952 42998 81604 11065 21093 30004 40205 57002 8801/ 555 1/108;
0165289520999992000012715004+53220+063620FM-12+015699999V0201601N004012200019N9999999N1-00781-01001102051ADDAA199000091GF103991031001999999031001KA1999M-00601MD1710011+9999REMSYN070AAXX  27151 28952 329// 31604 11078 21100 40205 57001 83030 333 11060;EQDQ01  00002PRCP99
0165289520999992000012718004+53220+063620FM-12+015699999V0201601N003019999999N9999999N1-00841-00991102031ADDAA199000091GF107991071001999999051999KA1999M-00601MD1710021+9999REMSYN070AAXX  27181 28952 329// 71603 11084 21099 40203 57002 8705/ 333 11060;EQDQ01  00002PRCP99
0112289520999992000012721004+53220+063620FM-12+015699999V0201601N003019999999N9999999N1-00861-01011102021ADDGF108991081001999999011999MD1710011+9999REMSYN060AAXX  27211 28952 429// 81603 11086 21101 40202 57001 8801/;
0143289520999992000012800004+53220+063620FM-12+015699999V0201601N002019999999N9999999N1-00861-01011101951ADDGF108991081001999999011999MA1999999099931MD1710071+9999REMSYN076AAXX  28001 28952 429// 81602 11086 21101 39993 40195 57007 8801/ 555 1/109;
0205289520999992000012803004+53220+063620FM-12+015699999V0201601N002019999999N9999999N1-00801-00981101951ADDAA199000091AJ100289199999999GF108991081001999999011999GJ100009IA1239MD1410001+9999REMSYN092AAXX  28031 28952 329// 81602 11080 21098 40195 54000 8801/ 333 47028 55000 555 21086 7000/;EQDQ01  00002PRCP99
0174289520999992000012806004+53220+063620FM-12+015699999V0201801N001019999999N0040001N1-00761-00891101941ADDAA199000021AY171061AY221061GF108991081001999999021999KA1999N-00861MD1810011+9999MW1711REMSYN076AAXX  28061 28952 31996 81801 11076 21089 40194 58001 77172 8802/ 333 21086;
0140289520999992000012809004+53220+063620FM-12+015699999V0201801N002019999999N0040001N1-00761-00941101801ADDAY171031AY221031GF108991081001999999021999MD1710141+9999MW1711REMSYN066AAXX  28091 28952 41996 81802 11076 21094 40180 57014 77172 8802/;
0171289520999992000012812004+53220+063620FM-12+015699999V0201801N001019999999N0200001N1-00721-00931101841ADDAY171061AY221061GF108991081001999999021999MA1999999099831MD1310051+9999MW1021REMSYN082AAXX  28121 28952 41998 81801 11072 21093 39983 40184 53005 70272 8802/ 555 1/108;
0173289520999992000012815004+53220+063620FM-12+015699999V0209999C000019999999N9999999N1-00941-01061102001ADDAY171031AY221031GF108991081001999999011999KA1120M-00721MD1210131+9999MW1711REMSYN086AAXX  28151 28952 /19// 80000 11094 21106 40200 52013 77172 8801/ 333 11072 555 60042;
0180289520999992000012818004+53220+063620FM-12+015699999V0209999C000019999999N9999999N1-01041-01101102151ADDAA100004191AY171061AY221061GF108991081001999999021999KA1999M-00721MD1210151+9999MW1021REMSYN082AAXX  28181 28952 119// 80000 11104 21110 40215 52015 60040 70272 8802/ 333 11072;
0112289520999992000012821004+53220+063620FM-12+015699999V0209999C000019999999N9999999N1-01151-01281102331ADDGF108991081001999999021999MD1210151+9999REMSYN060AAXX  28211 28952 429// 80000 11115 21128 40233 52015 8802/;
0143289520999992000012900004+53220+063620FM-12+015699999V0209999C000019999999N9999999N1-01221-01351102431ADDGF108991081001999999021999MA1999999100361MD1210101+9999REMSYN076AAXX  29001 28952 429// 80000 11122 21135 30036 40243 52010 8802/ 555 1/116;
0186289520999992000012903004+53220+063620FM-12+015699999V0209999C000019999999N9999999N1-01141-01271102561ADDAA199000021AJ100299199999999GF108991081001999999021999GJ100009IA1239MD1210131+9999REMSYN092AAXX  29031 28952 329// 80000 11114 21127 40256 52013 8802/ 333 47029 55000 555 21122 7004/;
0203289520999992000012906004+53220+063620FM-12+015699999V0209999C000012200019N0040001N1-01161-01291102681ADDAA199000091AY111061AY211061GA1001+999999999GF100991001001999999001001KA1999N-01221MD1210121+9999MW1101REMSYN070AAXX  29061 28952 31996 00000 11116 21129 40268 52012 71011 333 21122;EQDQ01  00002PRCP99
0122289520999992000012909004+53220+063620FM-12+015699999V0209999C000012200019N0100001N1-01021-01301102681ADDGA1001+999999999GF100991001001999999001001MD1210021+9999REMSYN054AAXX  29091 28952 42997 00000 11102 21130 40268 52002;
0153289520999992000012912004+53220+063620FM-12+015699999V0209999C000012200019N0200001N1-01521-01791102721ADDGA1001+999999999GF100991001001999999001001MA1999999100631MD1410001+9999REMSYN070AAXX  29121 28952 42998 00000 11152 21179 30063 40272 54000 555 1/119;
0175289520999992000012915004+53220+063620FM-12+015699999V0201801N002012200019N9999999N1-01791-02121102721ADDAA199000091GA1001+999999999GF100991001001999999001001KA1999M-00851MD1810021+9999REMSYN064AAXX  29151 28952 329// 01802 11179 21212 40272 58002 333 11085;EQDQ01  00002PRCP99
0165289520999992000012918004+53220+063620FM-12+015699999V0201801N002012200019N9999999N1-01611-02031102671ADDAA199000091GF102991021051999999001001KA1999M-00851MD1710041+9999REMSYN070AAXX  29181 28952 329// 21802 11161 21203 40267 57004 82500 333 11085;EQDQ01  00002PRCP99
0122289520999992000012921004+53220+063620FM-12+015699999V0209999C000012200019N9999999N1-01401-01671102591ADDGA1001+999999999GF100991001001999999001001MD1710061+9999REMSYN054AAXX  29211 28952 429// 00000 11140 21167 40259 57006;
0171289520999992000013000004+53220+063620FM-12+015699999V0209999C000019999999N9999999N1-01081-01211102521ADDAY171061AY211061GF108991081001999999021999MA1999999100471MD1710041+9999MW1711REMSYN082AAXX  30001 28952 419// 80000 11108 21121 30047 40252 57004 77171 8802/ 555 1/111;
0220289520999992000013003004+53220+063620FM-12+015699999V0201801N002019999999N9999999N1-01081-01211102411ADDAA112999929AJ100299199999999AY171031AY221031GF108991081001999999011999GJ103669IA1239MD1710111+9999MW1021REMSYN104AAXX  30031 28952 /19// 81802 11108 21121 40241 57011 70272 8801/ 333 47029 55061 555 21194 69902 7990/;
0180289520999992000013006004+53220+063620FM-12+015699999V0201801N003019999999N0200001N1-00941-00971102401ADDAA100000791AY171061AY221061GF105991051001999999041001KA1999N-01941MD1710011+9999MW1021REMSYN082AAXX  30061 28952 11998 51803 11094 21097 40240 57001 69900 70272 85040 333 21194;
0122289520999992000013009004+53220+063620FM-12+015699999V0201801N002012200019N0200001N1-00521-00771102271ADDGA1001+999999999GF100991001001999999001001MD1710081+9999REMSYN054AAXX  30091 28952 42998 01802 11052 21077 40227 57008;
0153289520999992000013012004+53220+063620FM-12+015699999V0202301N001012200019N0200001N1-00531-00781102301ADDGA1001+999999999GF100991001001999999001001MA1999999100291MD1310021+9999REMSYN070AAXX  30121 28952 42998 02301 11053 21078 30029 40230 53002 555 1/108;
0175289520999992000013015004+53220+063620FM-12+015699999V0202301N001012200019N9999999N1-00961-01041102461ADDAA199000091GA1001+999999999GF100991001001999999001001KA1999M-00451MD1210121+9999REMSYN064AAXX  30151 28952 329// 02301 11096 21104 40246 52012 333 11045;EQDQ01  00002PRCP99
0175289520999992000013018004+53220+063620FM-12+015699999V0201801N001012200019N9999999N1-01351-01411102611ADDAA199000091GA1001+999999999GF100991001001999999001001KA1999M-00451MD1210121+9999REMSYN064AAXX  30181 28952 329// 01801 11135 21141 40261 52012 333 11045;EQDQ01  00002PRCP99
0112289520999992000013021004+53220+063620FM-12+015699999V0201801N001019999999N9999999N1-01421-01481102711ADDGF107991071001999999051001MD1210101+9999REMSYN060AAXX  30211 28952 429// 71801 11142 21148 40271 52010 87050;
0153289520999992000013100004+53220+063620FM-12+015699999V0201801N001012200019N9999999N1-01321-01381102821ADDGA1001+999999999GF100991001001999999001001MA1999999100741MD1210111+9999REMSYN070AAXX  31001 28952 429// 01801 11132 21138 30074 40282 52011 555 1/116;
0215289520999992000013103004+53220+063620FM-12+015699999V0201801N001012200019N9999999N1-01751-01811103001ADDAA199000091AJ100299199999999GA1001+999999999GF100991001001999999001001GJ103249IA1239MD1210131+9999REMSYN086AAXX  31031 28952 329// 01801 11175 21181 40300 52013 333 47029 55054 555 21177 7000/;EQDQ01  00002PRCP99
0175289520999992000013106004+53220+063620FM-12+015699999V0209999C000012200019N0200001N1-01461-01661103091ADDAA199000091GA1001+999999999GF100991001001999999001001KA1999N-01771MD1210131+9999REMSYN064AAXX  31061 28952 32998 00000 11146 21166 40309 52013 333 21177;EQDQ01  00002PRCP99
0112289520999992000013109004+53220+063620FM-12+015699999V0201801N002010075019N0200001N1-00981-01151103031ADDGF107991071051008001001001MD1810031+9999REMSYN060AAXX  31091 28952 42598 71802 11098 21115 40303 58003 87500;
0171289520999992000013112004+53220+063620FM-12+015699999V0201801N002010075019N0040001N1-00401-00521102921ADDAY171061AY211061GF108991081001008001021999MA1999999100911MD1710061+9999MW1711REMSYN082AAXX  31121 28952 41596 81802 11040 21052 30091 40292 57006 77171 8802/ 555 1/105;
0173289520999992000013115004+53220+063620FM-12+015699999V0201801N003010300019N9999999N1-00151-00261102871ADDAY171031AY221031GF108991041071008001021999KA1120M-00151MD1710031+9999MW1711REMSYN086AAXX  31151 28952 /15// 81803 11015 21026 40287 57003 77172 8472/ 333 11015 555 69902;
0180289520999992000013118004+53220+063620FM-12+015699999V0201801N003010075019N9999999N1-00151-00351102821ADDAA100000791AY171061AY221061GF108991081061008001999999KA1999M-00151MD1710051+9999MW1021REMSYN082AAXX  31181 28952 115// 81803 11015 21035 40282 57005 69900 70272 886// 333 11015;
0112289520999992000013121004+53220+063620FM-12+015699999V0209999C000010075019N9999999N1-00301-00471102821ADDGF108991081061008001999999MD1710011+9999REMSYN060AAXX  31211 28952 425// 80000 11030 21047 40282 57001 886//;
0143289520999992000020100004+53220+063620FM-12+015699999V0201801N003012200019N9999999N1-00421-00721102731ADDGF103991031001999999031001MA1999999100731MD1710091+9999REMSYN076AAXX  01001 28952 429// 31803 11042 21072 30073 40273 57009 83030 555 1/107;
0192289520999992000020103004+53220+063620FM-12+015699999V0201801N003019999999N9999999N1-00561-00941102711ADDAA112999929AJ100299199999999GF108991081001999999021999GJ101029IA1239MD1710041+9999REMSYN098AAXX  01031 28952 /29// 81803 11056 21094 40271 57004 8802/ 333 47029 55017 555 21056 69902 7990/;
0152289520999992000020106004+53220+063620FM-12+015699999V0201801N003019999999N0200001N1-00421-00801102581ADDAA100000791GF107991071001999999051001KA1999N-00561MD1710111+9999REMSYN076AAXX  01061 28952 12998 71803 11042 21080 40258 57011 69900 87050 333 21056;
0112289520999992000020109004+53220+063620FM-12+015699999V0201801N005010075019N0200001N1-00381-00751102501ADDGF106991061091008001001001MD1710081+9999REMSYN060AAXX  01091 28952 42598 61805 11038 21075 40250 57008 86900;
0143289520999992000020112004+53220+063620FM-12+015699999V0201801N007019999999N0200001N1-00281-00511102351ADDGF108991081001999999021999MA1999999100361MD1710141+9999REMSYN076AAXX  01121 28952 42998 81807 11028 21051 30036 40235 57014 8802/ 555 1/103;
0165289520999992000020115004+53220+063620FM-12+015699999V0201801N007019999999N9999999N1-00341-00591102261ADDAA199000091GF108991081001999999021999KA1999M-00281MD1710101+9999REMSYN070AAXX  01151 28952 329// 81807 11034 21059 40226 57010 8802/ 333 11028;EQDQ01  00002PRCP99
0165289520999992000020118004+53220+063620FM-12+015699999V0201801N007019999999N9999999N1-00581-00761102161ADDAA199000091GF107991071001999999051999KA1999M-00281MD1710111+9999REMSYN070AAXX  01181 28952 329// 71807 11058 21076 40216 57011 8705/ 333 11028;EQDQ01  00002PRCP99
0112289520999992000020121004+53220+063620FM-12+015699999V0201801N007019999999N9999999N1-01081-01281101971ADDGF105991051001999999031001MD1710221+9999REMSYN060AAXX  01211 28952 429// 51807 11108 21128 40197 57022 85030;
0143289520999992000020200004+53220+063620FM-12+015699999V0201401N007019999999N9999999N1-01161-01361101891ADDGF107991071001999999051001MA1999999099831MD1710101+9999REMSYN076AAXX  02001 28952 429// 71407 11116 21136 39983 40189 57010 87050 555 1/114;
0205289520999992000020203004+53220+063620FM-12+015699999V0201401N009019999999N9999999N1-01201-01471101711ADDAA199000091AJ100299199999999GF108991081001999999021999GJ101569IA1239MD1710171+9999REMSYN092AAXX  02031 28952 329// 81409 11120 21147 40171 57017 8802/ 333 47029 55026 555 21120 7000/;EQDQ01  00002PRCP99
0165289520999992000020206004+53220+063620FM-12+015699999V0201401N006019999999N0200001N1-01101-01381101551ADDAA199000091GF107991071001999999051999KA1999N-01201MD1710141+9999REMSYN070AAXX  02061 28952 32998 71406 11110 21138 40155 57014 8705/ 333 21120;EQDQ01  00002PRCP99
0112289520999992000020209004+53220+063620FM-12+015699999V0201401N005019999999N0200001N1-00911-01211101391ADDGF107991071001999999051999MD1710141+9999REMSYN060AAXX  02091 28952 42998 71405 11091 21121 40139 57014 8705/;
0143289520999992000020212004+53220+063620FM-12+015699999V0201401N006019999999N0200001N1-00751-01051101101ADDGF107991071001999999051999MA1999999099101MD1210281+9999REMSYN076AAXX  02121 28952 42998 71406 11075 21105 39910 40110 52028 8705/ 555 1/108;
0165289520999992000020215004+53220+063620FM-12+015699999V0201401N006019999999N9999999N1-00881-01121100931ADDAA199000091GF107991071001999999051999KA1999M-00751MD1710171+9999REMSYN070AAXX  02151 28952 329// 71406 11088 21112 40093 57017 8705/ 333 11075;EQDQ01  00002PRCP99
0174289520999992000020218004+53220+063620FM-12+015699999V0201401N004019999999N9999999N1-00861-01051100871ADDAA199000021AY171061AY221061GF108991081001999999021999KA1999M-00751MD1710061+9999MW1711REMSYN076AAXX  02181 28952 319// 81404 11086 21105 40087 57006 77172 8802/ 333 11075;
0140289520999992000020221004+53220+063620FM-12+015699999V0201401N005019999999N9999999N1-00861-01051100771ADDAY171031AY221031GF108991081001999999021999MD1710101+9999MW1021REMSYN066AAXX  02211 28952 419// 81405 11086 21105 40077 57010 70272 8802/;
0171289520999992000020300004+53220+063620FM-12+015699999V0201401N003019999999N9999999N1-01141-01341100691ADDAY171061AY221061GF108991081001999999021999MA1999999098671MD1710101+9999MW1021REMSYN082AAXX  03001 28952 419// 81403 11114 21134 39867 40069 57010 70272 8802/ 555 1/113;
0192289520999992000020303004+53220+063620FM-12+015699999V0201801N001012200019N9999999N1-01441-01641100711ADDAA112000791AJ100309199999999GF103991001001999999001021GJ100009IA1239MD1410001+9999REMSYN098AAXX  03031 28952 /29// 31801 11144 21164 40071 54000 80002 333 47030 55000 555 21144 69972 7997/;
0152289520999992000020306004+53220+063620FM-12+015699999V0209999C000019999999N0200001N1-01201-01331100811ADDAA100000891GF106991031001999999031021KA1999N-01441MD1310111+9999REMSYN076AAXX  03061 28952 12998 60000 11120 21133 40081 53011 69970 83032 333 21144;
0140289520999992000020309004+53220+063620FM-12+015699999V0209999C000012200019N0200001N1-01041-01481100941ADDAY171031AY211031GF102991021001999999031001MD1210141+9999MW1011REMSYN066AAXX  03091 28952 41998 20000 11104 21148 40094 52014 70171 82030;
0171289520999992000020312004+53220+063620FM-12+015699999V0202301N002012200019N0200001N1-01061-01501101021ADDAY171061AY211061GF101991001001999999001011MA1999999099001MD1210081+9999MW1021REMSYN082AAXX  03121 28952 41998 12302 11106 21150 39900 40102 52008 70271 80001 555 1/111;
0155289520999992000020315004+53220+063620FM-12+015699999V0202301N003012200019N9999999N1-01441-01711101141ADDGA1001+999999999GF100991001001999999001001KA1120M-01041MD1210091+9999REMSYN074AAXX  03151 28952 /29// 02303 11144 21171 40114 52009 333 11104 555 69902;
0162289520999992000020318004+53220+063620FM-12+015699999V0201801N003012200019N9999999N1-01511-01701101101ADDAA100000791GA1001+999999999GF100991001001999999001001KA1999M-01041MD1810041+9999REMSYN070AAXX  03181 28952 129// 01803 11151 21170 40110 58004 69900 333 11104;
0140289520999992000020321004+53220+063620FM-12+015699999V0201801N007019999999N9999999N1-01001-01201100971ADDAY171031AY211031GF108991081001999999021999MD1710101+9999MW1711REMSYN066AAXX  03211 28952 419// 81807 11100 21120 40097 57010 77171 8802/;
0171289520999992000020400004+53220+063620FM-12+015699999V0201801N007019999999N9999999N1-00661-00781100691ADDAY171061AY231061GF108991081001999999021999MA1999999098711MD1710241+9999MW1361REMSYN082AAXX  04001 28952 419// 81807 11066 21078 39871 40069 57024 73673 8802/ 555 1/108;
0220289520999992000020403004+53220+063620FM-12+015699999V0201801N007019999999N9999999N1-00361-00471100551ADDAA112999929AJ100299199999999AY131031AY231031GF108991081001999999021999GJ102109IA1239MD1710121+9999MW1361REMSYN104AAXX  04031 28952 /19// 81807 11036 21047 40055 57012 73633 8802/ 333 47029 55035 555 21151 69902 7990/;
0180289520999992000020406004+53220+063620FM-12+015699999V0201801N005019999999N0100001N1-00101-00201100371ADDAA100000791AY171061AY231061GF108991081001999999021999KA1999N-01441MD1710151+9999MW1711REMSYN082AAXX  04061 28952 11997 81805 11010 21020 40037 57015 69900 77173 8802/ 333 21144;
0140289520999992000020409004+53220+063620FM-12+015699999V0201801N006019999999N0020001N1+00031+00001100211ADDAY171031AY231031GF108991081001999999021999MD1710161+9999MW1731REMSYN066AAXX  04091 28952 41995 81806 10003 20000 40021 57016 77373 8802/;
0171289520999992000020412004+53220+063620FM-12+015699999V0201801N007019999999N0200001N1+00081+00031100111ADDAY171061AY231061GF108991081001999999021999MA1999999098201MD1710081+9999MW1221REMSYN082AAXX  04121 28952 41998 81807 10008 20003 39820 40011 57008 72273 8802/ 555 1/000;
0162289520999992000020418004+53220+063620FM-12+015699999V0202301N006012200019N9999999N1-00031-00331100551ADDAA100003091GA1001+999999999GF100991001001999999001001KA1999M+00201MD1210311+9999REMSYN070AAXX  04181 28952 129// 02306 11003 21033 40055 52031 60030 333 10020;
0122289520999992000020421004+53220+063620FM-12+015699999V0202301N005012200019N9999999N1-00201-00481100801ADDGA1001+999999999GF100991001001999999001001MD1210221+9999REMSYN054AAXX  04211 28952 429// 02305 11020 21048 40080 52022;
0143289520999992000020500004+53220+063620FM-12+015699999V0202001N004019999999N9999999N1-00381-00461100921ADDGF105991051001999999031001MA1999999098951MD1210111+9999REMSYN076AAXX  05001 28952 429// 52004 11038 21046 39895 40092 52011 85030 555 1/106;
0205289520999992000020503004+53220+063620FM-12+015699999V0202301N003019999999N9999999N1-00401-00551101001ADDAA199000091AJ100269199999999GF106991061001999999051001GJ100009IA1239MD1210081+9999REMSYN092AAXX  05031 28952 329// 62303 11040 21055 40100 52008 86050 333 47026 55000 555 21040 7003/;EQDQ01  00002PRCP99
0165289520999992000020506004+53220+063620FM-12+015699999V0202301N003019999999N0200001N1-00421-00611101061ADDAA199000091GF108991081001999999071999KA1999N-00401MD1210061+9999REMSYN070AAXX  05061 28952 32998 82303 11042 21061 40106 52006 8807/ 333 21040;EQDQ01  00002PRCP99
0112289520999992000020509004+53220+063620FM-12+015699999V0202001N003019999999N0200001N1-00161-00531101041ADDGF108991081001999999021999MD1810011+9999REMSYN060AAXX  05091 28952 42998 82003 11016 21053 40104 58001 8802/;
0143289520999992000020512004+53220+063620FM-12+015699999V0202301N003019999999N0200001N1-00281-00731101031ADDGF108991081001999999021999MA1999999099071MD1710101+9999REMSYN076AAXX  05121 28952 42998 82303 11028 21073 39907 40103 57010 8802/ 555 1/103;
0175289520999992000020515004+53220+063620FM-12+015699999V0209999C000012200019N9999999N1-00841-01121101151ADDAA199000091GA1001+999999999GF100991001001999999001001KA1999M-00161MD1310081+9999REMSYN064AAXX  05151 28952 329// 00000 11084 21112 40115 53008 333 11016;EQDQ01  00002PRCP99
0165289520999992000020518004+53220+063620FM-12+015699999V0209999C000019999999N9999999N1-01021-01221101291ADDAA199000091GF107991071001999999051999KA1999M-00161MD1210111+9999REMSYN070AAXX  05181 28952 329// 70000 11102 21122 40129 52011 8705/ 333 11016;EQDQ01  00002PRCP99
0122289520999992000020521004+53220+063620FM-12+015699999V0209999C000012200019N9999999N1-01241-01441101441ADDGA1001+999999999GF100991001001999999001001MD1210131+9999REMSYN054AAXX  05211 28952 429// 00000 11124 21144 40144 52013;
0143289520999992000020600004+53220+063620FM-12+015699999V0209999C000019999999N9999999N1-01631-01821101701ADDGF107991071001999999051001MA1999999099621MD1210231+9999REMSYN076AAXX  06001 28952 429// 70000 11163 21182 39962 40170 52023 87050 555 1/118;
0205289520999992000020603004+53220+063620FM-12+015699999V0209999C000019999999N9999999N1-01491-01691101921ADDAA199000091AJ100269199999999GF108991081001999999021999GJ100009IA1239MD1210231+9999REMSYN092AAXX  06031 28952 329// 80000 11149 21169 40192 52023 8802/ 333 47026 55000 555 21163 7000/;EQDQ01  00002PRCP99
0203289520999992000020606004+53220+063620FM-12+015699999V0209999C000012200019N0200001N1-01561-01831102161ADDAA199000091AY171061AY211061GA1001+999999999GF100991001001999999001001KA1999N-01631MD1210221+9999MW1011REMSYN070AAXX  06061 28952 31998 00000 11156 21183 40216 52022 70171 333 21163;EQDQ01  00002PRCP99
0112289520999992000020609004+53220+063620FM-12+015699999V0209999C000019999999N0200001N1-01221-01571102271ADDGF105991001001999999001011MD1210141+9999REMSYN060AAXX  06091 28952 42998 50000 11122 21157 40227 52014 80001;
0143289520999992000020612004+53220+063620FM-12+015699999V0209999C000019999999N0200001N1-01281-01631102391ADDGF106991001001999999001021MA1999999100321MD1210111+9999REMSYN076AAXX  06121 28952 42998 60000 11128 21163 30032 40239 52011 80002 555 1/114;
0145289520999992000020615004+53220+063620FM-12+015699999V0209999C000012200019N9999999N1-01611-01801102471ADDGF103991001001999999001021KA1120M-01221MD1210051+9999REMSYN080AAXX  06151 28952 /29// 30000 11161 21180 40247 52005 80002 333 11122 555 69902;
0152289520999992000020618004+53220+063620FM-12+015699999V0209999C000019999999N9999999N1-01521-01651102521ADDAA100000791GF105991051001999999031001KA1999M-01221MD1210061+9999REMSYN076AAXX  06181 28952 129// 50000 11152 21165 40252 52006 69900 85030 333 11122;
0112289520999992000020621004+53220+063620FM-12+015699999V0209999C000019999999N9999999N1-01551-01681102501ADDGF107991071001999999031001MD1810031+9999REMSYN060AAXX  06211 28952 429// 70000 11155 21168 40250 58003 87030;
0143289520999992000020700004+53220+063620FM-12+015699999V0209999C000010075019N9999999N1-01531-01591102481ADDGF108991081061008001999999MA1999999100381MD1710021+9999REMSYN076AAXX  07001 28952 425// 80000 11153 21159 30038 40248 57002 886// 555 1/117;
0205289520999992000020703004+53220+063620FM-12+015699999V0209999C000010075019N9999999N1-01441-01571102441ADDAA199000091AJ100269199999999GF108991081061008001999999GJ104269IA1239MD1710021+9999REMSYN092AAXX  07031 28952 325// 80000 11144 21157 40244 57002 886// 333 47026 55071 555 21161 7990/;EQDQ01  00002PRCP99
0174289520999992000020706004+53220+063620FM-12+015699999V0201801N001019999999N0100001N1-01241-01371102341ADDAA199000021AY171061AY221061GF108991081001999999011999KA1999N-01611MD1710091+9999MW1711REMSYN076AAXX  07061 28952 31997 81801 11124 21137 40234 57009 77172 8801/ 333 21161;
0140289520999992000020709004+53220+063620FM-12+015699999V0201801N001019999999N0200001N1-01231-01431102181ADDAY171031AY221031GF107991061001999999031021MD1710151+9999MW1021REMSYN066AAXX  07091 28952 41998 71801 11123 21143 40218 57015 70272 86032;
0171289520999992000020712004+53220+063620FM-12+015699999V0201801N001019999999N0200001N1-01411-01611102051ADDAY171061AY221061GF106991031001999999031021MA1999999099981MD1710141+9999MW1021REMSYN082AAXX  07121 28952 41998 61801 11141 21161 39998 40205 57014 70272 83032 555 1/115;
0145289520999992000020715004+53220+063620FM-12+015699999V0209999C000012200019N9999999N1-01611-01801102051ADDGF103991001001999999001091KA1120M-01231MD1710021+9999REMSYN080AAXX  07151 28952 /29// 30000 11161 21180 40205 57002 80009 333 11123 555 69902;
0162289520999992000020718004+53220+063620FM-12+015699999V0209999C000012200019N9999999N1-01871-01991102061ADDAA100000791GA1001+999999999GF100991001001999999001001KA1999M-01231MD1410001+9999REMSYN070AAXX  07181 28952 129// 00000 11187 21199 40206 54000 69900 333 11123;
0122289520999992000020721004+53220+063620FM-12+015699999V0209999C000012200019N9999999N1-01901-02021102001ADDGA1001+999999999GF100991001001999999001001MD1810061+9999REMSYN054AAXX  07211 28952 429// 00000 11190 21202 40200 58006;
0153289520999992000020800004+53220+063620FM-12+015699999V0209999C000012200019N9999999N1-01961-02081101981ADDGA1001+999999999GF100991001001999999001001MA1999999099861MD1710041+9999REMSYN070AAXX  08001 28952 429// 00000 11196 21208 39986 40198 57004 555 1/122;
0215289520999992000020803004+53220+063620FM-12+015699999V0209999C000012200019N9999999N1-02181-02361102011ADDAA199000091AJ100269199999999GA1001+999999999GF100991001001999999001001GJ101329IA1239MD1310011+9999REMSYN086AAXX  08031 28952 329// 00000 11218 21236 40201 53001 333 47026 55022 555 21219 7990/;EQDQ01  00002PRCP99
0175289520999992000020806004+53220+063620FM-12+015699999V0209999C000012200019N0200001N1-01901-02091102001ADDAA199000091GA1001+999999999GF100991001001999999001001KA1999N-02191MD1210031+9999REMSYN064AAXX  08061 28952 32998 00000 11190 21209 40200 52003 333 21219;EQDQ01  00002PRCP99
0122289520999992000020809004+53220+063620FM-12+015699999V0201801N001012200019N0200001N1-01371-01571101961ADDGA1001+999999999GF100991001001999999001001MD1810011+9999REMSYN054AAXX  08091 28952 42998 01801 11137 21157 40196 58001;
0143289520999992000020812004+53220+063620FM-12+015699999V0201801N001012200019N0200001N1-01261-01611101941ADDGF102991001001999999001011MA1999999099881MD1710011+9999REMSYN076AAXX  08121 28952 42998 21801 11126 21161 39988 40194 57001 80001 555 1/113;
0175289520999992000020815004+53220+063620FM-12+015699999V0209999C000012200019N9999999N1-01761-01881102081ADDAA199000091GA1001+999999999GF100991001001999999001001KA1999M-01201MD1310101+9999REMSYN064AAXX  08151 28952 329// 00000 11176 21188 40208 53010 333 11120;EQDQ01  00002PRCP99
0175289520999992000020818004+53220+063620FM-12+015699999V0209999C000012200019N9999999N1-01851-01971102051ADDAA199000091GA1001+999999999GF100991001001999999001001KA1999M-01201MD1810031+9999REMSYN064AAXX  08181 28952 329// 00000 11185 21197 40205 58003 333 11120;EQDQ01  00002PRCP99
0122289520999992000020821004+53220+063620FM-12+015699999V0209999C000012200019N9999999N1-02011-02131102081ADDGA1001+999999999GF100991001001999999001001MD1310011+9999REMSYN054AAXX  08211 28952 429// 00000 11201 21213 40208 53001;
0143289520999992000020900004+53220+063620FM-12+015699999V0201801N002019999999N9999999N1-01851-01971102071ADDGF106991061001999999051001MA1999999099971MD1210011+9999REMSYN076AAXX  09001 28952 429// 61802 11185 21197 39997 40207 52001 86050 555 1/119;
0133289520999992000020901004+53220+063620FM-12+015699999V0201801N002019999999N9999999N1-01851-01971102071ADDGF106991061001999999051001MA1999999099971MD1210011+9999REMSYN066AAXX  09011 28952 429// 61802 11185 21197 39997 40207 52001 86050;
0220289520999992000020903004+53220+063620FM-12+015699999V0201801N001019999999N9999999N1-01561-01691102111ADDAA112999929AJ100269199999999AY171031AY221031GF108991081001999999011999GJ104029IA1239MD1210051+9999MW1711REMSYN104AAXX  09031 28952 /19// 81801 11156 21169 40211 52005 77172 8801/ 333 47026 55067 555 21201 69902 7990/;
0190289520999992000020906004+53220+063620FM-12+015699999V0201801N001012200019N0200001N1-01321-01451102191ADDAA100000791AY171061AY211061GA1001+999999999GF100991001001999999001001KA1999N-02011MD1210101+9999MW1011REMSYN076AAXX  09061 28952 11998 01801 11132 21145 40219 52010 69900 70171 333 21201;
0122289520999992000020909004+53220+063620FM-12+015699999V0201801N003012200019N0200001N1-01111-01471102211ADDGA1001+999999999GF100991001001999999001001MD1210051+9999REMSYN054AAXX  09091 28952 42998 01803 11111 21147 40221 52005;
0153289520999992000020912004+53220+063620FM-12+015699999V0201801N002012200019N0200001N1-01221-01571102261ADDGA1001+999999999GF100991001001999999001001MA1999999100201MD1210031+9999REMSYN070AAXX  09121 28952 42998 01802 11122 21157 30020 40226 52003 555 1/112;
0155289520999992000020915004+53220+063620FM-12+015699999V0201801N001012200019N9999999N1-01751-01941102431ADDGA1001+999999999GF100991001001999999001001KA1120M-01111MD1210121+9999REMSYN074AAXX  09151 28952 /29// 01801 11175 21194 40243 52012 333 11111 555 69902;
0162289520999992000020918004+53220+063620FM-12+015699999V0201801N003012200019N9999999N1-01551-01681102501ADDAA100000791GA1001+999999999GF100991001001999999001001KA1999M-01111MD1210081+9999REMSYN070AAXX  09181 28952 129// 01803 11155 21168 40250 52008 69900 333 11111;
0122289520999992000020921004+53220+063620FM-12+015699999V0201801N003012200019N9999999N1-01681-01811102541ADDGA1001+999999999GF100991001001999999001001MD1210041+9999REMSYN054AAXX  09211 28952 429// 01803 11168 21181 40254 52004;
0143289520999992000021000004+53220+063620FM-12+015699999V0201801N003019999999N9999999N1-01771-01891102571ADDGF105991051001999999031001MA1999999100461MD1210021+9999REMSYN076AAXX  10001 28952 429// 51803 11177 21189 30046 40257 52002 85030 555 1/119;
0205289520999992000021003004+53220+063620FM-12+015699999V0201801N003019999999N9999999N1-01631-01761102591ADDAA199000091AJ100269199999999GF108991081001999999021999GJ104329IA1239MD1210031+9999REMSYN092AAXX  10031 28952 329// 81803 11163 21176 40259 52003 8802/ 333 47026 55072 555 21177 7990/;EQDQ01  00002PRCP99
0174289520999992000021006004+53220+063620FM-12+015699999V0201801N003019999999N0100001N1-01281-01411102581ADDAA199000021AY171061AY221061GF108991081001999999021999KA1999N-01761MD1210021+9999MW1711REMSYN076AAXX  10061 28952 31997 81803 11128 21141 40258 52002 77172 8802/ 333 21176;
0140289520999992000021009004+53220+063620FM-12+015699999V0201801N007019999999N0020001N1-00841-01121102471ADDAY171031AY221031GF108991081001999999011999MD1810071+9999MW1711REMSYN066AAXX  10091 28952 41995 81807 11084 21112 40247 58007 77172 8801/;
0171289520999992000021012004+53220+063620FM-12+015699999V0201801N007019999999N0020001N1-00721-00851102281ADDAY171061AY221061GF108991081001999999011999MA1999999100261MD1710181+9999MW1711REMSYN082AAXX  10121 28952 41995 81807 11072 21085 30026 40228 57018 77172 8801/ 555 1/108;
0173289520999992000021015004+53220+063620FM-12+015699999V0201801N009019999999N9999999N1-00661-00821102291ADDAY171031AY231031GF108991081001999999021999KA1120M-00661MD1310011+9999MW1711REMSYN086AAXX  10151 28952 /19// 81809 11066 21082 40229 53001 77173 8802/ 333 11066 555 69982;
0199289520999992000021018004+53220+063620FM-12+015699999V0201801N007019999999N9999999N1-00561-00781102121ADDAA100000891AY171061AY231061GF108991081001999999021999KA1999M+99999MD1710161+9999MW1361REMSYN082AAXX  10181 28952 119// 81807 11056 21078 40212 57016 69980 73673 8802/ 333 11066;EQDQ01 -00662ATMX  
0140289520999992000021021004+53220+063620FM-12+015699999V0201801N006019999999N9999999N1-00461-00551101971ADDAY171031AY231031GF108991081001999999021999MD1710131+9999MW1711REMSYN066AAXX  10211 28952 419// 81806 11046 21055 40197 57013 77173 8802/;
0171289520999992000021100004+53220+063620FM-12+015699999V0201801N003019999999N9999999N1-00261-00361101831ADDAY171061AY231061GF108991081001999999021999MA1999999099851MD1710131+9999MW1111REMSYN082AAXX  11001 28952 419// 81803 11026 21036 39985 40183 57013 71173 8802/ 555 1/104;
0220289520999992000021103004+53220+063620FM-12+015699999V0201801N001019999999N9999999N1-00081-00121101821ADDAA112001091AJ100289199999999AY171031AY221031GF108991081001999999021999GJ100009IA1239MD1310011+9999MW1021REMSYN104AAXX  11031 28952 /19// 81801 11008 21012 40182 53001 70272 8802/ 333 47028 55000 555 21066 60012 7002/;
0180289520999992000021106004+53220+063620FM-12+015699999V0201601N001019999999N0200001N1-00051-00171101851ADDAA100001091AY171061AY221061GF108991081001999999021999KA1999N-00661MD1210031+9999MW1021REMSYN082AAXX  11061 28952 11998 81601 11005 21017 40185 52003 60010 70272 8802/ 333 21066;
0112289520999992000021109004+53220+063620FM-12+015699999V0202301N002019999999N0200001N1-00041-00221101891ADDGF107991071001999999051001MD1210041+9999REMSYN060AAXX  11091 28952 42998 72302 11004 21022 40189 52004 87050;
0171289520999992000021112004+53220+063620FM-12+015699999V0202001N001019999999N0040001N1-00251-00311101951ADDAY121061AY221061GF108991081001999999021999MA1999999099971MD1210041+9999MW1101REMSYN082AAXX  11121 28952 41996 82001 11025 21031 39997 40195 52004 71022 8802/ 555 1/102;
0193289520999992000021115004+53220+063620FM-12+015699999V0209999C000019999999N9999999N1-00551-00661101981ADDAA199000091AY121031AY221031GF106991001001999999001091KA1999M-00041MD1410001+9999MW1101REMSYN076AAXX  11151 28952 319// 60000 11055 21066 40198 54000 71022 80009 333 11004;EQDQ01  00002PRCP99
0165289520999992000021118004+53220+063620FM-12+015699999V0209999C000019999999N9999999N1-00331-00441101851ADDAA199000091GF108991081001999999021999KA1999M-00041MD1810101+9999REMSYN070AAXX  11181 28952 329// 80000 11033 21044 40185 58010 8802/ 333 11004;EQDQ01  00002PRCP99
0140289520999992000021121004+53220+063620FM-12+015699999V0209999C000019999999N9999999N1-00201-00261101781ADDAY171031AY221031GF108991081001999999021999MD1710071+9999MW1711REMSYN066AAXX  11211 28952 419// 80000 11020 21026 40178 57007 77172 8802/;
0171289520999992000021200004+53220+063620FM-12+015699999V0201801N002019999999N9999999N1+00001-00051101541ADDAY171061AY221061GF108991081001999999021999MA1999999099591MD1710211+9999MW1021REMSYN082AAXX  12001 28952 419// 81802 10000 21005 39959 40154 57021 70272 8802/ 555 1/101;
0192289520999992000021203004+53220+063620FM-12+015699999V0202001N003019999999N9999999N1+00061-00051101451ADDAA112000691AJ100289199999999GF108991081001999999021999GJ100309IA1239MD1710081+9999REMSYN098AAXX  12031 28952 /29// 82003 10006 21005 40145 57008 8802/ 333 47028 55005 555 21055 69962 7996/;
0152289520999992000021206004+53220+063620FM-12+015699999V0202001N002019999999N0200001N1+00101-00011101401ADDAA100000591GF108991081001999999021999KA1999N-00551MD1710061+9999REMSYN076AAXX  12061 28952 12998 82002 10010 21001 40140 57006 69960 8802/ 333 21055;
0112289520999992000021209004+53220+063620FM-12+015699999V0202301N003019999999N0200001N1+00141-00691101351ADDGF107991071001999999051001MD1710051+9999REMSYN060AAXX  12091 28952 42998 72303 10014 21069 40135 57005 87050;
0143289520999992000021212004+53220+063620FM-12+015699999V0202301N003019999999N0200001N1+00051-00361101311ADDGF108991081001999999011999MA1999999099361MD1710051+9999REMSYN076AAXX  12121 28952 42998 82303 10005 21036 39936 40131 57005 8801/ 555 1/001;
0173289520999992000021215004+53220+063620FM-12+015699999V0202001N004019999999N9999999N1-00111-00211101271ADDAY171031AY221031GF108991081001999999021999KA1120M+00221MD1710041+9999MW1711REMSYN086AAXX  12151 28952 /19// 82004 11011 21021 40127 57004 77172 8802/ 333 10022 555 69942;
0190289520999992000021218004+53220+063620FM-12+015699999V0202301N001012200019N9999999N1-00341-00451101301ADDAA100000391AY171061AY211061GA1001+999999999GF100991001001999999001001KA1999M+00221MD1410001+9999MW1011REMSYN076AAXX  12181 28952 119// 02301 11034 21045 40130 54000 69930 70171 333 10022;
0122289520999992000021221004+53220+063620FM-12+015699999V0202301N001012200019N9999999N1-00511-00681101351ADDGA1001+999999999GF100991001001999999001001MD1310051+9999REMSYN054AAXX  12211 28952 429// 02301 11051 21068 40135 53005;
0143289520999992000021300004+53220+063620FM-12+015699999V0202301N001019999999N9999999N1-00561-00741101451ADDGF107991071001999999051001MA1999999099451MD1210081+9999REMSYN076AAXX  13001 28952 429// 72301 11056 21074 39945 40145 52008 87050 555 1/106;
0220289520999992000021303004+53220+063620FM-12+015699999V0202301N002019999999N9999999N1-00651-00851101491ADDAA112999929AJ100309199999999AY171031AY221031GF108991081001999999011999GJ100429IA1239MD1210041+9999MW1711REMSYN104AAXX  13031 28952 /19// 82302 11065 21085 40149 52004 77172 8801/ 333 47030 55007 555 21065 69902 7993/;
0180289520999992000021306004+53220+063620FM-12+015699999V0209999C000019999999N0200001N1-00451-00721101561ADDAA100000791AY171061AY221061GF107991071001999999051001KA1999N-00651MD1210091+9999MW1021REMSYN082AAXX  13061 28952 11998 70000 11045 21072 40156 52009 69900 70272 87050 333 21065;
0140289520999992000021309004+53220+063620FM-12+015699999V0201801N003019999999N0100001N1-00161-00571101571ADDAY171031AY221031GF108991081001999999021999MD1210021+9999MW1711REMSYN066AAXX  13091 28952 41997 81803 11016 21057 40157 52002 77172 8802/;
0171289520999992000021312004+53220+063620FM-12+015699999V0201801N002019999999N0200001N1-00041-00451101551ADDAY171061AY221061GF107991071001999999051999MA1999999099601MD1410001+9999MW1021REMSYN082AAXX  13121 28952 41998 71802 11004 21045 39960 40155 54000 70272 8705/ 555 1/100;
0145289520999992000021315004+53220+063620FM-12+015699999V0202301N001019999999N9999999N1-00161-00501101601ADDGF108991081001999999021999KA1120M+00101MD1310031+9999REMSYN080AAXX  13151 28952 /29// 82301 11016 21050 40160 53003 8802/ 333 10010 555 69902;
0135289520999992000021318004+53220+063620FM-12+015699999V0202301N002019999999N9999999N1-00361-00651101681ADDGF107991071001999999071001KA1999M+00101MD1210071+9999REMSYN070AAXX  13181 28952 129// 72302 11036 21065 40168 52007 87070 333 10010;
0112289520999992000021321004+53220+063620FM-12+015699999V0202301N003019999999N9999999N1-00601-00711101701ADDGF108991081001999999021999MD1410001+9999REMSYN060AAXX  13211 28952 429// 82303 11060 21071 40170 54000 8802/;
0143289520999992000021400004+53220+063620FM-12+015699999V0201801N002019999999N9999999N1-00851-00871101621ADDGF108991081001999999021999MA1999999099611MD1810091+9999REMSYN076AAXX  14001 28952 429// 81802 11085 21087 39961 40162 58009 8802/ 555 1/011;
0204289520999992000021403004+53220+063620FM-12+015699999V0209999C000019999999N9999999N1-00961-00961101631ADDAA124999999AJ100309199999999AY141031AY221031GF108991081001999999021999GJ100489IA1239MD1710011+9999MW1481REMSYN088AAXX  14031 28952 319// 80000 11096 21096 40163 57001 74842 8802/ 333 47030 55008 7990/;
0193289520999992000021406004+53220+063620FM-12+015699999V0209999C000019999999N0040001N1-00601-00641101561ADDAA199000091AY141061AY221061GF108991081001999999021999KA1999N-00961MD1710041+9999MW1101REMSYN076AAXX  14061 28952 31996 80000 11060 21064 40156 57004 71042 8802/ 333 21096;EQDQ01  00002PRCP99
0171289520999992000021412004+53220+063620FM-12+015699999V0209999C000019999999N0100001N1-00541-00581101491ADDAY171061AY221061GF108991081001999999021999MA1999999099501MD1410001+9999MW1711REMSYN082AAXX  14121 28952 41997 80000 11054 21058 39950 40149 54000 77172 8802/ 555 1/103;
0173289520999992000021415004+53220+063620FM-12+015699999V0209999C000019999999N9999999N1-00721-00761101461ADDAY171031AY221031GF106991001001999999001091KA1120M-00491MD1810041+9999MW1011REMSYN086AAXX  14151 28952 /19// 60000 11072 21076 40146 58004 70172 80009 333 11049 555 69972;
0180289520999992000021418004+53220+063620FM-12+015699999V0209999C000019999999N9999999N1-00701-00751101461ADDAA100000891AY171061AY221061GF107991071001999999051999KA1999M-00491MD1410001+9999MW1021REMSYN082AAXX  14181 28952 119// 70000 11070 21075 40146 54000 69970 70272 8705/ 333 11049;
0112289520999992000021421004+53220+063620FM-12+015699999V0209999C000019999999N9999999N1-00791-00851101471ADDGF108991081001999999011999MD1410001+9999REMSYN060AAXX  14211 28952 429// 80000 11079 21085 40147 54000 8801/;
0140289520999992000021500004+53220+063620FM-12+015699999V02099999999999999999N9999999N1-00701-00751101461ADDAA100000891AY171061AY221061KA1999M-00491MW1021REMSYN082AAXX  15001 28952 119// ///70 11070 21075 40146 5/000 69970 70272 8705/ 333 11049;
0239289520999992000021503004+53220+063620FM-12+015699999V0209999C000019999999N9999999N1-00821-00841101531ADDAA112999999AJ100309199999999AY171031AY221031GF108991081001999999021999GJ100009IA1239MD1310061+9999MW1481REMSYN104AAXX  15031 28952 /19// 80000 11082 21084 40153 53006 74872 8802/ 333 47030 55000 555 21108 69902 7997/;EQDQ01  99992PRCP12
0180289520999992000021506004+53220+063620FM-12+015699999V0209999C000019999999N0020001N1-00851-00921101671ADDAA100000791AY141061AY221061GF108991081001999999021999KA1999N-01081MD1210141+9999MW1481REMSYN082AAXX  15061 28952 11995 80000 11085 21092 40167 52014 69900 74842 8802/ 333 21108;
0140289520999992000021509004+53220+063620FM-12+015699999V0202301N001012200019N0200001N1-00501-00671101671ADDAY141031AY211031GF102991001001999999001021MD1210031+9999MW1011REMSYN066AAXX  15091 28952 41998 22301 11050 21067 40167 52003 70141 80002;
0181289520999992000021512004+53220+063620FM-12+015699999V0202301N001012200019N0200001N1-00201-00701101811ADDAY141061AY211061GA1001+999999999GF100991001001999999001001MA1999999099831MD1210141+9999MW1021REMSYN076AAXX  15121 28952 41998 02301 11020 21070 39983 40181 52014 70241 555 1/101;
0175289520999992000021515004+53220+063620FM-12+015699999V0209999C000012200019N9999999N1-00961-01081101991ADDAA199000091GA1001+999999999GF100991001001999999001001KA1999M-00201MD1210121+9999REMSYN064AAXX  15151 28952 329// 00000 11096 21108 40199 52012 333 11020;EQDQ01  00002PRCP99
0175289520999992000021518004+53220+063620FM-12+015699999V0209999C000012200019N9999999N1-01251-01311102201ADDAA199000091GA1001+999999999GF100991001001999999001001KA1999M-00201MD1210191+9999REMSYN064AAXX  15181 28952 329// 00000 11125 21131 40220 52019 333 11020;EQDQ01  00002PRCP99
0122289520999992000021521004+53220+063620FM-12+015699999V0202301N003012200019N9999999N1-01281-01341102411ADDGA1001+999999999GF100991001001999999001001MD1210201+9999REMSYN054AAXX  15211 28952 429// 02303 11128 21134 40241 52020;
0143289520999992000021600004+53220+063620FM-12+015699999V0202301N003012200019N9999999N1-01611-01671102571ADDGF103991001001999999001011MA1999999100471MD1210131+9999REMSYN076AAXX  16001 28952 429// 32303 11161 21167 30047 40257 52013 80001 555 1/118;
0205289520999992000021603004+53220+063620FM-12+015699999V0202801N001019999999N9999999N1-01571-01631102661ADDAA199000091AJ100309199999999GF106991061001999999031001GJ103549IA1239MD1210091+9999REMSYN092AAXX  16031 28952 329// 62801 11157 21163 40266 52009 86030 333 47030 55059 555 21161 7000/;EQDQ01  00002PRCP99
0165289520999992000021606004+53220+063620FM-12+015699999V0201801N002012200019N0200001N1-01101-01301102721ADDAA199000091GF106991021091008001001011KA1999N-01611MD1210111+9999REMSYN070AAXX  16061 28952 32598 61802 11110 21130 40272 52011 82901 333 21161;EQDQ01  00002PRCP99
0112289520999992000021609004+53220+063620FM-12+015699999V0201801N004010075019N0200001N1-00481-00821102651ADDGF106991061091008001001001MD1810021+9999REMSYN060AAXX  16091 28952 42598 61804 11048 21082 40265 58002 86900;
0143289520999992000021612004+53220+063620FM-12+015699999V0202001N004019999999N0200001N1-00301-00571102641ADDGF106991051001999999031011MA1999999100651MD1410001+9999REMSYN076AAXX  16121 28952 42998 62004 11030 21057 30065 40264 54000 85031 555 1/105;
0165289520999992000021615004+53220+063620FM-12+015699999V0201801N005010075019N9999999N1-00421-00651102661ADDAA199000091GF107991071051008001001001KA1999M-00301MD1310011+9999REMSYN070AAXX  16151 28952 325// 71805 11042 21065 40266 53001 87500 333 11030;EQDQ01  00002PRCP99
0165289520999992000021618004+53220+063620FM-12+015699999V0202001N005010075019N9999999N1-00601-00791102671ADDAA199000091GF107991071051008001001001KA1999M-00301MD1810011+9999REMSYN070AAXX  16181 28952 325// 72005 11060 21079 40267 58001 87500 333 11030;EQDQ01  00002PRCP99
0122289520999992000021621004+53220+063620FM-12+015699999V0209999C000012200019N9999999N1-00821-00961102721ADDGA1001+999999999GF100991001001999999001001MD1310041+9999REMSYN054AAXX  16211 28952 429// 00000 11082 21096 40272 53004;
0143289520999992000021700004+53220+063620FM-12+015699999V0202001N004019999999N9999999N1-01041-01171102771ADDGF108991081001999999021999MA1999999100721MD1210031+9999REMSYN076AAXX  17001 28952 429// 82004 11104 21117 30072 40277 52003 8802/ 555 1/112;
0205289520999992000021703004+53220+063620FM-12+015699999V0202001N004010300019N0200001N1-01121-01251102821ADDAA199000091AJ100309199999999GF108991021061008001021999GJ101929IA1239MD1210031+9999REMSYN092AAXX  17031 28952 32598 82004 11112 21125 40282 52003 8262/ 333 47030 55032 555 21112 7000/;EQDQ01  00002PRCP99
0165289520999992000021706004+53220+063620FM-12+015699999V0202001N004019999999N0200001N1-00651-00851102751ADDAA199000091GF107991071051999999001001KA1999N-01121MD1810021+9999REMSYN070AAXX  17061 28952 32998 72004 11065 21085 40275 58002 87500 333 21112;EQDQ01  00002PRCP99
0140289520999992000021709004+53220+063620FM-12+015699999V0202001N004010075019N0100001N1-00361-00611102631ADDAY171031AY221031GF107991071061008001001001MD1710101+9999MW1771REMSYN066AAXX  17091 28952 41597 72004 11036 21061 40263 57010 77772 87600;
0171289520999992000021712004+53220+063620FM-12+015699999V0202001N005019999999N0100001N1-00221-00401102591ADDAY171061AY221061GF108991081001999999011999MA1999999100601MD1710021+9999MW1711REMSYN082AAXX  17121 28952 41997 82005 11022 21040 30060 40259 57002 77172 8801/ 555 1/103;
0173289520999992000021715004+53220+063620FM-12+015699999V0202001N007019999999N9999999N1-00321-00531102581ADDAY171031AY271031GF108991081001999999021999KA1120M-00201MD1710011+9999MW1711REMSYN086AAXX  17151 28952 /19// 82007 11032 21053 40258 57001 77177 8802/ 333 11020 555 69932;
0180289520999992000021718004+53220+063620FM-12+015699999V0202301N005010075019N9999999N1-00461-00701102621ADDAA100000391AY171061AY221061GF108991081091008001999999KA1999M-00201MD1310031+9999MW1021REMSYN082AAXX  17181 28952 115// 82305 11046 21070 40262 53003 69930 70272 889// 333 11020;
0140289520999992000021721004+53220+063620FM-12+015699999V0202301N004010075019N9999999N1-00511-00721102581ADDAY181031AY221031GF108991081091008001999999MD1810041+9999MW1851REMSYN066AAXX  17211 28952 415// 82304 11051 21072 40258 58004 78582 889//;
0171289520999992000021800004+53220+063620FM-12+015699999V0202301N002010075019N9999999N1-00601-00871102611ADDAY181061AY221061GF108991081091008001999999MA1999999100591MD1310011+9999MW1261REMSYN082AAXX  18001 28952 415// 82302 11060 21087 30059 40261 53001 72682 889// 555 1/107;
0220289520999992000021803004+53220+063620FM-12+015699999V0209999C000010075019N0040001N1-00701-00791102671ADDAA112001091AJ100339199999999AY181031AY221031GF108991081091008001999999GJ100009IA1239MD1210061+9999MW1851REMSYN104AAXX  18031 28952 /1596 80000 11070 21079 40267 52006 78582 889// 333 47033 55000 555 21070 60012 7001/;
0180289520999992000021806004+53220+063620FM-12+015699999V0203201N001010075019N0200001N1-00441-00531102761ADDAA100001091AY181061AY221061GF108991081091008001999999KA1999N-00701MD1210101+9999MW1021REMSYN082AAXX  18061 28952 11598 83201 11044 21053 40276 52010 60010 70282 889// 333 21070;
0112289520999992000021809004+53220+063620FM-12+015699999V0203201N002019999999N0200001N1-00581-00851102951ADDGF107991071001999999051001MD1210171+9999REMSYN060AAXX  18091 28952 42998 73202 11058 21085 40295 52017 87050;
0172289520999992000021812004+53220+063620FM-12+015699999V0203201N002012200019N0200001N1-00721-00931999999ADDGA1001+999999999GF100991001001999999001001MA1999999101011MD1210091+9999REMSYN070AAXX  18121 28952 42998 03202 11072 21093 30101 40204 52009 555 1/108;EQDQ01+102043APOSLP
0155289520999992000021815004+53220+063620FM-12+015699999V0209999C000012200019N9999999N1-01181-01241103321ADDGA1001+999999999GF100991001001999999001001KA1120M-00441MD1210231+9999REMSYN074AAXX  18151 28952 /29// 00000 11118 21124 40332 52023 333 11044 555 69902;
0162289520999992000021818004+53220+063620FM-12+015699999V0209999C000012200019N9999999N1-01481-01541103421ADDAA100000791GA1001+999999999GF100991001001999999001001KA1999M-00441MD1210081+9999REMSYN070AAXX  18181 28952 129// 00000 11148 21154 40342 52008 69900 333 11044;
0140289520999992000021821004+53220+063620FM-12+015699999V0209999C000019999999N9999999N1-01521-01581103521ADDAY141031AY211031GF108991081001999999021999MD1210091+9999MW1481REMSYN066AAXX  18211 28952 419// 80000 11152 21158 40352 52009 74841 8802/;
0171289520999992000021900004+53220+063620FM-12+015699999V0209999C000019999999N9999999N1-01571-01631103591ADDAY141061AY241061GF108991081001999999021999MA1999999101471MD1210061+9999MW1481REMSYN082AAXX  19001 28952 419// 80000 11157 21163 30147 40359 52006 74844 8802/ 555 1/118;
0233289520999992000021903004+53220+063620FM-12+015699999V0209999C000019999999N0040001N1-01691-01751103701ADDAA199000091AJ100339199999999AY141031AY221031GF108991081001999999021999GJ102529IA1239MD1210111+9999MW1101REMSYN098AAXX  19031 28952 31996 80000 11169 21175 40370 52011 71042 8802/ 333 47033 55042 555 21169 7990/;EQDQ01  00002PRCP99
0193289520999992000021906004+53220+063620FM-12+015699999V0209999C000012200019N0200001N1-01481-01541103761ADDAA199000091AY141061AY211061GF103991001001999999001011KA1999N-01691MD1210081+9999MW1011REMSYN076AAXX  19061 28952 31998 30000 11148 21154 40376 52008 70141 80001 333 21169;EQDQ01  00002PRCP99
0122289520999992000021909004+53220+063620FM-12+015699999V0209999C000012200019N0200001N1-00841-01311103761ADDGA1001+999999999GF100991001001999999001001MD1210051+9999REMSYN054AAXX  19091 28952 42998 00000 11084 21131 40376 52005;
0143289520999992000021912004+53220+063620FM-12+015699999V0209999C000019999999N0200001N1-01021-01381103791ADDGF105991021001999999031011MA1999999101721MD1210011+9999REMSYN076AAXX  19121 28952 42998 50000 11102 21138 30172 40379 52001 82031 555 1/111;
0165289520999992000021915004+53220+063620FM-12+015699999V0209999C000012200019N9999999N1-01201-01471103881ADDAA199000091GF102991001001999999001021KA1999M-00841MD1210061+9999REMSYN070AAXX  19151 28952 329// 20000 11120 21147 40388 52006 80002 333 11084;EQDQ01  00002PRCP99
0165289520999992000021918004+53220+063620FM-12+015699999V0209999C000010075019N9999999N1-01081-01361103871ADDAA199000091GF107991071051008001001001KA1999M-00841MD1210011+9999REMSYN070AAXX  19181 28952 325// 70000 11108 21136 40387 52001 87500 333 11084;EQDQ01  00002PRCP99
0112289520999992000021921004+53220+063620FM-12+015699999V0209999C000010075019N9999999N1-01101-01301103861ADDGF107991071051008001001001MD1810011+9999REMSYN060AAXX  19211 28952 425// 70000 11110 21130 40386 58001 87500;
0153289520999992000022000004+53220+063620FM-12+015699999V0209999C000012200019N9999999N1-01561-01751103911ADDGA1001+999999999GF100991001001999999001001MA1999999101781MD1410001+9999REMSYN070AAXX  20001 28952 429// 00000 11156 21175 30178 40391 54000 555 1/119;
0215289520999992000022003004+53220+063620FM-12+015699999V0201801N002012200019N0200001N1-01601-01791103931ADDAA199000091AJ100339199999999GA1001+999999999GF100991001001999999001001GJ104209IA1239MD1310021+9999REMSYN086AAXX  20031 28952 32998 01802 11160 21179 40393 53002 333 47033 55070 555 21160 7000/;EQDQ01  00002PRCP99
0175289520999992000022006004+53220+063620FM-12+015699999V0202001N003012200019N0100001N1-01301-01571103931ADDAA199000091GA1001+999999999GF100991001001999999001001KA1999N-01601MD1210031+9999REMSYN064AAXX  20061 28952 32997 02003 11130 21157 40393 52003 333 21160;EQDQ01  00002PRCP99
0112289520999992000022009004+53220+063620FM-12+015699999V0202301N004012200019N0200001N1-00461-01171103781ADDGF102991001001999999001011MD1810081+9999REMSYN060AAXX  20091 28952 42998 22304 11046 21117 40378 58008 80001;
0159289520999992000022012004+53220+063620FM-12+015699999V0202301N004012200019N0200001N1-00441-01141103761ADDGA1001+999999999GF100991001001999999001001MA1999999101741MD1710011+9999REMSYN076AAXX  20121 28952 42998 02304 11044 21114 30174 40376 57001 80001 555 1/105;
0175289520999992000022015004+53220+063620FM-12+015699999V0202301N002012200019N9999999N1-00881-01261103861ADDAA199000091GA1001+999999999GF100991001001999999001001KA1999M-00401MD1310061+9999REMSYN064AAXX  20151 28952 329// 02302 11088 21126 40386 53006 333 11040;EQDQ01  00002PRCP99
0175289520999992000022018004+53220+063620FM-12+015699999V0202001N005012200019N9999999N1-01081-01361103811ADDAA199000091GA1001+999999999GF100991001001999999001001KA1999M-00401MD1810061+9999REMSYN064AAXX  20181 28952 329// 02005 11108 21136 40381 58006 333 11040;EQDQ01  00002PRCP99
0122289520999992000022021004+53220+063620FM-12+015699999V0202001N002012200019N9999999N1-01181-01451103871ADDGA1001+999999999GF100991001001999999001001MD1310031+9999REMSYN054AAXX  20211 28952 429// 02002 11118 21145 40387 53003;
0153289520999992000022100004+53220+063620FM-12+015699999V0201801N005012200019N9999999N1-01441-01641103891ADDGA1001+999999999GF100991001001999999001001MA1999999101781MD1210011+9999REMSYN070AAXX  21001 28952 429// 01805 11144 21164 30178 40389 52001 555 1/118;
0215289520999992000022103004+53220+063620FM-12+015699999V0201801N004012200019N0200001N1-01501-01701103921ADDAA199000091AJ100339199999999GA1001+999999999GF100991001001999999001001GJ105589IA1239MD1210031+9999REMSYN086AAXX  21031 28952 32998 01804 11150 21170 40392 52003 333 47033 55093 555 21150 7000/;EQDQ01  00002PRCP99
0175289520999992000022106004+53220+063620FM-12+015699999V0202301N005012200019N0200001N1-01221-01571103961ADDAA199000091GA1001+999999999GF100991001001999999001001KA1999N-01501MD1210051+9999REMSYN064AAXX  21061 28952 32998 02305 11122 21157 40396 52005 333 21150;EQDQ01  00002PRCP99
0122289520999992000022109004+53220+063620FM-12+015699999V0201801N005012200019N0200001N1-00801-01311103921ADDGA1001+999999999GF100991001001999999001001MD1410001+9999REMSYN054AAXX  21091 28952 42998 01805 11080 21131 40392 54000;
0153289520999992000022112004+53220+063620FM-12+015699999V0202001N004012200019N0200001N1-00701-01221103941ADDGA1001+999999999GF100991001001999999001001MA1999999101891MD1310031+9999REMSYN070AAXX  21121 28952 42998 02004 11070 21122 30189 40394 53003 555 1/107;
0175289520999992000022118004+53220+063620FM-12+015699999V0201801N004012200019N9999999N1-01441-01711104021ADDAA199000091GA1001+999999999GF100991001001999999001001KA1999M-00651MD1810031+9999REMSYN064AAXX  21181 28952 329// 01804 11144 21171 40402 58003 333 11065;EQDQ01  00002PRCP99
0122289520999992000022121004+53220+063620FM-12+015699999V0201801N004012200019N9999999N1-01621-01891103981ADDGA1001+999999999GF100991001001999999001001MD1710061+9999REMSYN054AAXX  21211 28952 429// 01804 11162 21189 40398 57006;
0153289520999992000022200004+53220+063620FM-12+015699999V0201801N004012200019N9999999N1-01791-01981104051ADDGA1001+999999999GF100991001001999999001001MA1999999101901MD1310051+9999REMSYN070AAXX  22001 28952 429// 01804 11179 21198 30190 40405 53005 555 1/121;
0215289520999992000022203004+53220+063620FM-12+015699999V0209999C000012200019N0200001N1-01891-02081104101ADDAA199000091AJ100339199999999GA1001+999999999GF100991001001999999001001GJ105649IA1239MD1210051+9999REMSYN086AAXX  22031 28952 32998 00000 11189 21208 40410 52005 333 47033 55094 555 21189 7000/;EQDQ01  00002PRCP99
0165289520999992000022206004+53220+063620FM-12+015699999V0201801N001012200019N0200001N1-01301-01651104051ADDAA199000091GF103991001001999999001011KA1999N-01891MD1410001+9999REMSYN070AAXX  22061 28952 32998 31801 11130 21165 40405 54000 80001 333 21189;EQDQ01  00002PRCP99
0112289520999992000022209004+53220+063620FM-12+015699999V0201801N001019999999N0200001N1-00761-01361103921ADDGF106991001001999999001021MD1810091+9999REMSYN060AAXX  22091 28952 42998 61801 11076 21136 40392 58009 80002;
0143289520999992000022212004+53220+063620FM-12+015699999V0201801N002019999999N0200001N1-00741-01331103921ADDGF107991001001999999001021MA1999999101861MD1410001+9999REMSYN076AAXX  22121 28952 42998 71802 11074 21133 30186 40392 54000 80002 555 1/107;
0175289520999992000022215004+53220+063620FM-12+015699999V0201801N002012200019N9999999N1-01131-01571103891ADDAA199000091GA1001+999999999GF100991001001999999001001KA1999M-00741MD1810071+9999REMSYN064AAXX  22151 28952 329// 01802 11113 21157 40389 58007 333 11074;EQDQ01  00002PRCP99
0165289520999992000022218004+53220+063620FM-12+015699999V0201801N001012200019N9999999N1-01341-01691103791ADDAA199000091GF102991001001999999001011KA1999M-00741MD1710101+9999REMSYN070AAXX  22181 28952 329// 21801 11134 21169 40379 57010 80001 333 11074;EQDQ01  00002PRCP99
0122289520999992000022221004+53220+063620FM-12+015699999V0201801N001012200019N9999999N1-01501-01771103701ADDGA1001+999999999GF100991001001999999001001MD1710091+9999REMSYN054AAXX  22211 28952 429// 01801 11150 21177 40370 57009;
0153289520999992000022300004+53220+063620FM-12+015699999V0209999C000012200019N9999999N1-01881-02071103661ADDGA1001+999999999GF100991001001999999001001MA1999999101521MD1710081+9999REMSYN070AAXX  23001 28952 429// 00000 11188 21207 30152 40366 57008 555 1/121;
0205289520999992000022303004+53220+063620FM-12+015699999V0201401N001012200019N0200001N1-01871-02061103621ADDAA199000091AJ100339199999999GF102991001001999999001021GJ105589IA1239MD1710041+9999REMSYN092AAXX  23031 28952 32998 21401 11187 21206 40362 57004 80002 333 47033 55093 555 21191 7000/;EQDQ01  00002PRCP99
0165289520999992000022306004+53220+063620FM-12+015699999V0201801N003012200019N0200001N1-01511-01851103541ADDAA199000091GF101991001001999999001011KA1999N-01911MD1710051+9999REMSYN070AAXX  23061 28952 32998 11803 11151 21185 40354 57005 80001 333 21191;EQDQ01  00002PRCP99
0122289520999992000022309004+53220+063620FM-12+015699999V0201401N003012200019N0200001N1-00971-01551103401ADDGA1001+999999999GF100991001001999999001001MD1710101+9999REMSYN054AAXX  23091 28952 42998 01403 11097 21155 40340 57010;
0153289520999992000022312004+53220+063620FM-12+015699999V0201401N003012200019N0200001N1-00801-01421103281ADDGA1001+999999999GF100991001001999999001001MA1999999101241MD1710091+9999REMSYN070AAXX  23121 28952 42998 01403 11080 21142 30124 40328 57009 555 1/108;
0175289520999992000022315004+53220+063620FM-12+015699999V0201401N005012200019N9999999N1-01201-01551103291ADDAA199000091GA1001+999999999GF100991001001999999001001KA1999M-00801MD1710031+9999REMSYN064AAXX  23151 28952 329// 01405 11120 21155 40329 57003 333 11080;EQDQ01  00002PRCP99
0175289520999992000022318004+53220+063620FM-12+015699999V0201801N005012200019N9999999N1-01491-01761103241ADDAA199000091GA1001+999999999GF100991001001999999001001KA1999M-00801MD1710061+9999REMSYN064AAXX  23181 28952 329// 01805 11149 21176 40324 57006 333 11080;EQDQ01  00002PRCP99
0122289520999992000022321004+53220+063620FM-12+015699999V0201801N002012200019N9999999N1-01501-01631103141ADDGA1001+999999999GF100991001001999999001001MD1710101+9999REMSYN054AAXX  23211 28952 429// 01802 11150 21163 40314 57010;
0153289520999992000022400004+53220+063620FM-12+015699999V0201801N003012200019N9999999N1-01541-01731103071ADDGA1001+999999999GF100991001001999999001001MA1999999100961MD1710091+9999REMSYN070AAXX  24001 28952 429// 01803 11154 21173 30096 40307 57009 555 1/118;
0096289520999992000022401004+53220+063620FM-12+015699999V0201801N003012200019N9999999N1-01541-01731999999ADDGA1001+999999999GF100991001001999999001001REMSYN042AAXX  24011 28952 429// 01803 11154 21173;
0165289520999992000022406004+53220+063620FM-12+015699999V0201601N004012200019N0200001N1-01401-01751102981ADDAA199000091GF104991001001999999001011KA1999N-01651MD1310031+9999REMSYN070AAXX  24061 28952 32998 41604 11140 21175 40298 53003 80001 333 21165;EQDQ01  00002PRCP99
0220289520999992000022503004+53220+063620FM-12+015699999V0201801N002010075019N0200001N1-00701-00831102101ADDAA112000491AJ100309199999999AY181031AY221031GF107991071091008001001001GJ105769IA1239MD1710021+9999MW1261REMSYN104AAXX  25031 28952 /1598 71802 11070 21083 40210 57002 72682 87900 333 47030 55096 555 21116 69942 7994/;
0184289520999992000022506004+53220+063620FM-12+015699999V0202701N005012200019N0002001N1-00701-01331999999ADDAA100000591AY181061AY211061GA1001+999999999GF100991001001999999001001KA1999N-01161MD1310051+9999MW1011REMSYN070AAXX  25061 28952 11992 02705 11070 21133 53005 69940 70181 333 21116;
0153289520999992000022512004+53220+063620FM-12+015699999V0202301N005012200019N0200001N1-00501-01401101991ADDGA1001+999999999GF100991001001999999001001MA1999999100001MD1710101+9999REMSYN070AAXX  25121 28952 42998 02305 11050 21140 30000 40199 57010 555 1/106;
0136289520999992000022515004+53220+063620FM-12+015699999V0202301N002012200019N9999999N1-01021-01551101961ADDAA199000021GA1001+999999999GF100991001001999999001001KA1999M-00501REMSYN058AAXX  25151 28952 329// 02302 11102 21155 40196 333 11050;
0175289520999992000022518004+53220+063620FM-12+015699999V0202301N003012200019N9999999N1-01141-01491101861ADDAA199000091GA1001+999999999GF100991001001999999001001KA1999M-00501MD1710121+9999REMSYN064AAXX  25181 28952 329// 02303 11114 21149 40186 57012 333 11050;EQDQ01  00002PRCP99
0112289520999992000022521004+53220+063620FM-12+015699999V0202001N001019999999N9999999N1-01381-01581101761ADDGF105991001001999999001011MD1710101+9999REMSYN060AAXX  25211 28952 429// 52001 11138 21158 40176 57010 80001;
0153289520999992000022600004+53220+063620FM-12+015699999V0202001N001012200019N9999999N1-01551-01741101621ADDGA1001+999999999GF100991001001999999001001MA1999999099541MD1710161+9999REMSYN070AAXX  26001 28952 429// 02001 11155 21174 39954 40162 57016 555 1/021;
0195289520999992000022603004+53220+063620FM-12+015699999V0202001N003012200019N0200001N1-01561-01691101601ADDAA199000091AJ100309199999999GA1001+999999999GF100991001001999999001001GJ105409IA1239REMSYN080AAXX  26031 28952 32998 02003 11156 21169 40160 333 47030 55090 555 21156 7000/;EQDQ01  00002PRCP99
0175289520999992000022606004+53220+063620FM-12+015699999V0201801N003012200019N0200001N1-01131-01481101571ADDAA199000091GA1001+999999999GF100991001001999999001001KA1999N-01561MD1410001+9999REMSYN064AAXX  26061 28952 32998 01803 11113 21148 40157 54000 333 21156;EQDQ01  00002PRCP99
0122289520999992000022609004+53220+063620FM-12+015699999V0202301N004012200019N0200001N1-00551-01211101441ADDGA1001+999999999GF100991001001999999001001MD1810081+9999REMSYN054AAXX  26091 28952 42998 02304 11055 21121 40144 58008;
0153289520999992000022612004+53220+063620FM-12+015699999V0201801N004012200019N0200001N1-00561-01271101401ADDGA1001+999999999GF100991001001999999001001MA1999999099401MD1710041+9999REMSYN070AAXX  26121 28952 42998 01804 11056 21127 39940 40140 57004 555 1/106;
0175289520999992000022615004+53220+063620FM-12+015699999V0201801N002012200019N9999999N1-00961-01371101431ADDAA199000091GA1001+999999999GF100991001001999999001001KA1999M-00551MD1410001+9999REMSYN064AAXX  26151 28952 329// 01802 11096 21137 40143 54000 333 11055;EQDQ01  00002PRCP99
0122289520999992000022621004+53220+063620FM-12+015699999V0201801N002012200019N0011001N1-01621-01811101401ADDGA1001+999999999GF100991001001999999001001MD1710071+9999REMSYN054AAXX  26211 28952 42911 01802 11162 21181 40140 57007;
0143289520999992000022700004+53220+063620FM-12+015699999V0209999C000012200019N9999999N1-01711-01901101321ADDGF102991001001999999001011MA1999999099241MD1710081+9999REMSYN076AAXX  27001 28952 429// 20000 11171 21190 39924 40132 57008 80001 555 1/125;
0175289520999992000022706004+53220+063620FM-12+015699999V0209999C000012200019N0200001N1-01511-01781101381ADDAA199000091GA1001+999999999GF100991001001999999001001KA1999N-02041MD1310081+9999REMSYN064AAXX  27061 28952 32998 00000 11151 21178 40138 53008 333 21204;EQDQ01  00002PRCP99
0122289520999992000022709004+53220+063620FM-12+015699999V0202701N001012200019N0200001N1-01141-01671101431ADDGA1001+999999999GF100991001001999999001001MD1210061+9999REMSYN054AAXX  27091 28952 42998 02701 11114 21167 40143 52006;
0143289520999992000022712004+53220+063620FM-12+015699999V0209999C000019999999N0200001N1-00841-01481101511ADDGF105991051001999999041001MA1999999099501MD1210121+9999REMSYN076AAXX  27121 28952 42998 50000 11084 21148 39950 40151 52012 85040 555 1/108;
0165289520999992000022718004+53220+063620FM-12+015699999V0201601N004019999999N9999999N1-01121-01321101511ADDAA199000091GF106991061001999999031001KA1999M-00841MD1810091+9999REMSYN070AAXX  27181 28952 329// 61604 11112 21132 40151 58009 86030 333 11084;EQDQ01  00002PRCP99
0140289520999992000022721004+53220+063620FM-12+015699999V0201601N004019999999N9999999N1-01021-01081101291ADDAY171031AY221031GF108991081001999999021999MD1710211+9999MW1711REMSYN066AAXX  27211 28952 419// 81604 11102 21108 40129 57021 77172 8802/;
0171289520999992000022800004+53220+063620FM-12+015699999V0201801N007019999999N9999999N1-00661-00711101071ADDAY171061AY231061GF107991071001999999031001MA1999999099081MD1710181+9999MW1361REMSYN082AAXX  28001 28952 419// 71807 11066 21071 39908 40107 57018 73673 87030 555 1/108;
0220289520999992000022803004+53220+063620FM-12+015699999V0202301N005010075019N0200001N1-01321-01451101191ADDAA112000691AJ100319199999999AY131031AY231031GF107991071061008001001001GJ104209IA1239MD1310071+9999MW1361REMSYN104AAXX  28031 28952 /1598 72305 11132 21145 40119 53007 73633 87600 333 47031 55070 555 21142 69962 7996/;
0190289520999992000022806004+53220+063620FM-12+015699999V0202001N006012200019N0200001N1-01281-01631101351ADDAA100000591AY131061AY231061GA1001+999999999GF100991001001999999001001KA1999N-01421MD1210151+9999MW1361REMSYN076AAXX  28061 28952 11998 02006 11128 21163 40135 52015 69960 73633 333 21142;
0140289520999992000022809004+53220+063620FM-12+015699999V0202301N004012200019N0200001N1-01021-01461101451ADDAY131031AY231031GF103991031011012501001001MD1210121+9999MW1361REMSYN066AAXX  28091 28952 41698 32304 11102 21146 40145 52012 73633 83100;
0171289520999992000022812004+53220+063620FM-12+015699999V0202701N004012200019N0200001N1-01021-01551101571ADDAY171061AY231061GF103991031061008001001001MA1999999099541MD1210121+9999MW1361REMSYN082AAXX  28121 28952 41598 32704 11102 21155 39954 40157 52012 73673 83600 555 1/109;
0173289520999992000022815004+53220+063620FM-12+015699999V0202901N007019999999N9999999N1-01161-01361101821ADDAY171031AY231031GF108991081001999999021999KA1120M-00901MD1210221+9999MW1711REMSYN086AAXX  28151 28952 /19// 82907 11116 21136 40182 52022 77173 8802/ 333 11090 555 69932;
0190289520999992000022818004+53220+063620FM-12+015699999V0202901N005012200019N9999999N1-01341-01611102081ADDAA100000391AY171061AY231061GA1001+999999999GF100991001001999999001001KA1999M-00901MD1210251+9999MW1361REMSYN076AAXX  28181 28952 119// 02905 11134 21161 40208 52025 69930 73673 333 11090;
0150289520999992000022821004+53220+063620FM-12+015699999V0203201N004012200019N9999999N1-01751-01941102311ADDAY131031AY231031GA1001+999999999GF100991001001999999001001MD1210201+9999MW1361REMSYN060AAXX  28211 28952 419// 03204 11175 21194 40231 52020 73633;
0181289520999992000022900004+53220+063620FM-12+015699999V0209999C000012200019N9999999N1-02061-02391102411ADDAY131061AY201061GA1001+999999999GF100991001001999999001001MA1999999100281MD1210071+9999MW1021REMSYN076AAXX  29001 28952 419// 00000 11206 21239 30028 40241 52007 70230 555 1/128;
0181289520999992000022903004+53220+063620FM-12+015699999V0202001N004012200019N0200001N1-02341-02591102441ADDAJ100329199999999GF102991001001999999001021GJ105289IA1239MD1810011+9999REMSYN098AAXX  29031 28952 /2998 22004 11234 21259 40244 58001 80002 333 47032 55088 555 21236 59942 7997/;
0180289520999992000022906004+53220+063620FM-12+015699999V0201801N005019999999N0200001N1-02041-02441102161ADDAA100000591AY131061AY211061GF108991081001999999011999KA1999N-02361MD1710231+9999MW1361REMSYN082AAXX  29061 28952 11998 81805 11204 21244 40216 57023 69940 73631 8801/ 333 21236;
0140289520999992000022909004+53220+063620FM-12+015699999V0201801N008019999999N0040001N1-01281-01631101701ADDAY171031AY231031GF108991081001999999021999MD1710381+9999MW1711REMSYN066AAXX  29091 28952 41996 81808 11128 21163 40170 57038 77173 8802/;
0171289520999992000022912004+53220+063620FM-12+015699999V0202301N008019999999N0040001N1-01121-01401101531ADDAY171061AY231061GF108991081001999999051999MA1999999099491MD1710161+9999MW1711REMSYN082AAXX  29121 28952 41996 82308 11112 21140 39949 40153 57016 77173 8805/ 555 1/110;
0173289520999992000022915004+53220+063620FM-12+015699999V0201801N005019999999N9999999N1-01001-01021101471ADDAY171031AY231031GF108991081001999999021999KA1120M-01001MD1710051+9999MW1711REMSYN086AAXX  29151 28952 119// 81805 11100 21102 40147 57005 77173 8802/ 333 11100 555 69962;
0199289520999992000022918004+53220+063620FM-12+015699999V0202001N005019999999N9999999N1-00751-00971101241ADDAA100000591AY171061AY231061GF108991081001999999021999KA1999M+99999MD1710201+9999MW1361REMSYN082AAXX  29181 28952 119// 82005 11075 21097 40124 57020 69960 73673 8802/ 333 11100;EQDQ01 -01002ATMX  
0150289520999992000022921004+53220+063620FM-12+015699999V0202001N005012200019N9999999N1-00681-00921101111ADDAY131031AY211031GA1001+999999999GF100991001001999999001001MD1710121+9999MW1011REMSYN060AAXX  29211 28952 419// 02005 11068 21092 40111 57012 70131;
0181289520999992000030100004+53220+063620FM-12+015699999V0201801N006012200019N9999999N1-00481-00841100901ADDAY131061AY211061GA1001+999999999GF100991001001999999001001MA1999999098931MD1710191+9999MW1021REMSYN076AAXX  01001 28952 419// 01806 11048 21084 39893 40090 57019 70231 555 1/105;
0192289520999992000030103004+53220+063620FM-12+015699999V0202301N005019999999N0200001N1-00461-00731101001ADDAA112000491AJ100339199999999GF107991071001999999071001GJ100249IA1239MD1310101+9999REMSYN098AAXX  01031 28952 /2998 72305 11046 21073 40100 53010 87070 333 47033 55004 555 21100 69942 7001/;
0135289520999992000030106004+53220+063620FM-12+015699999V0202501N004012200019N0200001N1-00301-00721101271ADDGF103991031001999999051001KA1999N-01001MD1210271+9999REMSYN070AAXX  01061 28952 12998 32504 11030 21072 40127 52027 83050 333 21100;
0122289520999992000030109004+53220+063620FM-12+015699999V0202701N004012200019N0200001N1+00161-00481101531ADDGA1001+999999999GF100991001001999999001001MD1210291+9999REMSYN054AAXX  01091 28952 42998 02704 10016 21048 40153 52029;
0153289520999992000030112004+53220+063620FM-12+015699999V0202701N004012200019N0200001N1+00221-00471101591ADDGA1001+999999999GF100991001001999999001001MA1999999099941MD1210351+9999REMSYN070AAXX  01121 28952 42998 02704 10022 21047 39994 40159 52035 555 1/003;
0175289520999992000030115004+53220+063620FM-12+015699999V0202701N003012200019N9999999N1-00111-00501102271ADDAA199000091GA1001+999999999GF100991001001999999001001KA1999M+00221MD1210361+9999REMSYN064AAXX  01151 28952 329// 02703 11011 21050 40227 52036 333 10022;EQDQ01  00002PRCP99
0175289520999992000030118004+53220+063620FM-12+015699999V0202301N001012200019N9999999N1-00501-00781102641ADDAA199000091GA1001+999999999GF100991001001999999001001KA1999M+00221MD1210341+9999REMSYN064AAXX  01181 28952 329// 02301 11050 21078 40264 52034 333 10022;EQDQ01  00002PRCP99
0122289520999992000030121004+53220+063620FM-12+015699999V0202301N001012200019N9999999N1-00841-01071102941ADDGA1001+999999999GF100991001001999999001001MD1210261+9999REMSYN054AAXX  01211 28952 429// 02301 11084 21107 40294 52026;
0153289520999992000030200004+53220+063620FM-12+015699999V0209999C000012200019N9999999N1-01231-01361103061ADDGA1001+999999999GF100991001001999999001001MA1999999100981MD1210081+9999REMSYN070AAXX  02001 28952 429// 00000 11123 21136 30098 40306 52008 555 1/115;
0205289520999992000030203004+53220+063620FM-12+015699999V0209999C000012200019N0200001N1-01301-01431103161ADDAA199000091AJ100339199999999GF102991001001999999001011GJ105469IA1239MD1210101+9999REMSYN092AAXX  02031 28952 32998 20000 11130 21143 40316 52010 80001 333 47033 55091 555 21130 7000/;EQDQ01  00002PRCP99
0175289520999992000030206004+53220+063620FM-12+015699999V0201801N002012200019N0200001N1-00961-01081103281ADDAA199000091GA1001+999999999GF100991001001999999001001KA1999N-01301MD1210141+9999REMSYN064AAXX  02061 28952 32998 01802 11096 21108 40328 52014 333 21130;EQDQ01  00002PRCP99
0112289520999992000030209004+53220+063620FM-12+015699999V0202001N002012200019N0200001N1-00251-00621103151ADDGF102991001001999999001021MD1810071+9999REMSYN060AAXX  02091 28952 42998 22002 11025 21062 40315 58007 80002;
0153289520999992000030212004+53220+063620FM-12+015699999V0201801N002012200019N0200001N1-00141-00511103111ADDGA1001+999999999GF100991001001999999001001MA1999999101121MD1710031+9999REMSYN070AAXX  02121 28952 42998 01802 11014 21051 30112 40311 57003 555 1/001;
0175289520999992000030215004+53220+063620FM-12+015699999V0202001N003012200019N9999999N1-00441-00641103131ADDAA199000091GA1001+999999999GF100991001001999999001001KA1999M-00141MD1410001+9999REMSYN064AAXX  02151 28952 329// 02003 11044 21064 40313 54000 333 11014;EQDQ01  00002PRCP99
0175289520999992000030218004+53220+063620FM-12+015699999V0202001N005012200019N9999999N1-00801-00821103161ADDAA199000091GA1001+999999999GF100991001001999999001001KA1999M-00141MD1410001+9999REMSYN064AAXX  02181 28952 329// 02005 11080 21082 40316 54000 333 11014;EQDQ01  00002PRCP99
0171289520999992000030300004+53220+063620FM-12+015699999V0202001N005010075019N9999999N1-01221-01221103221ADDAY171061AY221061GF108991081061008001999999MA1999999101141MD1810021+9999MW1771REMSYN082AAXX  03001 28952 415// 82005 11122 21122 30114 40322 58002 77772 886// 555 1/114;
0220289520999992000030303004+53220+063620FM-12+015699999V0202001N003010075019N0100001N1-01191-01191103271ADDAA112999929AJ100339199999999AY171031AY271031GF108991081001008001021999GJ104989IA1239MD1310051+9999MW1711REMSYN104AAXX  03031 28952 /1597 82003 11119 21119 40327 53005 77177 8802/ 333 47033 55083 555 21122 69902 7990/;
0199289520999992000030306004+53220+063620FM-12+015699999V0201801N003019999999N0200001N1-01021-01221999999ADDAA100000791AY171061AY221061GF106991021001999999041021KA1999N-01221MD1210051+9999MW1011REMSYN082AAXX  03061 28952 11998 61803 11102 21122 40228 52005 69900 70172 82042 333 21122;EQDQ01+102283APOSLP
0122289520999992000030309004+53220+063620FM-12+015699999V0201801N003012200019N0200001N1-00601-00951103221ADDGA1001+999999999GF100991001001999999001001MD1810051+9999REMSYN054AAXX  03091 28952 42998 01803 11060 21095 40322 58005;
0172289520999992000030312004+53220+063620FM-12+015699999V0201801N005012200019N0200001N1-00461-00811999999ADDGA1001+999999999GF100991001001999999001001MA1999999100161MD1710031+9999REMSYN070AAXX  03121 28952 42998 01805 11046 21081 30016 40215 57003 555 1/103;EQDQ01+102153APOSLP
0155289520999992000030315004+53220+063620FM-12+015699999V0201801N004012200019N9999999N1-00861-01051103221ADDGA1001+999999999GF100991001001999999001001KA1120M-00451MD1310021+9999REMSYN074AAXX  03151 28952 /29// 01804 11086 21105 40322 53002 333 11045 555 69902;
0162289520999992000030318004+53220+063620FM-12+015699999V0201801N002012200019N9999999N1-01081-01211103281ADDAA100000791GA1001+999999999GF100991001001999999001001KA1999M-00451MD1210041+9999REMSYN070AAXX  03181 28952 129// 01802 11108 21121 40328 52004 69900 333 11045;
0122289520999992000030321004+53220+063620FM-12+015699999V0209999C000012200019N9999999N1-01181-01241103301ADDGA1001+999999999GF100991001001999999001001MD1410001+9999REMSYN054AAXX  03211 28952 429// 00000 11118 21124 40330 54000;
0153289520999992000030400004+53220+063620FM-12+015699999V0201801N002012200019N9999999N1-01401-01531103331ADDGA1001+999999999GF100991001001999999001001MA1999999101241MD1310021+9999REMSYN070AAXX  04001 28952 429// 01802 11140 21153 30124 40333 53002 555 1/117;
0215289520999992000030403004+53220+063620FM-12+015699999V0201801N002012200019N0200001N1-01441-01571103401ADDAA199000091AJ100329199999999GA1001+999999999GF100991001001999999001001GJ105229IA1239MD1210061+9999REMSYN086AAXX  04031 28952 32998 01802 11144 21157 40340 52006 333 47032 55087 555 21144 7990/;EQDQ01  00002PRCP99
0175289520999992000030406004+53220+063620FM-12+015699999V0201801N003012200019N0200001N1-01081-01281103421ADDAA199000091GA1001+999999999GF100991001001999999001001KA1999N-01441MD1210051+9999REMSYN064AAXX  04061 28952 32998 01803 11108 21128 40342 52005 333 21144;EQDQ01  00002PRCP99
0122289520999992000030409004+53220+063620FM-12+015699999V0201801N002012200019N0200001N1-00701-01031103401ADDGA1001+999999999GF100991001001999999001001MD1210011+9999REMSYN054AAXX  04091 28952 42998 01802 11070 21103 40340 52001;
0193289520999992000030415004+53220+063620FM-12+015699999V0201401N001019999999N9999999N1-00841-00901103361ADDAA199000091AY141031AY221031GF108991081001999999021999KA1999M-00701MD1310041+9999MW1481REMSYN076AAXX  04151 28952 319// 81401 11084 21090 40336 53004 74842 8802/ 333 11070;EQDQ01  00002PRCP99
0203289520999992000030418004+53220+063620FM-12+015699999V0209999C000012200019N9999999N1-01221-01281103411ADDAA199000091AY141061AY211061GA1001+999999999GF100991001001999999001001KA1999M-00701MD1210011+9999MW1481REMSYN070AAXX  04181 28952 329// 00000 11122 21128 40341 52001 74841 333 11070;EQDQ01  00002PRCP99
0150289520999992000030421004+53220+063620FM-12+015699999V0209999C000012200019N9999999N1-01521-01651103321ADDAY141031AY201031GA1001+999999999GF100991001001999999001001MD1810101+9999MW1481REMSYN060AAXX  04211 28952 419// 00000 11152 21165 40332 58010 74840;
0181289520999992000030500004+53220+063620FM-12+015699999V0209999C000012200019N9999999N1-01761-01881103281ADDAY141061AY201061GA1001+999999999GF100991001001999999001001MA1999999101151MD1710071+9999MW1021REMSYN076AAXX  05001 28952 419// 00000 11176 21188 30115 40328 57007 70240 555 1/119;
0215289520999992000030503004+53220+063620FM-12+015699999V0209999C000012200019N0200001N1-02091-02281103251ADDAA199000091AJ100329199999999GA1001+999999999GF100991001001999999001001GJ105229IA1239MD1710041+9999REMSYN086AAXX  05031 28952 32998 00000 11209 21228 40325 57004 333 47032 55087 555 21209 7000/;EQDQ01  00002PRCP99
0165289520999992000030506004+53220+063620FM-12+015699999V0209999C000019999999N0200001N1-01531-01661103221ADDAA199000091GF106991001001999999001021KA1999N-01761MD1410001+9999REMSYN070AAXX  05061 28952 32998 60000 11153 21166 40322 54000 80002 333 21176;EQDQ01  00002PRCP99
0112289520999992000030509004+53220+063620FM-12+015699999V0209999C000019999999N0200001N1-00781-00961103001ADDGF105991001001999999001021MD1810051+9999REMSYN060AAXX  05091 28952 42998 50000 11078 21096 40300 58005 80002;
0143289520999992000030512004+53220+063620FM-12+015699999V0209999C000019999999N0200001N1-00501-00991102911ADDGF107991031001999999031021MA1999999100901MD1710061+9999REMSYN076AAXX  05121 28952 42998 70000 11050 21099 30090 40291 57006 83032 555 1/105;
0175289520999992000030515004+53220+063620FM-12+015699999V0209999C000012200019N9999999N1-00681-01251102791ADDAA199000091GA1001+999999999GF100991001001999999001001KA1999M-00501MD1710141+9999REMSYN064AAXX  05151 28952 329// 00000 11068 21125 40279 57014 333 11050;EQDQ01  00002PRCP99
0175289520999992000030518004+53220+063620FM-12+015699999V0209999C000012200019N9999999N1-00931-01441102771ADDAA199000091GA1001+999999999GF100991001001999999001001KA1999M-00501MD1710051+9999REMSYN064AAXX  05181 28952 329// 00000 11093 21144 40277 57005 333 11050;EQDQ01  00002PRCP99
0122289520999992000030521004+53220+063620FM-12+015699999V0209999C000012200019N9999999N1-01321-01671102631ADDGA1001+999999999GF100991001001999999001001MD1710111+9999REMSYN054AAXX  05211 28952 429// 00000 11132 21167 40263 57011;
0147289520999992000030600004+53220+063620FM-12+015699999V0209999C000012200019N9999999N1+99999+99999102541ADDGA1001+999999999GF100991001001999999001001MA1999999100451MD1710101+9999REMSYN064AAXX  06001 28952 429// 00000 21179 30045 40254 57010 555 1/120;
0205289520999992000030603004+53220+063620FM-12+015699999V0200701N001019999999N9999999N1-01261-01531102461ADDAA199000091AJ100329199999999GF106991001001999999001021GJ105349IA1239MD1710061+9999REMSYN092AAXX  06031 28952 329// 60701 11126 21153 40246 57006 80002 333 47032 55089 555 21152 7000/;EQDQ01  00002PRCP99
0165289520999992000030606004+53220+063620FM-12+015699999V0200701N001019999999N0200001N1-00861-01141102301ADDAA199000091GF106991001001999999001021KA1999N-01521MD1710121+9999REMSYN070AAXX  06061 28952 32998 60701 11086 21114 40230 57012 80002 333 21152;EQDQ01  00002PRCP99
0112289520999992000030609004+53220+063620FM-12+015699999V0200701N001012200019N0200001N1-00361-00971102171ADDGF103991001001999999001011MD1710091+9999REMSYN060AAXX  06091 28952 42998 30701 11036 21097 40217 57009 80001;
0143289520999992000030612004+53220+063620FM-12+015699999V0200901N001019999999N0200001N1-00561-01171102191ADDGF105991001001999999001021MA1999999100181MD1410001+9999REMSYN076AAXX  06121 28952 42998 50901 11056 21117 30018 40219 54000 80002 555 1/106;
0132289520999992000030615004+53220+063620FM-12+015699999V0200901N001012200019N9999999N1-01181-01381102271ADDAA118300091GF102991021001999999041001KA1999M-00361REMSYN070AAXX  06151 28952 329// 20901 11118 21138 40227 63003 82040 333 11036;
0175289520999992000030618004+53220+063620FM-12+015699999V0209999C000012200019N9999999N1-01631-01691102291ADDAA199000091GA1001+999999999GF100991001001999999001001KA1999M-00361MD1810011+9999REMSYN064AAXX  06181 28952 329// 00000 11163 21169 40229 58001 333 11036;EQDQ01  00002PRCP99
0122289520999992000030621004+53220+063620FM-12+015699999V0209999C000012200019N9999999N1-01851-01911102231ADDGA1001+999999999GF100991001001999999001001MD1710071+9999REMSYN054AAXX  06211 28952 429// 00000 11185 21191 40223 57007;
0153289520999992000030700004+53220+063620FM-12+015699999V0209999C000012200019N9999999N1-01961-02021102271ADDGA1001+999999999GF100991001001999999001001MA1999999100151MD1310021+9999REMSYN070AAXX  07001 28952 429// 00000 11196 21202 30015 40227 53002 555 1/124;
0233289520999992000030703004+53220+063620FM-12+015699999V0209999C000019999999N0005001N1-01861-01921102291ADDAA199000091AJ100319199999999AY141031AY211031GF108991081001999999021999GJ105109IA1279MD1210041+9999MW1481REMSYN098AAXX  07031 28952 31993 80000 11186 21192 40229 52004 74841 8802/ 333 43031 55085 555 21196 7000/;EQDQ01  00002PRCP99
0173289520999992000030706004+53220+063620FM-12+015699999V0209999C000012200019N0040001N1-01521-01651102351ADDAA199000091AY141061AY211061GF103991001001999999001011KA1999N-01961MW1101REMSYN070AAXX  07061 28952 31996 30000 11152 21165 40235 71041 80001 333 21196;EQDQ01  00002PRCP99
0122289520999992000030709004+53220+063620FM-12+015699999V0209999C000012200019N0200001N1-00721-01301102321ADDGA1001+999999999GF100991001001999999001001MD1210031+9999REMSYN054AAXX  07091 28952 42998 00000 11072 21130 40232 52003;
0153289520999992000030712004+53220+063620FM-12+015699999V0202301N001012200019N0200001N1-00501-00991102381ADDGA1001+999999999GF100991001001999999001001MA1999999100381MD1210091+9999REMSYN070AAXX  07121 28952 42998 02301 11050 21099 30038 40238 52009 555 11105;
0175289520999992000030715004+53220+063620FM-12+015699999V0209999C000012200019N9999999N1-01381-01511102501ADDAA199000091GA1001+999999999GF100991001001999999001001KA1999M-00501MD1210041+9999REMSYN064AAXX  07151 28952 329// 00000 11138 21151 40250 52004 333 11050;EQDQ01  00002PRCP99
0175289520999992000030718004+53220+063620FM-12+015699999V0209999C000012200019N9999999N1-01771-01961102561ADDAA199000091GA1001+999999999GF100991001001999999001001KA1999M-00501MD1210031+9999REMSYN064AAXX  07181 28952 329// 00000 11177 21196 40256 52003 333 11050;EQDQ01  00002PRCP99
0122289520999992000030721004+53220+063620FM-12+015699999V0209999C000012200019N9999999N1-01601-01731102511ADDGA1001+999999999GF100991001001999999001001MD1810041+9999REMSYN054AAXX  07211 28952 429// 00000 11160 21173 40251 58004;
0153289520999992000030800004+53220+063620FM-12+015699999V0209999C000012200019N9999999N1-01661-01791102371ADDGA1001+999999999GF100991001001999999001001MA1999999100371MD1710041+9999REMSYN070AAXX  08001 28952 429// 00000 11166 21179 30037 40237 57004 555 1/120;
0181289520999992000030806004+53220+063620FM-12+015699999V0201801N001019999999N0200001N1-01081-01361102371ADDAA199000091GF106991001001999999001011KA1999M+99999MD1810091+9999REMSYN070AAXX  08061 28952 32998 61801 11108 21136 40237 58009 80001 333 11194;EQDQ01  00002PRCP99Q02 -01942ATMX  
0112289520999992000030809004+53220+063620FM-12+015699999V0201801N003019999999N0200001N1-00401-00941102181ADDGF108991001001999999001011MD1710131+9999REMSYN060AAXX  08091 28952 42998 81803 11040 21094 40218 57013 80001;
0133289520999992000030812004+53220+063620FM-12+015699999V0201801N003019999999N0200001N1-00281-00731102101ADDGF107991071001999999051999MA1999999100121MD1710071+9999REMSYN066AAXX  08121 28952 42998 71803 11028 21073 30012 40210 57007 8705/;
0165289520999992000030815004+53220+063620FM-12+015699999V0201801N003019999999N9999999N1-00521-00931102061ADDAA199000091GF107991071001999999051001KA1999M-00281MD1710051+9999REMSYN070AAXX  08151 28952 329// 71803 11052 21093 40206 57005 87050 333 11028;EQDQ01  00002PRCP99
0165289520999992000030818004+53220+063620FM-12+015699999V0201801N003012200019N9999999N1-00701-00911101971ADDAA199000091GF103991031001999999051001KA1999M-00281MD1710111+9999REMSYN070AAXX  08181 28952 329// 31803 11070 21091 40197 57011 83050 333 11028;EQDQ01  00002PRCP99
0122289520999992000030821004+53220+063620FM-12+015699999V0201801N003012200019N9999999N1-01021-01221101891ADDGA1001+999999999GF100991001001999999001001MD1710121+9999REMSYN054AAXX  08211 28952 429// 01803 11102 21122 40189 57012;
0143289520999992000030900004+53220+063620FM-12+015699999V0201801N003019999999N9999999N1-00921-01371101791ADDGF108991081001999999021999MA1999999099761MD1710081+9999REMSYN076AAXX  09001 28952 429// 81803 11092 21137 39976 40179 57008 8802/ 555 1/112;
0205289520999992000030903004+53220+063620FM-12+015699999V0201801N005019999999N0200001N1-00921-01371101581ADDAA199000091AJ100319199999999GF108991081001999999021999GJ103369IA1279MD1710201+9999REMSYN092AAXX  09031 28952 32998 81805 11092 21137 40158 57020 8802/ 333 43031 55056 555 21102 7000/;EQDQ01  00002PRCP99
0165289520999992000030906004+53220+063620FM-12+015699999V0201601N004019999999N0200001N1-00511-00831101381ADDAA199000091GF107991071001999999071001KA1999N-01021MD1710161+9999REMSYN070AAXX  09061 28952 32998 71604 11051 21083 40138 57016 87070 333 21102;EQDQ01  00002PRCP99
0112289520999992000030909004+53220+063620FM-12+015699999V0201801N004019999999N0200001N1+00001-00421101201ADDGF107991071001999999051999MD1710151+9999REMSYN060AAXX  09091 28952 42998 71804 10000 21042 40120 57015 8705/;
0143289520999992000030912004+53220+063620FM-12+015699999V0201801N003019999999N0200001N1-00021-00491101131ADDGF108991081001999999021999MA1999999099191MD1710061+9999REMSYN076AAXX  09121 28952 42998 81803 11002 21049 39919 40113 57006 8802/ 555 1/000;
0165289520999992000030915004+53220+063620FM-12+015699999V0201801N002012200019N9999999N1-00291-00601101131ADDAA199000091GF103991031001999999041001KA1999M+00001MD1710021+9999REMSYN070AAXX  09151 28952 329// 31802 11029 21060 40113 57002 83040 333 10000;EQDQ01  00002PRCP99
0175289520999992000030918004+53220+063620FM-12+015699999V0201801N001012200019N9999999N1-00561-00701101211ADDAA199000091GA1001+999999999GF100991001001999999001001KA1999M+00001MD1310051+9999REMSYN064AAXX  09181 28952 329// 01801 11056 21070 40121 53005 333 10000;EQDQ01  00002PRCP99
0119289520999992000030921004+53220+063620FM-12+015699999V0201801N001012200019N9999999N1-00961-01081101391ADDAA124200991GA1001+999999999GF100991001001999999001001REMSYN054AAXX  09211 28952 429// 01801 11096 21108 40139 62014;
0153289520999992000031000004+53220+063620FM-12+015699999V0209999C000012200019N9999999N1-01081-01211101461ADDGA1001+999999999GF100991001001999999001001MA1999999099431MD1210071+9999REMSYN070AAXX  10001 28952 429// 00000 11108 21121 39943 40146 52007 555 1/111;
0233289520999992000031003004+53220+063620FM-12+015699999V0209999C000019999999N0005001N1-01221-01351101631ADDAA199000091AJ100319199999999AY141031AY211031GF108991081001999999011999GJ100129IA1279MD1210151+9999MW1481REMSYN098AAXX  10031 28952 31993 80000 11122 21135 40163 52015 74841 8801/ 333 43031 55002 555 21122 7000/;EQDQ01  00002PRCP99
0209289520999992000031006004+53220+063620FM-12+015699999V0209999C000019999999N0200001N1-00761-00761101661ADDAA199000091AY141061AY221061GF107991999001999999011001KA1999N-01221MD1210071+9999MW1021REMSYN076AAXX  10061 28952 31998 70000 11076 21076 40166 52007 70242 88010 333 21122;EQDQ01+000082SCOTLCQ02  00002PRCP99
0112289520999992000031009004+53220+063620FM-12+015699999V0201601N002019999999N0200001N1+00041-00121101591ADDGF106991061001999999031001MD1810021+9999REMSYN060AAXX  10091 28952 42998 61602 10004 21012 40159 58002 86030;
0143289520999992000031012004+53220+063620FM-12+015699999V0201801N002019999999N0200001N1+00211-00011101581ADDGF105991051001999999031001MA1999999099641MD1410001+9999REMSYN076AAXX  10121 28952 42998 51802 10021 21001 39964 40158 54000 85030 555 1/002;
0165289520999992000031015004+53220+063620FM-12+015699999V0201801N002019999999N9999999N1+00171+00031101711ADDAA199000091GF108991081001999999021999KA1999M+00211MD1310121+9999REMSYN070AAXX  10151 28952 329// 81802 10017 20003 40171 53012 8802/ 333 10021;EQDQ01  00002PRCP99
0165289520999992000031018004+53220+063620FM-12+015699999V0201801N002019999999N9999999N1+00081+00051101741ADDAA199000091GF108991081001999999021999KA1999M+00211MD1210031+9999REMSYN070AAXX  10181 28952 329// 81802 10008 20005 40174 52003 8802/ 333 10021;EQDQ01  00002PRCP99
0112289520999992000031021004+53220+063620FM-12+015699999V0202301N003019999999N9999999N1-00261-00291101751ADDGF105991051001999999031001MD1810021+9999REMSYN060AAXX  10211 28952 429// 52303 11026 21029 40175 58002 85030;
0143289520999992000031100004+53220+063620FM-12+015699999V0201801N003019999999N9999999N1-00471-00571101751ADDGF108991081001999999021999MA1999999099761MD1710011+9999REMSYN076AAXX  11001 28952 429// 81803 11047 21057 39976 40175 57001 8802/ 555 1/105;
0205289520999992000031103004+53220+063620FM-12+015699999V0201401N002019999999N0200001N1-00521-00621101691ADDAA199000091AJ100299199999999GF108991081001999999021999GJ101149IA1279MD1710051+9999REMSYN092AAXX  11031 28952 32998 81402 11052 21062 40169 57005 8802/ 333 43029 55019 555 21052 70001;EQDQ01  00002PRCP99
0165289520999992000031106004+53220+063620FM-12+015699999V0201101N003019999999N0200001N1-00201-00451101571ADDAA199000091GF108991001001999999001061KA1999N-00521MD1710111+9999REMSYN070AAXX  11061 28952 32998 81103 11020 21045 40157 57011 80006 333 21052;EQDQ01  00002PRCP99
0112289520999992000031109004+53220+063620FM-12+015699999V0201101N005019999999N0200001N1+00141-00271101411ADDGF108991081001999999011999MD1710131+9999REMSYN060AAXX  11091 28952 42998 81105 10014 21027 40141 57013 8801/;
0157289520999992000031112004+53220+063620FM-12+015699999V0201401N006019999999N0200001N1+00161-00251101281ADDAY171061GF107991999999008001999999MA1999999099341MD1710131+9999MW1701REMSYN076AAXX  11121 28952 42598 71406 10016 21025 39934 40128 57013 7707/ 555 1/002;
0146289520999992000031115004+53220+063620FM-12+015699999V0201801N005019999999N9999999N1+00161-00061101301ADDAA199000021GF107991071001999999071999KA1999M+00201MD1310021+9999REMSYN070AAXX  11151 28952 329// 71805 10016 21006 40130 53002 8707/ 333 10020;
0146289520999992000031118004+53220+063620FM-12+015699999V0201801N006019999999N9999999N1+00121+00041101311ADDAA199000021GF108991081001999999021999KA1999M+00201MD1210011+9999REMSYN070AAXX  11181 28952 329// 81806 10012 20004 40131 52001 8802/ 333 10020;
0112289520999992000031121004+53220+063620FM-12+015699999V0201801N003019999999N9999999N1+00121+00071101341ADDGF108991081001999999021999MD1210031+9999REMSYN060AAXX  11211 28952 429// 81803 10012 20007 40134 52003 8802/;
0143289520999992000031200004+53220+063620FM-12+015699999V0202301N002010075019N9999999N1+00141+00031101341ADDGF108991081061008001999999MA1999999099401MD1410001+9999REMSYN076AAXX  12001 28952 425// 82302 10014 20003 39940 40134 54000 886// 555 1/101;
0228289520999992000031203004+53220+063620FM-12+015699999V0201801N002019999999N0005001N1+00081-00031101451ADDAJ100279199999999AY151031AY241031GF107991999051008001999999GJ101029IA1279MD1310111+9999MW1461REMSYN104AAXX  12031 28952 11593 71802 10008 21003 40145 53011 74654 885// 333 43027 55017 555 20008 59902 7990/;EQDQ01+000082SCOTLC
0180289520999992000031206004+53220+063620FM-12+015699999V0209999C000019999999N0100001N1+00101-00011101421ADDAA100000791AY151061AY241061GF108991081001999999021999KA1999N+00081MD1810031+9999MW1021REMSYN082AAXX  12061 28952 11997 80000 10010 21001 40142 58003 69900 70254 8802/ 333 20008;
0140289520999992000031209004+53220+063620FM-12+015699999V0209999C000019999999N0040001N1+00101-00041101411ADDAY181031AY221031GF108991081001999999021999MD1710011+9999MW1101REMSYN066AAXX  12091 28952 41996 80000 10010 21004 40141 57001 71082 8802/;
0149289520999992000031212004+53220+063620FM-12+015699999V0209999C000019999999N0005001N1+00101+00051101231ADDGF108991999999999999999999MA1999999099291MD1710181+9999MW1851REMSYN076AAXX  12121 28952 41993 80000 10010 20005 39929 40123 57018 785// 555 1/000;
0192289520999992000031215004+53220+063620FM-12+015699999V0201401N003019999999N9999999N1+00121-00021101171ADDAY151031AY241031GF107991999091012501999999KA1120M+00121MD1710051+9999MW1021REMSYN086AAXX  12151 28952 /16// 71403 10012 21002 40117 57005 70254 889// 333 10012 555 60012;EQDQ01+000082SCOTLC
0180289520999992000031218004+53220+063620FM-12+015699999V0201401N006010120019N9999999N1+00151+00011101111ADDAA100001091AY151061AY241061GF108991081091012501999999KA1999M+00121MD1710061+9999MW1021REMSYN082AAXX  12181 28952 116// 81406 10015 20001 40111 57006 60010 70254 889// 333 10012;
0140289520999992000031221004+53220+063620FM-12+015699999V0201401N006010075019N9999999N1+00151+00011100931ADDAY161031AY221031GF108991071051008001999999MD1710181+9999MW1601REMSYN066AAXX  12211 28952 415// 81406 10015 20001 40093 57018 76062 875//;
0171289520999992000031300004+53220+063620FM-12+015699999V0201601N005010075019N9999999N1+00191-00061100771ADDAY161061AY221061GF108991071051008001999999MA1999999098841MD1710161+9999MW1601REMSYN082AAXX  13001 28952 415// 81605 10019 21006 39884 40077 57016 76062 875// 555 1/010;
0220289520999992000031303004+53220+063620FM-12+015699999V0201401N005010075019N0040001N1+00121-00151100631ADDAA112001091AJ100209199999999AY161031AY221031GF107991071051008001999999GJ100009IA1279MD1710131+9999MW1601REMSYN104AAXX  13031 28952 /1596 71405 10012 21015 40063 57013 76062 875// 333 43020 55000 555 20012 60012 7001/;
0199289520999992000031306004+53220+063620FM-12+015699999V0201101N004010075019N0040001N1+00061-00081100571ADDAA100000391AY181061AY261061GF108991081001008001021999KA1999N+99999MD1710061+9999MW1871REMSYN082AAXX  13061 28952 11596 81104 10006 21008 40057 57006 69930 78786 8802/ 333 20012;EQDQ01 +00122ATMN  
0140289520999992000031309004+53220+063620FM-12+015699999V0201101N003010075019N0040001N1+00081-00031100471ADDAY181031AY221031GF108991081091008001999999MD1710011+9999MW1851REMSYN066AAXX  13091 28952 41596 81103 10008 21003 40047 57001 78582 889//;
0187289520999992000031312004+53220+063620FM-12+015699999V0203201N008010075019N0040001N1-00141-00261100401ADDAA109999999AY181061AY281061GF108991081091008001999999MA1999999098471MW1851REMSYN082AAXX  13121 28952 41596 83208 11014 21026 39847 40040 67008 78588 889// 555 1/102;EQDQ01  70002PRCP09
0173289520999992000031315004+53220+063620FM-12+015699999V0203201N009010075019N9999999N1-00311-00411100451ADDAY181031AY281031GF108991081091008001999999KA1120M+00121MD1310031+9999MW1861REMSYN086AAXX  13151 28952 /15// 83209 11031 21041 40045 53003 78688 889// 333 10012 555 60092;
0180289520999992000031318004+53220+063620FM-12+015699999V0203201N009010075019N9999999N1-00341-00451100651ADDAA100008991AY181061AY281061GF108991081091008001999999KA1999M+00121MD1210191+9999MW1861REMSYN082AAXX  13181 28952 115// 83209 11034 21045 40065 52019 60090 78688 889// 333 10012;
0140289520999992000031321004+53220+063620FM-12+015699999V0203201N008010075019N9999999N1-00331-00441100911ADDAY181031AY231031GF108991081091008001999999MD1210261+9999MW1851REMSYN066AAXX  13211 28952 415// 83208 11033 21044 40091 52026 78583 889//;
0181289520999992000031400004+53220+063620FM-12+015699999V0203201N007012200019N9999999N1-00561-00701101171ADDAY181061AY231061GA1001+999999999GF100991001001999999001001MA1999999099181MD1210231+9999MW1361REMSYN076AAXX  14001 28952 419// 03207 11056 21070 39918 40117 52023 73683 555 1/107;
0220289520999992000031403004+53220+063620FM-12+015699999V0202701N006012200019N0200001N1-00731-01031101441ADDAA112002091AJ100279199999999AY131031AY201031GF103991001001999999001021GJ100009IA1239MD1210251+9999MW1021REMSYN104AAXX  14031 28952 /1998 32706 11073 21103 40144 52025 70230 80002 333 47027 55000 555 21073 60022 7012/;
0180289520999992000031406004+53220+063620FM-12+015699999V0202701N006012200019N0200001N1-00491-01321101541ADDAA100002091AY131061AY201061GF102991001001999999001011KA1999N-00731MD1210131+9999MW1021REMSYN082AAXX  14061 28952 11998 22706 11049 21132 40154 52013 60020 70230 80001 333 21073;
0112289520999992000031409004+53220+063620FM-12+015699999V0202701N006012200019N0200001N1-00261-01151101751ADDGF102991001001999999001021MD1210211+9999REMSYN060AAXX  14091 28952 42998 22706 11026 21115 40175 52021 80002;
0143289520999992000031412004+53220+063620FM-12+015699999V0202001N004012200019N0200001N1-00181-01401101891ADDGF101991001001999999001021MA1999999099911MD1210141+9999REMSYN076AAXX  14121 28952 42998 12004 11018 21140 39991 40189 52014 80002 555 1/001;
0165289520999992000031415004+53220+063620FM-12+015699999V0202301N002012200019N9999999N1-00531-01391101981ADDAA199000091GF101991001001999999001011KA1999M-00181MD1210061+9999REMSYN070AAXX  14151 28952 329// 12302 11053 21139 40198 52006 80001 333 11018;EQDQ01  00002PRCP99
0175289520999992000031418004+53220+063620FM-12+015699999V0202301N001012200019N9999999N1-01181-01381102191ADDAA199000091GA1001+999999999GF100991001001999999001001KA1999M-00181MD1210161+9999REMSYN064AAXX  14181 28952 329// 02301 11118 21138 40219 52016 333 11018;EQDQ01  00002PRCP99
0122289520999992000031421004+53220+063620FM-12+015699999V0209999C000012200019N9999999N1-01501-01701102351ADDGA1001+999999999GF100991001001999999001001MD1210141+9999REMSYN054AAXX  14211 28952 429// 00000 11150 21170 40235 52014;
0153289520999992000031500004+53220+063620FM-12+015699999V0209999C000012200019N9999999N1-01711-01901102411ADDGA1001+999999999GF100991001001999999001001MA1999999100301MD1210031+9999REMSYN070AAXX  15001 28952 429// 00000 11171 21190 30030 40241 52003 555 1/120;
0215289520999992000031503004+53220+063620FM-12+015699999V0209999C000012200019N0200001N1-01831-02021102521ADDAA199000091AJ100279199999999GA1001+999999999GF100991001001999999001001GJ106549IA1239MD1210111+9999REMSYN086AAXX  15031 28952 32998 00000 11183 21202 40252 52011 333 47027 55109 555 21183 7000/;EQDQ01  00002PRCP99
0175289520999992000031506004+53220+063620FM-12+015699999V0209999C000012200019N0200001N1-00801-01421102611ADDAA199000091GA1001+999999999GF100991001001999999001001KA1999N-01831MD1210171+9999REMSYN064AAXX  15061 28952 32998 00000 11080 21142 40261 52017 333 21183;EQDQ01  00002PRCP99
0112289520999992000031509004+53220+063620FM-12+015699999V0202301N002012200019N0200001N1-00441-01241102551ADDGF102991001001999999001011MD1810031+9999REMSYN060AAXX  15091 28952 4/998 22302 11044 21124 40255 58003 80001;
0153289520999992000031512004+53220+063620FM-12+015699999V0209999C000012200019N0200001N1-00401-01231102581ADDGA1001+999999999GF100991001001999999001001MA1999999100581MD1310031+9999REMSYN070AAXX  15121 28952 42998 00000 11040 21123 30058 40258 53003 555 1/104;
0175289520999992000031515004+53220+063620FM-12+015699999V0209999C000012200019N9999999N1-01311-01661102691ADDAA199000091GA1001+999999999GF100991001001999999001001KA1999M-00301MD1210041+9999REMSYN064AAXX  15151 28952 329// 00000 11131 21166 40269 52004 333 11030;EQDQ01  00002PRCP99
0175289520999992000031518004+53220+063620FM-12+015699999V0209999C000012200019N9999999N1-01501-01701102701ADDAA199000091GA1001+999999999GF100991001001999999001001KA1999M-00301MD1410001+9999REMSYN064AAXX  15181 28952 329// 00000 11150 21170 40270 54000 333 11030;EQDQ01  00002PRCP99
0122289520999992000031521004+53220+063620FM-12+015699999V0209999C000012200019N9999999N1-01751-01941102711ADDGA1001+999999999GF100991001001999999001001MD1810021+9999REMSYN054AAXX  15211 28952 429// 00000 11175 21194 40271 58002;
0153289520999992000031600004+53220+063620FM-12+015699999V0209999C000012200019N9999999N1-01851-01971102691ADDGA1001+999999999GF100991001001999999001001MA1999999100581MD1710021+9999REMSYN070AAXX  16001 28952 429// 00000 11185 21197 30058 40269 57002 555 1/124;
0233289520999992000031603004+53220+063620FM-12+015699999V0209999C000019999999N0200001N1-01821-01941102741ADDAA199000091AJ100289199999999AY111031AY211031GF106991001001999999001081GJ106129IA1239MD1310051+9999MW1101REMSYN098AAXX  16031 28952 31998 60000 11182 21194 40274 53005 71011 80008 333 47028 55102 555 21189 7000/;EQDQ01  00002PRCP99
0165289520999992000031606004+53220+063620FM-12+015699999V0203201N001012200019N0200001N1-01451-01721102701ADDAA199000091GF102991001001999999001011KA1999N-01891MD1810011+9999REMSYN070AAXX  16061 28952 32998 23201 11145 21172 40270 58001 80001 333 21189;EQDQ01  00002PRCP99
0112289520999992000031609004+53220+063620FM-12+015699999V0203401N001012200019N0200001N1-00861-01401102551ADDGF102991001001999999001011MD1710101+9999REMSYN060AAXX  16091 28952 42998 23401 11086 21140 40255 57010 80001;
0143289520999992000031612004+53220+063620FM-12+015699999V0203401N001012200019N0200001N1-00721-01301102541ADDGF102991001001999999001011MA1999999100511MD1710011+9999REMSYN076AAXX  16121 28952 42998 23401 11072 21130 30051 40254 57001 80001 555 1/105;
0175289520999992000031615004+53220+063620FM-12+015699999V0203401N001012200019N9999999N1-01041-01321102581ADDAA199000091GA1001+999999999GF100991001001999999001001KA1999M-00701MD1310021+9999REMSYN064AAXX  16151 28952 329// 03401 11104 21132 40258 53002 333 11070;EQDQ01  00002PRCP99
0175289520999992000031618004+53220+063620FM-12+015699999V0209999C000012200019N9999999N1-01421-01551102581ADDAA199000091GA1001+999999999GF100991001001999999001001KA1999M-00701MD1810031+9999REMSYN064AAXX  16181 28952 329// 00000 11142 21155 40258 58003 333 11070;EQDQ01  00002PRCP99
0122289520999992000031621004+53220+063620FM-12+015699999V0209999C000012200019N9999999N1-01901-02021102601ADDGA1001+999999999GF100991001001999999001001MD1710011+9999REMSYN054AAXX  16211 28952 429// 00000 11190 21202 40260 57001;
0153289520999992000031700004+53220+063620FM-12+015699999V0209999C000012200019N9999999N1-01971-02161102601ADDGA1001+999999999GF100991001001999999001001MA1999999100471MD1710021+9999REMSYN070AAXX  17001 28952 429// 00000 11197 21216 30047 40260 57002 555 1/125;
0215289520999992000031703004+53220+063620FM-12+015699999V0209999C000012200019N0200001N1-02091-02281102681ADDAA199000091AJ100299199999999GA1001+999999999GF100991001001999999001001GJ104869IA1239MD1310081+9999REMSYN086AAXX  17031 28952 32998 00000 11209 21228 40268 53008 333 47029 55081 555 21209 7000/;EQDQ01  00002PRCP99
0175289520999992000031706004+53220+063620FM-12+015699999V0209999C000012200019N0200001N1-01141-01491102641ADDAA199000091GA1001+999999999GF100991001001999999001001KA1999N-02091MD1210021+9999REMSYN064AAXX  17061 28952 32998 00000 11114 21149 40264 52002 333 21209;EQDQ01  00002PRCP99
0122289520999992000031709004+53220+063620FM-12+015699999V0202701N002012200019N0200001N1-00651-01251102621ADDGA1001+999999999GF100991001001999999001001MD1210031+9999REMSYN054AAXX  17091 28952 42998 02702 11065 21125 40262 52003;
0153289520999992000031712004+53220+063620FM-12+015699999V0202701N001012200019N0200001N1-00501-01181102661ADDGA1001+999999999GF100991001001999999001001MA1999999100661MD1210061+9999REMSYN070AAXX  17121 28952 42998 02701 11050 21118 30066 40266 52006 555 1/102;
0175289520999992000031715004+53220+063620FM-12+015699999V0209999C000012200019N9999999N1-00911-01301102831ADDAA199000091GA1001+999999999GF100991001001999999001001KA1999M-00501MD1210131+9999REMSYN064AAXX  17151 28952 329// 00000 11091 21130 40283 52013 333 11050;EQDQ01  00002PRCP99
0122289520999992000031721004+53220+063620FM-12+015699999V0209999C000012200019N9999999N1-01321-01521102941ADDGA1001+999999999GF100991001001999999001001MD1410001+9999REMSYN054AAXX  17211 28952 429// 00000 11132 21152 40294 54000;
0153289520999992000031800004+53220+063620FM-12+015699999V0209999C000012200019N9999999N1-01561-01751103081ADDGA1001+999999999GF100991001001999999001001MA1999999100971MD1310101+9999REMSYN070AAXX  18001 28952 429// 00000 11156 21175 30097 40308 53010 555 1/119;
0205289520999992000031803004+53220+063620FM-12+015699999V0209999C000019999999N0200001N1-01451-01651103171ADDAA199000091AJ100299199999999GF107991071001999999051999GJ105709IA1279MD1210111+9999REMSYN092AAXX  18031 28952 32998 70000 11145 21165 40317 52011 8705/ 333 43029 55095 555 21164 7000/;EQDQ01  00002PRCP99
0173289520999992000031806004+53220+063620FM-12+015699999V0202901N001019999999N0100001N1-00861-01191103171ADDAA199000021AY171061AY211061GF108991081001999999021999KA1999N+99999MW1711REMSYN070AAXX  18061 28952 31997 82901 11086 21119 40317 77171 8802/ 333 21064;EQDQ01 -00642ATMN  
0140289520999992000031809004+53220+063620FM-12+015699999V0202701N001019999999N0100001N1-00441-01001103191ADDAY171031AY221031GF108991081001999999011999MD1310051+9999MW1711REMSYN066AAXX  18091 28952 41997 82701 11044 21100 40319 53005 77172 8801/;
0181289520999992000031812004+53220+063620FM-12+015699999V0202701N004012200019N0200001N1-00381-00871103271ADDAY171061AY211061GA1001+999999999GF100991001001999999001001MA1999999101251MD1210071+9999MW1011REMSYN076AAXX  18121 28952 41998 02704 11038 21087 30125 40327 52007 70171 555 1/103;
0155289520999992000031815004+53220+063620FM-12+015699999V0202701N001012200019N9999999N1-00641-01091103411ADDGA1001+999999999GF100991001001999999001001KA1120M-00381MD1210121+9999REMSYN074AAXX  18151 28952 /29// 02701 11064 21109 40341 52012 333 11038 555 69902;
0162289520999992000031818004+53220+063620FM-12+015699999V0209999C000012200019N9999999N1-01121-01251103541ADDAA100000791GA1001+999999999GF100991001001999999001001KA1999M-00381MD1210091+9999REMSYN070AAXX  18181 28952 129// 00000 11112 21125 40354 52009 69900 333 11038;
0122289520999992000031821004+53220+063620FM-12+015699999V0209999C000012200019N9999999N1-01651-01781103681ADDGA1001+999999999GF100991001001999999001001MD1210101+9999REMSYN054AAXX  18211 28952 429// 00000 11165 21178 40368 52010;
0153289520999992000031900004+53220+063620FM-12+015699999V0209999C000012200019N9999999N1-01861-01981103801ADDGA1001+999999999GF100991001001999999001001MA1999999101661MD1210121+9999REMSYN070AAXX  19001 28952 429// 00000 11186 21198 30166 40380 52012 555 1/124;
0215289520999992000031903004+53220+063620FM-12+015699999V0209999C000012200019N0200001N1-01941-02061103871ADDAA199000091AJ100299199999999GA1001+999999999GF100991001001999999001001GJ102949IA1279MD1210061+9999REMSYN086AAXX  19031 28952 32998 00000 11194 21206 40387 52006 333 43029 55049 555 21194 7990/;EQDQ01  00002PRCP99
0165289520999992000031906004+53220+063620FM-12+015699999V0209999C000012200019N0200001N1-01211-01641103921ADDAA199000091GF103991001001999999001021KA1999N-01941MD1210101+9999REMSYN070AAXX  19061 28952 32998 30000 11121 21164 40392 52010 80002 333 21194;EQDQ01  00002PRCP99
0112289520999992000031909004+53220+063620FM-12+015699999V0203201N002019999999N0200001N1-00491-01381103851ADDGF105991001001999999001021MD1410001+9999REMSYN060AAXX  19091 28952 42998 53202 11049 21138 40385 54000 80002;
0143289520999992000031912004+53220+063620FM-12+015699999V0203201N001012200019N0200001N1-00311-01611103851ADDGF102991001001999999001011MA1999999101831MD1310011+9999REMSYN076AAXX  19121 28952 42998 23201 11031 21161 30183 40385 53001 80001 555 1/102;
0165289520999992000031915004+53220+063620FM-12+015699999V0209999C000012200019N9999999N1-00791-01201103911ADDAA199000091GF102991001001999999001011KA1999M-00311MD1210021+9999REMSYN070AAXX  19151 28952 329// 20000 11079 21120 40391 52002 80001 333 11031;EQDQ01  00002PRCP99
0203289520999992000031918004+53220+063620FM-12+015699999V0209999C000012200019N9999999N1-01401-01461103931ADDAA199000091AY101061AY201061GA1001+999999999GF100991001001999999001001KA1999M-00311MD1810031+9999MW1101REMSYN070AAXX  19181 28952 319// 00000 11140 21146 40393 58003 71000 333 11031;EQDQ01  00002PRCP99
0150289520999992000031921004+53220+063620FM-12+015699999V0209999C000012200019N9999999N1-01491-01551103871ADDAY101031AY201031GA1001+999999999GF100991001001999999001001MD1710061+9999MW1101REMSYN060AAXX  19211 28952 419// 00000 11149 21155 40387 57006 71000;
0143289520999992000032000004+53220+063620FM-12+015699999V0201801N002019999999N9999999N1-01481-01611103831ADDGF106991061001999999031001MA1999999101731MD1710031+9999REMSYN076AAXX  20001 28952 429// 61802 11148 21161 30173 40383 57003 86030 555 1/117;
0241289520999992000032003004+53220+063620FM-12+015699999V0201101N999992200019N0200001N1+99999+99999103861ADDAA199000091AJ100299199999999GF101991999001999999031001GJ106009IA1279MD1310021+9999REMSYN080AAXX  20031 28952 32998 11151 40386 53002 87030 333 43029 55100 555 21151 7000/;EQDQ01+005103WOSPD Q02+000072SCOTLCQ03  00002PRCP99Q040005103WOSPD 
0165289520999992000032006004+53220+063620FM-12+015699999V0201801N003012200019N0200001N1-00891-01381103771ADDAA199000091GF102991021001999999041001KA1999N-01511MD1810031+9999REMSYN070AAXX  20061 28952 32998 21803 11089 21138 40377 58003 82040 333 21151;EQDQ01  00002PRCP99
0122289520999992000032009004+53220+063620FM-12+015699999V0202001N003012200019N0200001N1-00161-00891103631ADDGA1001+999999999GF100991001001999999001001MD1710101+9999REMSYN054AAXX  20091 28952 42998 02003 11016 21089 40363 57010;
0143289520999992000032012004+53220+063620FM-12+015699999V0202001N004019999999N0200001N1-00141-00901103571ADDGF108991001001999999001061MA1999999101561MD1710061+9999REMSYN076AAXX  20121 28952 42998 82004 11014 21090 30156 40357 57006 80006 555 1/102;
0175289520999992000032015004+53220+063620FM-12+015699999V0202001N001012200019N9999999N1-00401-00981103511ADDAA199000091GA1001+999999999GF100991001001999999001001KA1999M-00101MD1710071+9999REMSYN064AAXX  20151 28952 329// 02001 11040 21098 40351 57007 333 11010;EQDQ01  00002PRCP99
0181289520999992000032018004+53220+063620FM-12+015699999V0202001N004012200019N9999999N1-00741-01231103391ADDAA199000091GA1001+999999999GF100991001001999999001001KA1999M-00101MD1710151+9999REMSYN070AAXX  20181 28952 329// 02004 11074 21123 40339 57015 80007 333 11010;EQDQ01  00002PRCP99
0122289520999992000032021004+53220+063620FM-12+015699999V0201801N002012200019N9999999N1-00951-01361103251ADDGA1001+999999999GF100991001001999999001001MD1710151+9999REMSYN054AAXX  20211 28952 429// 01802 11095 21136 40325 57015;
0153289520999992000032100004+53220+063620FM-12+015699999V0201801N002012200019N9999999N1-01101-01541103231ADDGA1001+999999999GF100991001001999999001001MA1999999101171MD1710021+9999REMSYN070AAXX  21001 28952 429// 01802 11110 21154 30117 40323 57002 555 1/115;
0215289520999992000032103004+53220+063620FM-12+015699999V0201801N002012200019N0200001N1-01101-01381103131ADDAA199000091AJ100299199999999GA1001+999999999GF100991001001999999001001GJ106309IA1279MD1710101+9999REMSYN086AAXX  21031 28952 32998 01802 11110 21138 40313 57010 333 43029 55105 555 21110 7000/;EQDQ01  00002PRCP99
0175289520999992000032106004+53220+063620FM-12+015699999V0201801N002012200019N0200001N1-00571-01241103031ADDAA199000091GA1001+999999999GF100991001001999999001001KA1999N-01101MD1710071+9999REMSYN064AAXX  21061 28952 32998 01802 11057 21124 40303 57007 333 21110;EQDQ01  00002PRCP99
0122289520999992000032109004+53220+063620FM-12+015699999V0202001N003012200019N0200001N1-00041-00831102851ADDGA1001+999999999GF100991001001999999001001MD1710131+9999REMSYN054AAXX  21091 28952 42998 02003 11004 21083 40285 57013;
0153289520999992000032110004+53220+063620FM-12+015699999V0202001N003012200019N0200001N1+00181-00631102741ADDGA1001+999999999GF100991001001999999001001MA1999999100771MD1710101+9999REMSYN070AAXX  21101 28952 42998 02003 10018 21063 30077 40274 57010 555 1/001;
0153289520999992000032112004+53220+063620FM-12+015699999V0202001N003012200019N0200001N1+00181-00631102741ADDGA1001+999999999GF100991001001999999001001MA1999999100771MD1710101+9999REMSYN070AAXX  21121 28952 42998 02003 10018 21063 30077 40274 57010 555 1/001;
0175289520999992000032115004+53220+063620FM-12+015699999V0202001N004012200019N9999999N1-00151-00711102411ADDAA199000091GA1001+999999999GF100991001001999999001001KA1999M+00231MD1710051+9999REMSYN064AAXX  21151 28952 329// 02004 11015 21071 40241 57005 333 10023;EQDQ01  00002PRCP99
0175289520999992000032118004+53220+063620FM-12+015699999V0201801N003012200019N9999999N1-00491-00941102721ADDAA199000091GA1001+999999999GF100991001001999999001001KA1999M+00231MD1410001+9999REMSYN064AAXX  21181 28952 329// 01803 11049 21094 40272 54000 333 10023;EQDQ01  00002PRCP99
0122289520999992000032121004+53220+063620FM-12+015699999V0201801N003012200019N9999999N1-00791-00971102721ADDGA1001+999999999GF100991001001999999001001MD1810031+9999REMSYN054AAXX  21211 28952 429// 01803 11079 21097 40272 58003;
0143289520999992000032200004+53220+063620FM-12+015699999V0201801N003012200019N9999999N1-00871-01021102851ADDGF103991001001999999001011MA1999999100621MD1710071+9999REMSYN076AAXX  22001 28952 429// 31803 11087 21102 30062 40285 57007 80001 555 1/111;
0205289520999992000032203004+53220+063620FM-12+015699999V0201801N002012200019N0200001N1-00861-01051102641ADDAA199000091AJ100279199999999GF103991001001999999001011GJ106609IA1279MD1710011+9999REMSYN092AAXX  22031 28952 32998 31802 11086 21105 40264 57001 80001 333 43027 55110 555 21088 7000/;EQDQ01  00002PRCP99
0165289520999992000032206004+53220+063620FM-12+015699999V0201801N002019999999N0200001N1-00201-00871102601ADDAA199000091GF106991031001999999031091KA1999N-00881MD1410001+9999REMSYN070AAXX  22061 28952 32998 61802 11020 21087 40260 54000 83039 333 21088;EQDQ01  00002PRCP99
0112289520999992000032209004+53220+063620FM-12+015699999V0201801N004019999999N0200001N1+00321-00511102431ADDGF106991001001999999001021MD1810131+9999REMSYN060AAXX  22091 28952 42998 61804 10032 21051 40243 58013 80002;
0143289520999992000032212004+53220+063620FM-12+015699999V0201801N004012200019N0200001N1+00361-00381102291ADDGF102991021001999999041021MA1999999100341MD1710141+9999REMSYN076AAXX  22121 28952 42998 21804 10036 21038 30034 40229 57014 82042 555 1/002;
0181289520999992000032215004+53220+063620FM-12+015699999V0201801N004019999999N9999999N1-00031-00521102151ADDAA199000091GF106991031001999999031021KA1999M+99999MD1710151+9999REMSYN070AAXX  22151 28952 329// 61804 11003 21052 40215 57015 83032 333 11036;EQDQ01  00002PRCP99Q02 -00362ATMX  
0165289520999992000032218004+53220+063620FM-12+015699999V0201801N004012200019N9999999N1-00351-00791102141ADDAA199000091GF102991001001999999001011KA1999M+00361MD1710041+9999REMSYN070AAXX  22181 28952 329// 21804 11035 21079 40214 57004 80001 333 10036;EQDQ01  00002PRCP99
0112289520999992000032221004+53220+063620FM-12+015699999V0201801N002019999999N9999999N1-00561-00861102061ADDGF106991001001999999001021MD1710101+9999REMSYN060AAXX  22211 28952 429// 61802 11056 21086 40206 57010 80002;
0153289520999992000032300004+53220+063620FM-12+015699999V0201801N001012200019N9999999N1-00671-00951101851ADDGA1001+999999999GF100991001001999999001001MA1999999099841MD1710211+9999REMSYN070AAXX  23001 28952 429// 01801 11067 21095 39984 40185 57021 555 1/110;
0205289520999992000032303004+53220+063620FM-12+015699999V0209999C000019999999N0200001N1-00821-01011101681ADDAA199000091AJ100279199999999GF107991001001999999001011GJ105589IA1279MD1710171+9999REMSYN092AAXX  23031 28952 32998 70000 11082 21101 40168 57017 80001 333 43027 55093 555 21082 7000/;EQDQ01  00002PRCP99
0165289520999992000032306004+53220+063620FM-12+015699999V0201601N005019999999N0200001N1-00401-00621101521ADDAA199000091GF108991081001999999011999KA1999N-00821MD1710131+9999REMSYN070AAXX  23061 28952 32998 81605 11040 21062 40152 57013 8801/ 333 21082;EQDQ01  00002PRCP99
0106289520999992000032309004+53220+063620FM-12+015699999V0201801N003019999999N0200001N1+00121-00371999999ADDGF108991081001999999011999MD1710121+9999REMSYN054AAXX  23091 28952 42998 81803 10012 21037 57012 8801/;
0143289520999992000032312004+53220+063620FM-12+015699999V0201601N003019999999N0200001N1+00201-00301101211ADDGF108991001001999999001011MA1999999099271MD1710151+9999REMSYN076AAXX  23121 28952 42998 81603 10020 21030 39927 40121 57015 80001 555 1/002;
0165289520999992000032315004+53220+063620FM-12+015699999V0201801N003019999999N9999999N1+00061-00371101081ADDAA199000091GF108991081001999999021999KA1999M+00201MD1710121+9999REMSYN070AAXX  23151 28952 329// 81803 10006 21037 40108 57012 8802/ 333 10020;EQDQ01  00002PRCP99
0174289520999992000032318004+53220+063620FM-12+015699999V0209999C000019999999N9999999N1+00041-00071101001ADDAA199000021AY161061AY221061GF108991081001999999021999KA1999M+00201MD1710101+9999MW1611REMSYN076AAXX  23181 28952 319// 80000 10004 21007 40100 57010 76162 8802/ 333 10020;
0140289520999992000032321004+53220+063620FM-12+015699999V0201801N001019999999N9999999N1+00101-00041100931ADDAY161031AY221031GF108991081001999999021999MD1710051+9999MW1021REMSYN066AAXX  23211 28952 419// 81801 10010 21004 40093 57005 70262 8802/;
0171289520999992000032400004+53220+063620FM-12+015699999V0209999C000019999999N9999999N1+00021-00091100931ADDAY161061AY221061GF108991081001999999011999MA1999999098991MD1710011+9999MW1021REMSYN082AAXX  24001 28952 419// 80000 10002 21009 39899 40093 57001 70262 8801/ 555 1/102;
0192289520999992000032403004+53220+063620FM-12+015699999V0209999C000019999999N0200001N1+00041-00121100981ADDAA112999929AJ100249199999999GF107991071001999999071001GJ101749IA1279MD1310051+9999REMSYN098AAXX  24031 28952 /2998 70000 10004 21012 40098 53005 87070 333 43024 55029 555 20002 69902 7990/;
0162289520999992000032406004+53220+063620FM-12+015699999V0202701N002012200019N0200001N1+00101-00461101121ADDAA100000791GA1001+999999999GF100991001001999999001001KA1999N+00021MD1210151+9999REMSYN070AAXX  24061 28952 12998 02702 10010 21046 40112 52015 69900 333 20002;
0122289520999992000032409004+53220+063620FM-12+015699999V0202701N002012200019N0200001N1+00461-00461101191ADDGA1001+999999999GF100991001001999999001001MD1210081+9999REMSYN054AAXX  24091 28952 42998 02702 10046 21046 40119 52008;
0153289520999992000032412004+53220+063620FM-12+015699999V0202301N002012200019N0200001N1+00451-00441101321ADDGA1001+999999999GF100991001001999999001001MA1999999099391MD1210121+9999REMSYN070AAXX  24121 28952 42998 02302 10045 21044 39939 40132 52012 555 1/004;
0175289520999992000032415004+53220+063620FM-12+015699999V0202301N002012200019N9999999N1+00201-00231101451ADDAA199000091GA1001+999999999GF100991001001999999001001KA1999M+00461MD1210121+9999REMSYN064AAXX  24151 28952 329// 02302 10020 21023 40145 52012 333 10046;EQDQ01  00002PRCP99
0175289520999992000032418004+53220+063620FM-12+015699999V0202001N001012200019N9999999N1-00071-00221101611ADDAA199000091GA1001+999999999GF100991001001999999001001KA1999M+00461MD1210151+9999REMSYN064AAXX  24181 28952 329// 02001 11007 21022 40161 52015 333 10046;EQDQ01  00002PRCP99
0122289520999992000032421004+53220+063620FM-12+015699999V0201801N002012200019N9999999N1-00221-00311101761ADDGA1001+999999999GF100991001001999999001001MD1210121+9999REMSYN054AAXX  24211 28952 429// 01802 11022 21031 40176 52012;
0153289520999992000032500004+53220+063620FM-12+015699999V0201801N002012200019N9999999N1-00421-00471101821ADDGA1001+999999999GF100991001001999999001001MA1999999099831MD1210051+9999REMSYN070AAXX  25001 28952 429// 01802 11042 21047 39983 40182 52005 555 1/106;
0205289520999992000032503004+53220+063620FM-12+015699999V0201801N001012200019N0200001N1-00451-00541101901ADDAA199000091AJ100239199999999GF102991021001999999031001GJ105829IA1279MD1210081+9999REMSYN092AAXX  25031 28952 32998 21801 11045 21054 40190 52008 82030 333 43023 55097 555 21045 7000/;EQDQ01  00002PRCP99
0175289520999992000032506004+53220+063620FM-12+015699999V0209999C000012200019N0200001N1+00271-00241101901ADDAA199000091GA1001+999999999GF100991001001999999001001KA1999N-00451MD1210051+9999REMSYN064AAXX  25061 28952 32998 00000 10027 21024 40190 52005 333 21045;EQDQ01  00002PRCP99
0122289520999992000032509004+53220+063620FM-12+015699999V0201601N004012200019N0200001N1+00391-00131101911ADDGA1001+999999999GF100991001001999999001001MD1210011+9999REMSYN054AAXX  25091 28952 42998 01604 10039 21013 40191 52001;
0143289520999992000032512004+53220+063620FM-12+015699999V0201401N002019999999N0200001N1+00431-00081101751ADDGF106991001001999999001011MA1999999099811MD1810161+9999REMSYN076AAXX  25121 28952 42998 61402 10043 21008 39981 40175 58016 80001 555 1/003;
0165289520999992000032515004+53220+063620FM-12+015699999V0201401N002012200019N9999999N1+00181-00231101541ADDAA199000091GF102991001001999999001021KA1999M+00501MD1710211+9999REMSYN070AAXX  25151 28952 329// 21402 10018 21023 40154 57021 80002 333 10050;EQDQ01  00002PRCP99
0165289520999992000032518004+53220+063620FM-12+015699999V0200901N003010075019N9999999N1+00101-00131101301ADDAA199000091GF108991081091008001999999KA1999M+00501MD1710241+9999REMSYN070AAXX  25181 28952 325// 80903 10010 21013 40130 57024 889// 333 10050;EQDQ01  00002PRCP99
0112289520999992000032521004+53220+063620FM-12+015699999V0200901N002010075019N9999999N1+00051-00121101771ADDGF108991081091008001999999MD1710521+9999REMSYN060AAXX  25211 28952 425// 80902 10005 21012 40177 57052 889//;
0194289520999992000032600004+53220+063620FM-12+015699999V0200501N005010075019N9999999N1+00041-00241099982ADDGF108991081091008001999999MA1999999098051MD1410001+9999REMSYN076AAXX  26001 28952 425// 80505 10004 21024 39805 49998 57079 889// 555 1/000;EQDQ01+099983APOSLPQ02+000072APCTENQ03+000792APC3  
0239289520999992000032603004+53220+063620FM-12+015699999V0200201N003019999999N0020001N1-00081-00151099282ADDAA112007091AJ100279199999999AY171031AY221031GF108991081001999999021999GJ106129IA1239MD1710691+9999MW1731REMSYN104AAXX  26031 28952 /1995 80203 11008 21015 49928 57069 77372 8802/ 333 47027 55102 555 21008 60072 7007/;EQDQ01+099283APOSLP
0199289520999992000032606004+53220+063620FM-12+015699999V0203601N005019999999N0040001N1-00041-00251098901ADDAA100007191AY171061AY221061GF108991081001999999021999KA1999N-00081MD1710381+9999MW1711REMSYN082AAXX  26061 28952 11996 83605 11004 21025 49890 57063 60070 77172 8802/ 333 21008;EQDQ01+000632APC3  
0140289520999992000032609004+53220+063620FM-12+015699999V0202701N008019999999N0200001N1+00021-00151099281ADDAY171031AY221031GF108991081001999999021999MD1310371+9999MW1021REMSYN066AAXX  26091 28952 41998 82708 10002 21015 49928 53037 70272 8802/;
0171289520999992000032612004+53220+063620FM-12+015699999V0202001N007019999999N0200001N1+00241-00221099981ADDAY171061AY221061GF106991061001999999031001MA1999999098071MD1210711+9999MW1021REMSYN082AAXX  26121 28952 41998 62007 10024 21022 39807 49998 52071 70272 86030 555 1/003;
0145289520999992000032615004+53220+063620FM-12+015699999V0202001N005019999999N9999999N1+00181-00011100201ADDGF108991081001999999021999KA1120M+00241MD1210191+9999REMSYN080AAXX  26151 28952 /29// 82005 10018 21001 40020 52019 8802/ 333 10024 555 60022;
0152289520999992000032618004+53220+063620FM-12+015699999V0201801N006019999999N9999999N1+00101-00101100101ADDAA100002091GF106991061001999999031001KA1999M+00241MD1810071+9999REMSYN076AAXX  26181 28952 129// 61806 10010 21010 40010 58007 60020 86030 333 10024;
0140289520999992000032621004+53220+063620FM-12+015699999V0202301N007019999999N9999999N1+00011-00081100071ADDAY171031AY221031GF108991081001999999021999MD1710051+9999MW1711REMSYN066AAXX  26211 28952 419// 82307 10001 21008 40007 57005 77172 8802/;
0171289520999992000032700004+53220+063620FM-12+015699999V0202501N006019999999N9999999N1-00101-00171100411ADDAY171061AY221061GF108991081001999999021999MA1999999098481MD1310341+9999MW1731REMSYN082AAXX  27001 28952 419// 82506 11010 21017 39848 40041 53034 77372 8802/ 555 1/101;
0239289520999992000032703004+53220+063620FM-12+015699999V0202501N005019999999N0200001N1-00181-00641100741ADDAA112002091AJ100259199999999AY171031AY221031GF106991001001999999001011GJ100309IA1239MD1210301+9999MW1021REMSYN104AAXX  27031 28952 /1298 62505 11018 21064 40074 52030 70272 80001 333 47025 55005 555 21020 60022 7004/;EQDQ01+001502SCOLCB
0190289520999992000032706004+53220+063620FM-12+015699999V0202701N007012200019N0200001N1-00041-00731101071ADDAA100002091AY171061AY211061GA1001+999999999GF100991001001999999001001KA1999N-00201MD1210351+9999MW1011REMSYN076AAXX  27061 28952 11998 02707 11004 21073 40107 52035 60020 70171 333 21020;
0112289520999992000032709004+53220+063620FM-12+015699999V0202501N005019999999N0200001N1+00061-00761101321ADDGF105991051001999999081001MD1210241+9999REMSYN060AAXX  27091 28952 42998 52505 10006 21076 40132 52024 85080;
0143289520999992000032712004+53220+063620FM-12+015699999V0202701N004012200019N0200001N1+00051-00731101591ADDGF102991021011012501001001MA1999999099641MD1210271+9999REMSYN076AAXX  27121 28952 42698 22704 10005 21073 39964 40159 52027 82100 555 1/100;
0175289520999992000032715004+53220+063620FM-12+015699999V0202001N003012200019N9999999N1-00161-00681101801ADDAA199000091GA1001+999999999GF100991001001999999001001KA1999M+00061MD1210181+9999REMSYN064AAXX  27151 28952 329// 02003 11016 21068 40180 52018 333 10006;EQDQ01  00002PRCP99
0175289520999992000032718004+53220+063620FM-12+015699999V0202001N001012200019N9999999N1-00341-00741101961ADDAA199000091GA1001+999999999GF100991001001999999001001KA1999M+00061MD1210151+9999REMSYN064AAXX  27181 28952 329// 02001 11034 21074 40196 52015 333 10006;EQDQ01  00002PRCP99
0122289520999992000032721004+53220+063620FM-12+015699999V0209999C000012200019N9999999N1-00571-00831102191ADDGA1001+999999999GF100991001001999999001001MD1210211+9999REMSYN054AAXX  27211 28952 429// 00000 11057 21083 40219 52021;
0153289520999992000032800004+53220+063620FM-12+015699999V0209999C000012200019N9999999N1-00721-00971102441ADDGA1001+999999999GF100991001001999999001001MA1999999100421MD1210241+9999REMSYN070AAXX  28001 28952 429// 00000 11072 21097 30042 40244 52024 555 1/109;
0215289520999992000032803004+53220+063620FM-12+015699999V0202501N001012200019N0200001N1-00691-01021102731ADDAA199000091AJ100259199999999GA1001+999999999GF100991001001999999001001GJ106669IA1239MD1210291+9999REMSYN086AAXX  28031 28952 32998 02501 11069 21102 40273 52029 333 47025 55111 555 21072 7000/;EQDQ01  00002PRCP99
0175289520999992000032806004+53220+063620FM-12+015699999V0202501N001012200019N0200001N1-00201-01101102851ADDAA199000091GA1001+999999999GF100991001001999999001001KA1999N-00721MD1210141+9999REMSYN064AAXX  28061 28952 32998 02501 11020 21110 40285 52014 333 21072;EQDQ01  00002PRCP99
0122289520999992000032809004+53220+063620FM-12+015699999V0202901N003012200019N0200001N1+00061-01111102911ADDGA1001+999999999GF100991001001999999001001MD1210081+9999REMSYN054AAXX  28091 28952 42998 02903 10006 21111 40291 52008;
0153289520999992000032812004+53220+063620FM-12+015699999V0202501N003012200019N0200001N1+00081-01151102901ADDGA1001+999999999GF100991001001999999001001MA1999999100931MD1410001+9999REMSYN070AAXX  28121 28952 42998 02503 10008 21115 30093 40290 54000 555 1/001;
0175289520999992000032815004+53220+063620FM-12+015699999V0202301N001012200019N9999999N1-00261-01261102941ADDAA199000091GA1001+999999999GF100991001001999999001001KA1999M+00081MD1310011+9999REMSYN064AAXX  28151 28952 329// 02301 11026 21126 40294 53001 333 10008;EQDQ01  00002PRCP99
0175289520999992000032818004+53220+063620FM-12+015699999V0201801N001012200019N9999999N1-00701-01081102971ADDAA199000091GA1001+999999999GF100991001001999999001001KA1999M+00081MD1410001+9999REMSYN064AAXX  28181 28952 329// 01801 11070 21108 40297 54000 333 10008;EQDQ01  00002PRCP99
0143289520999992000032900004+53220+063620FM-12+015699999V0209999C000019999999N9999999N1-00721-00931102851ADDGF108991081001999999021999MA1999999100821MD1810121+9999REMSYN076AAXX  29001 28952 429// 80000 11072 21093 30082 40285 58012 8802/ 555 1/108;
0205289520999992000032903004+53220+063620FM-12+015699999V0209999C000019999999N0200001N1-00601-00871102851ADDAA199000091AJ100239199999999GF108991081001999999021999GJ107089IA1239MD1410001+9999REMSYN092AAXX  29031 28952 32998 80000 11060 21087 40285 54000 8802/ 333 47023 55118 555 21077 7000/;EQDQ01  00002PRCP99
0165289520999992000032906004+53220+063620FM-12+015699999V0202301N001019999999N0200001N1-00241-00501102721ADDAA199000091GF108991081001999999011999KA1999N-00771MD1810091+9999REMSYN070AAXX  29061 28952 32998 82301 11024 21050 40272 58009 8801/ 333 21077;EQDQ01  00002PRCP99
0153289520999992000032912004+53220+063620FM-12+015699999V0203201N002012200019N0200001N1-00131-00931102501ADDGA1001+999999999GF100991001001999999001001MA1999999100521MD1710031+9999REMSYN070AAXX  29121 28952 42998 03202 11013 21093 30052 40250 57003 555 1/002;
0175289520999992000032915004+53220+063620FM-12+015699999V0209999C000012200019N9999999N1-00351-00871102501ADDAA199000091GA1001+999999999GF100991001001999999001001KA1999M-00041MD1710021+9999REMSYN064AAXX  29151 28952 329// 00000 11035 21087 40250 57002 333 11004;EQDQ01  00002PRCP99
0175289520999992000032918004+53220+063620FM-12+015699999V0209999C000012200019N9999999N1-00621-00891102531ADDAA199000091GA1001+999999999GF100991001001999999001001KA1999M-00041MD1310011+9999REMSYN064AAXX  29181 28952 329// 00000 11062 21089 40253 53001 333 11004;EQDQ01  00002PRCP99
0122289520999992000032921004+53220+063620FM-12+015699999V0209999C000012200019N9999999N1-00731-00941102541ADDGA1001+999999999GF100991001001999999001001MD1410001+9999REMSYN054AAXX  29211 28952 429// 00000 11073 21094 40254 54000;
0153289520999992000033000004+53220+063620FM-12+015699999V0202301N001012200019N9999999N1-00881-01221102541ADDGA1001+999999999GF100991001001999999001001MA1999999100511MD1410001+9999REMSYN070AAXX  30001 28952 429// 02301 11088 21122 30051 40254 54000 555 1/112;
0215289520999992000033003004+53220+063620FM-12+015699999V0202301N001012200019N0200001N1-00941-01291102581ADDAA199000091AJ100239199999999GA1001+999999999GF100991001001999999001001GJ104629IA1279MD1310021+9999REMSYN086AAXX  30031 28952 32998 02301 11094 21129 40258 53002 333 43023 55077 555 21094 7000/;EQDQ01  00002PRCP99
0175289520999992000033006004+53220+063620FM-12+015699999V0202301N002012200019N0200001N1-00281-00941102531ADDAA199000091GA1001+999999999GF100991001001999999001001KA1999N-00941MD1210011+9999REMSYN064AAXX  30061 28952 32998 02302 11028 21094 40253 52001 333 21094;EQDQ01  00002PRCP99
0122289520999992000033009004+53220+063620FM-12+015699999V0202301N003012200019N0200001N1+00061-00801102381ADDGA1001+999999999GF100991001001999999001001MD1810131+9999REMSYN054AAXX  30091 28952 42998 02303 10006 21080 40238 58013;
0153289520999992000033012004+53220+063620FM-12+015699999V0202301N005012200019N0200001N1+00081-00761102181ADDGA1001+999999999GF100991001001999999001001MA1999999100231MD1710181+9999REMSYN070AAXX  30121 28952 42998 02305 10008 21076 30023 40218 57018 555 1/000;
0175289520999992000033015004+53220+063620FM-12+015699999V0201801N003012200019N0200001N1-00221-00941102021ADDAA199000091GA1001+999999999GF100991001001999999001001KA1999M+00101MD1710191+9999REMSYN064AAXX  30151 28952 32998 01803 11022 21094 40202 57019 333 10010;EQDQ01  00002PRCP99
0175289520999992000033018004+53220+063620FM-12+015699999V0201801N005012200019N9999999N1-00501-00911101971ADDAA199000091GA1001+999999999GF100991001001999999001001KA1999M+00101MD1710061+9999REMSYN064AAXX  30181 28952 329// 01805 11050 21091 40197 57006 333 10010;EQDQ01  00002PRCP99
0122289520999992000033021004+53220+063620FM-12+015699999V0201801N002012200019N9999999N1-00671-01041101881ADDGA1001+999999999GF100991001001999999001001MD1710111+9999REMSYN054AAXX  30211 28952 429// 01802 11067 21104 40188 57011;
0153289520999992000033100004+53220+063620FM-12+015699999V0201801N002012200019N9999999N1-00801-01211101791ADDGA1001+999999999GF100991001001999999001001MA1999999099771MD1710101+9999REMSYN070AAXX  31001 28952 429// 01802 11080 21121 39977 40179 57010 555 1/111;
0205289520999992000033103004+53220+063620FM-12+015699999V0201801N004019999999N0200001N1-00821-01101101781ADDAA199000091AJ100249199999999GF107991071001999999051999GJ107149IA1279MD1710011+9999REMSYN092AAXX  31031 28952 32998 71804 11082 21110 40178 57001 8705/ 333 43024 55119 555 21082 7000/;EQDQ01  00002PRCP99
0174289520999992000033106004+53220+063620FM-12+015699999V0202301N003019999999N0040001N1-00361-01061101701ADDAA199000021AY171061AY211061GF108991081001999999011999KA1999N-00821MD1710041+9999MW1711REMSYN076AAXX  31061 28952 31996 82303 11036 21106 40170 57004 77171 8801/ 333 21082;
0140289520999992000033109004+53220+063620FM-12+015699999V0202301N004010075019N0200001N1+00001-00451101551ADDAY171031AY221031GF107991071021008001001001MD1710121+9999MW1021REMSYN066AAXX  31091 28952 41598 72304 11000 21045 40155 57012 70272 87200;
0171289520999992000033112004+53220+063620FM-12+015699999V0202301N002012200019N0200001N1+00091-00841101481ADDAY171061AY211061GF102991021001999999031001MA1999999099541MD1710061+9999MW1011REMSYN082AAXX  31121 28952 41998 22302 10009 21084 39954 40148 57006 70171 82030 555 1/002;
0145289520999992000033115004+53220+063620FM-12+015699999V0202301N002012200019N0200001N1-00071-00711101471ADDGF102991001001999999001011KA1120M+00121MD1710021+9999REMSYN080AAXX  31151 28952 /2998 22302 11007 21071 40147 57002 80001 333 10012 555 69902;
0162289520999992000033118004+53220+063620FM-12+015699999V0202301N001012200019N9999999N1-00231-00451101491ADDAA100000791GA1001+999999999GF100991001001999999001001KA1999M+00121MD1410001+9999REMSYN070AAXX  31181 28952 129// 02301 11023 21045 40149 54000 69900 333 10012;
0112289520999992000033121004+53220+063620FM-12+015699999V0202301N001019999999N9999999N1-00281-00511101471ADDGF107991071001999999051001MD1810021+9999REMSYN060AAXX  31211 28952 429// 72301 11028 21051 40147 58002 87050;
0143289520999992000040100004+53220+063620FM-12+015699999V0202301N002019999999N9999999N1-00241-00501101481ADDGF106991061001999999051001MA1999999099511MD1310011+9999REMSYN076AAXX  01001 28952 429// 62302 11024 21050 39951 40148 53001 86050 555 1/105;
0215289520999992000040103004+53220+063620FM-12+015699999V0201801N001012200019N0200001N1-00311-00551101671ADDAA199000091AJ100239199999999GA1001+999999999GF100991001001999999001001GJ102949IA1279MD1210191+9999REMSYN086AAXX  01031 28952 32998 01801 11031 21055 40167 52019 333 43023 55049 555 21040 7990/;EQDQ01  00002PRCP99
0165289520999992000040106004+53220+063620FM-12+015699999V0202301N001012200019N0200001N1+00311-00341101841ADDAA199000091GF103991021001999999031011KA1999N-00401MD1210201+9999REMSYN070AAXX  01061 28952 32998 32301 10031 21034 40184 52020 82031 333 21040;EQDQ01  00002PRCP99
0112289520999992000040109004+53220+063620FM-12+015699999V0202701N002019999999N0200001N1+00561-00211102061ADDGF107991071001999999051001MD1210241+9999REMSYN060AAXX  01091 28952 42998 72702 10056 21021 40206 52024 87050;
0153289520999992000040112004+53220+063620FM-12+015699999V0202501N002012200019N0200001N1+00721+00001102211ADDGA1001+999999999GF100991001001999999001001MA1999999100291MD1210151+9999REMSYN070AAXX  01121 28952 42998 02502 10072 21000 30029 40221 52015 555 1/007;
0175289520999992000040115004+53220+063620FM-12+015699999V0209999C000012200019N9999999N1+00351-00151102301ADDAA199000091GA1001+999999999GF100991001001999999001001KA1999M+00721MD1210061+9999REMSYN064AAXX  01151 28952 329// 00000 10035 21015 40230 52006 333 10072;EQDQ01  00002PRCP99
0175289520999992000040118004+53220+063620FM-12+015699999V0209999C000012200019N9999999N1+00091-00201102531ADDAA199000091GA1001+999999999GF100991001001999999001001KA1999M+00721MD1210221+9999REMSYN064AAXX  01181 28952 329// 00000 10009 21020 40253 52022 333 10072;EQDQ01  00002PRCP99
0122289520999992000040121004+53220+063620FM-12+015699999V0209999C000012200019N9999999N1-00171-00431102641ADDGA1001+999999999GF100991001001999999001001MD1210081+9999REMSYN054AAXX  01211 28952 429// 00000 11017 21043 40264 52008;
0153289520999992000040200004+53220+063620FM-12+015699999V0209999C000012200019N9999999N1-00321-00561102721ADDGA1001+999999999GF100991001001999999001001MA1999999100731MD1210081+9999REMSYN070AAXX  02001 28952 429// 00000 11032 21056 30073 40272 52008 555 1/105;
0215289520999992000040203004+53220+063620FM-12+015699999V0209999C000012200019N0200001N1-00201-00411102781ADDAA199000091AJ100179199999999GA1001+999999999GF100991001001999999001001GJ106429IA1279MD1210051+9999REMSYN086AAXX  02031 28952 32998 00000 11020 21041 40278 52005 333 43017 55107 555 21032 7000/;EQDQ01  00002PRCP99
0175289520999992000040206004+53220+063620FM-12+015699999V0201601N003012200019N0200001N1+00301-00151102801ADDAA199000091GA1001+999999999GF100991001001999999001001KA1999N-00321MD1210051+9999REMSYN064AAXX  02061 28952 32998 01603 10030 21015 40280 52005 333 21032;EQDQ01  00002PRCP99
0122289520999992000040209004+53220+063620FM-12+015699999V0201801N003012200019N0200001N1+00631-00051102691ADDGA1001+999999999GF100991001001999999001001MD1810091+9999REMSYN054AAXX  02091 28952 42998 01803 10063 21005 40269 58009;
0153289520999992000040212004+53220+063620FM-12+015699999V0201801N003012200019N0200001N1+00741+00211102571ADDGA1001+999999999GF100991001001999999001001MA1999999100651MD1710101+9999REMSYN070AAXX  02121 28952 42998 01803 10074 20021 30065 40257 57010 555 1/005;
0175289520999992000040215004+53220+063620FM-12+015699999V0202001N003012200019N9999999N1+00291-00041102481ADDAA199000091GA1001+999999999GF100991001001999999001001KA1999M+00741MD1710121+9999REMSYN064AAXX  02151 28952 329// 02003 10029 21004 40248 57012 333 10074;EQDQ01  00002PRCP99
0175289520999992000040218004+53220+063620FM-12+015699999V0201801N002012200019N9999999N1+00151-00301102421ADDAA199000091GA1001+999999999GF100991001001999999001001KA1999M+00741MD1710071+9999REMSYN064AAXX  02181 28952 329// 01802 10015 21030 40242 57007 333 10074;EQDQ01  00002PRCP99
0122289520999992000040221004+53220+063620FM-12+015699999V0201801N002012200019N9999999N1-00021-00331102301ADDGA1001+999999999GF100991001001999999001001MD1710131+9999REMSYN054AAXX  02211 28952 429// 01802 11002 21033 40230 57013;
0153289520999992000040300004+53220+063620FM-12+015699999V0202301N003012200019N9999999N1-00121-00371102241ADDGA1001+999999999GF100991001001999999001001MA1999999100271MD1710061+9999REMSYN070AAXX  03001 28952 429// 02303 11012 21037 30027 40224 57006 555 1/102;
0215289520999992000040303004+53220+063620FM-12+015699999V0202301N001012200019N0200001N1+00161-00321102281ADDAA199000091AJ100119199999999GA1001+999999999GF100991001001999999001001GJ106609IA1279MD1310051+9999REMSYN086AAXX  03031 28952 32998 02301 10016 21032 40228 53005 333 43011 55110 555 21012 7000/;EQDQ01  00002PRCP99
0165289520999992000040306004+53220+063620FM-12+015699999V0202701N001019999999N0200001N1+00561-00021102371ADDAA199000091GF105991001001999999001091KA1999N-00121MD1210121+9999REMSYN070AAXX  03061 28952 32998 52701 10056 21002 40237 52012 80009 333 21012;EQDQ01  00002PRCP99
0122289520999992000040309004+53220+063620FM-12+015699999V0203201N002012200019N0200001N1+00681+00041102411ADDGA1001+999999999GF100991001001999999001001MD1210051+9999REMSYN054AAXX  03091 28952 42998 03202 10068 20004 40241 52005;
0153289520999992000040312004+53220+063620FM-12+015699999V0202701N002012200019N0200001N1+00891+00021102441ADDGA1001+999999999GF100991001001999999001001MA1999999100521MD1210031+9999REMSYN070AAXX  03121 28952 42998 02702 10089 20002 30052 40244 52003 555 1/010;
0175289520999992000040315004+53220+063620FM-12+015699999V0209999C000012200019N0200001N1+00481-00121102601ADDAA199000091GA1001+999999999GF100991001001999999001001KA1999M+00891MD1210151+9999REMSYN064AAXX  03151 28952 32998 00000 10048 21012 40260 52015 333 10089;EQDQ01  00002PRCP99
0175289520999992000040318004+53220+063620FM-12+015699999V0209999C000012200019N9999999N1+00011-00081102801ADDAA199000091GA1001+999999999GF100991001001999999001001KA1999M+00891MD1210151+9999REMSYN064AAXX  03181 28952 329// 00000 10001 21008 40280 52015 333 10089;EQDQ01  00002PRCP99
0122289520999992000040321004+53220+063620FM-12+015699999V0209999C000012200019N9999999N1-00121-00191102961ADDGA1001+999999999GF100991001001999999001001MD1210161+9999REMSYN054AAXX  03211 28952 429// 00000 11012 21019 40296 52016;
0153289520999992000040400004+53220+063620FM-12+015699999V0209999C000012200019N9999999N1-00201-00261103051ADDGA1001+999999999GF100991001001999999001001MA1999999101051MD1210071+9999REMSYN070AAXX  04001 28952 429// 00000 11020 21026 30105 40305 52007 555 1/104;
0215289520999992000040403004+53220+063620FM-12+015699999V0209999C000012200019N0200001N1-00061-00151103141ADDAA199000091AJ100049199999999GA1001+999999999GF100991001001999999001001GJ107209IA1279MD1210111+9999REMSYN086AAXX  04031 28952 32998 00000 11006 21015 40314 52011 333 43004 55120 555 21020 7000/;EQDQ01  00002PRCP99
0175289520999992000040406004+53220+063620FM-12+015699999V0201401N002012200019N0200001N1+00571+00091103171ADDAA199000091GA1001+999999999GF100991001001999999001001KA1999N-00201MD1210071+9999REMSYN064AAXX  04061 28952 32998 01402 10057 20009 40317 52007 333 21020;EQDQ01  00002PRCP99
0122289520999992000040409004+53220+063620FM-12+015699999V0201401N003012200019N0200001N1+01001+00111103151ADDGA1001+999999999GF100991001001999999001001MD1210011+9999REMSYN054AAXX  04091 28952 42998 01403 10100 20011 40315 52001;
0153289520999992000040412004+53220+063620FM-12+015699999V0201801N003012200019N0200001N1+01091+00061103041ADDGA1001+999999999GF100991001001999999001001MA1999999101141MD1810101+9999REMSYN070AAXX  04121 28952 42998 01803 10109 20006 30114 40304 58010 555 1/014;
0165289520999992000040415004+53220+063620FM-12+015699999V0201801N002012200019N0200001N1+00521+00001103041ADDAA199000091GF102991001001999999001011KA1999M+01091MD1710041+9999REMSYN070AAXX  04151 28952 32998 21802 10052 21000 40304 57004 80001 333 10109;EQDQ01  00002PRCP99
0175289520999992000040418004+53220+063620FM-12+015699999V0201601N003012200019N9999999N1+00361+00101102941ADDAA199000091GA1001+999999999GF100991001001999999001001KA1999M+01091MD1710121+9999REMSYN064AAXX  04181 28952 329// 01603 10036 20010 40294 57012 333 10109;EQDQ01  00002PRCP99
0112289520999992000040421004+53220+063620FM-12+015699999V0201801N002012200019N9999999N1+00211-00071102891ADDGF102991001001999999001011MD1710091+9999REMSYN060AAXX  04211 28952 429// 21802 10021 21007 40289 57009 80001;
0143289520999992000040500004+53220+063620FM-12+015699999V0201801N002012200019N9999999N1+00241+00001102591ADDGF103991001001999999001011MA1999999100631MD1710261+9999REMSYN076AAXX  05001 28952 429// 31802 10024 21000 30063 40259 57026 80001 555 1/001;
0221289520999992000040503004+53220+063620FM-12+015699999V0201801N002019999999N0200001N1+00361-00021102471ADDAA199000091AJ199993999999999GF107991071001999999051001GJ106609IA1259MD1710111+9999REMSYN092AAXX  05031 28952 32998 71802 10036 21002 40247 57011 87050 333 41997 55110 555 20021 7000/;EQDQ01  00002PRCP99Q02  09982SNDP  
0165289520999992000040506004+53220+063620FM-12+015699999V0201801N002019999999N0200001N1+00741+00061102281ADDAA199000091GF107991071001999999051001KA1999N+00211MD1710161+9999REMSYN070AAXX  05061 28952 32998 71802 10074 20006 40228 57016 87050 333 20021;EQDQ01  00002PRCP99
0112289520999992000040509004+53220+063620FM-12+015699999V0201401N004019999999N0200001N1+01311+00231102041ADDGF107991001001999999001021MD1710191+9999REMSYN060AAXX  05091 28952 42998 71404 10131 20023 40204 57019 80002;
0143289520999992000040512004+53220+063620FM-12+015699999V0201401N005019999999N0200001N1+01291+00271101891ADDGF107991001001999999001021MA1999999100011MD1710161+9999REMSYN076AAXX  05121 28952 42998 71405 10129 20027 30001 40189 57016 80002 555 1/014;
0165289520999992000040515004+53220+063620FM-12+015699999V0201401N005019999999N0200001N1+00871+00191101761ADDAA199000091GF107991001001999999001021KA1999M+01451MD1710141+9999REMSYN070AAXX  05151 28952 32998 71405 10087 20019 40176 57014 80002 333 10145;EQDQ01  00002PRCP99
0175289520999992000040518004+53220+063620FM-12+015699999V0201401N004012200019N9999999N1+00591+00251101641ADDAA199000091GA1001+999999999GF100991001001999999001001KA1999M+01451MD1710141+9999REMSYN064AAXX  05181 28952 329// 01404 10059 20025 40164 57014 333 10145;EQDQ01  00002PRCP99
0112289520999992000040521004+53220+063620FM-12+015699999V0201401N002019999999N9999999N1+00471+00191101561ADDGF108991081001999999021999MD1710081+9999REMSYN060AAXX  05211 28952 429// 81402 10047 20019 40156 57008 8802/;
0143289520999992000040600004+53220+063620FM-12+015699999V0209999C000019999999N9999999N1+00201-00081101531ADDGF106991061001999999031001MA1999999099591MD1710061+9999REMSYN076AAXX  06001 28952 429// 60000 10020 21008 39959 40153 57006 86030 555 1/000;
0192289520999992000040603004+53220+063620FM-12+015699999V0209999C000019999999N0200001N1+00221-00121101571ADDAA199000091GF106991999001999999031001GJ103609MD1310041+9999REMSYN086AAXX  06031 28952 32998 60000 10022 21012 40157 53004 81030 333 55060 555 20020 7000/;EQDQ01+000012SCOTLCQ02  00002PRCP99
0165289520999992000040606004+53220+063620FM-12+015699999V0200501N002019999999N0200001N1+00981+00191101591ADDAA199000091GF106991001001999999001021KA1999N+00201MD1210081+9999REMSYN070AAXX  06061 28952 32998 60502 10098 20019 40159 52008 80002 333 20020;EQDQ01  00002PRCP99
0112289520999992000040609004+53220+063620FM-12+015699999V0200501N007019999999N0200001N1+01131-00071101681ADDGF107991061001999999051021MD1210091+9999REMSYN060AAXX  06091 28952 42998 70507 10113 21007 40168 52009 86052;
0143289520999992000040612004+53220+063620FM-12+015699999V0200501N007019999999N0200001N1+01301+00001101751ADDGF107991001001999999001021MA1999999099881MD1210081+9999REMSYN076AAXX  06121 28952 42998 70507 10130 20000 39988 40175 52008 80002 555 1/015;
0165289520999992000040615004+53220+063620FM-12+015699999V0200201N007012200019N0200001N1+00811-00071101851ADDAA199000091GF102991001001999999001011KA1999M+01301MD1210061+9999REMSYN070AAXX  06151 28952 32998 20207 10081 21007 40185 52006 80001 333 10130;EQDQ01  00002PRCP99
0165289520999992000040618004+53220+063620FM-12+015699999V0200201N007019999999N9999999N1+00391+00331102081ADDAA199000091GF108991081001999999021999KA1999M+01301MD1210201+9999REMSYN070AAXX  06181 28952 329// 80207 10039 20033 40208 52020 8802/ 333 10130;EQDQ01  00002PRCP99
0106289520999992000040621004+53220+063620FM-12+015699999V0200501N007012200019N9999999N1+00371+00221999999ADDGF103991031001999999031001MD1810011+9999REMSYN054AAXX  06211 28952 429// 30507 10037 20022 58001 83030;
0143289520999992000040700004+53220+063620FM-12+015699999V0200501N007019999999N9999999N1+00251+00041102071ADDGF105991051001999999031001MA1999999100131MD1410001+9999REMSYN076AAXX  07001 28952 429// 50507 10025 20004 30013 40207 54000 85030 555 1/001;
0176289520999992000040703004+53220+063620FM-12+015699999V0200501N006019999999N0200001N1+00311+00131102101ADDAA199000091GF108991081091999999999999GJ104569MD1310031+9999REMSYN086AAXX  07031 28952 32998 80506 10031 20013 40210 53003 889// 333 55076 555 20025 70003;EQDQ01  00002PRCP99
0165289520999992000040706004+53220+063620FM-12+015699999V0200901N008019999999N0200001N1+00751+00211102111ADDAA199000091GF107991071091999999001001KA1999N+00251MD1210041+9999REMSYN070AAXX  07061 28952 32998 70908 10075 20021 40211 52004 87900 333 20025;EQDQ01  00002PRCP99
0112289520999992000040709004+53220+063620FM-12+015699999V0200901N008010075019N0200001N1+01251+00211102061ADDGF105991051091008001001011MD1810011+9999REMSYN060AAXX  07091 28952 42598 50908 10125 20021 40206 58001 85901;
0143289520999992000040712004+53220+063620FM-12+015699999V0200901N005010075019N0200001N1+01391+00461101951ADDGF106991061091008001001001MA1999999100061MD1710131+9999REMSYN076AAXX  07121 28952 42598 60905 10139 20046 30006 40195 57013 86900 555 1/017;
0165289520999992000040715004+53220+063620FM-12+015699999V0200901N005010075019N0200001N1+01041+00151102021ADDAA199000091GF107991071091008001001001KA1999M+01391MD1310081+9999REMSYN070AAXX  07151 28952 32598 70905 10104 20015 40202 53008 87900 333 10139;EQDQ01  00002PRCP99
0174289520999992000040718004+53220+063620FM-12+015699999V0200901N005010075019N9999999N1+00581+00211102011ADDAA199000021AY181061AY221061GF108991081091008001999999KA1999M+01391MD1810051+9999MW1801REMSYN076AAXX  07181 28952 315// 80905 10058 20021 40201 58005 78082 889// 333 10139;
0140289520999992000040721004+53220+063620FM-12+015699999V0200701N006010075019N9999999N1+00481+00211101811ADDAY181031AY221031GF108991081091008001999999MD1210201+9999MW1021REMSYN066AAXX  07211 28952 415// 80706 10048 20021 40181 52020 70282 889//;
0171289520999992000040800004+53220+063620FM-12+015699999V0200901N006010075019N9999999N1+00431+00281101721ADDAY181061AY281061GF108991081091008001999999MA1999999099791MD1210101+9999MW1801REMSYN082AAXX  08001 28952 415// 80906 10043 20028 39979 40172 52010 78088 889// 555 1/040;
0172289520999992000040803004+53220+063620FM-12+015699999V0200701N005010075019N0200001N1+00491+00351101551ADDAY181031AY221031GF107991071091008001001001MD1210151+9999MW1021REMSYN098AAXX  08031 28952 /1598 70705 10049 20035 40155 52015 70282 87900 333 55049 555 20043 60122 7012/;
0180289520999992000040806004+53220+063620FM-12+015699999V0202301N005010075019N0200001N1+01071+00501101331ADDAA100011991AY181061AY221061GF106991061061008001001001KA1999N+00431MD1710181+9999MW1021REMSYN082AAXX  08061 28952 11598 62305 10107 20050 40133 57018 60120 70282 86600 333 20043;
0112289520999992000040809004+53220+063620FM-12+015699999V0201101N003010075019N0200001N1+01511+00431101101ADDGF106991061091008001001001MD1710211+9999REMSYN060AAXX  08091 28952 42598 61103 10151 20043 40110 57021 86900;
0143289520999992000040812004+53220+063620FM-12+015699999V0201801N005010075019N0200001N1+01071+00171101161ADDGF107991071091008001001001MA1999999099291MD1310041+9999REMSYN076AAXX  08121 28952 42598 71805 10107 20017 39929 40116 53004 87900 555 1/014;
0165289520999992000040815004+53220+063620FM-12+015699999V0202001N001010075019N0200001N1+00811+00151101191ADDAA199000091GF106991061091008001001001KA1999M+01511MD1410001+9999REMSYN070AAXX  08151 28952 32598 62001 10081 20015 40119 54000 86900 333 10151;EQDQ01  00002PRCP99
0209289520999992000040818004+53220+063620FM-12+015699999V0209999C000019999999N9999999N1+00601+00311101141ADDAA199000091AY181061AY221061GF107991999091008001999999KA1999M+01511MD1810051+9999MW1021REMSYN076AAXX  08181 28952 315// 70000 10060 20031 40114 58005 70282 889// 333 10151;EQDQ01+000082SCOTLCQ02  00002PRCP99
0112289520999992000040821004+53220+063620FM-12+015699999V0202701N001010075019N9999999N1+00411+00291101231ADDGF108991081091008001999999MD1310051+9999REMSYN060AAXX  08211 28952 425// 82701 10041 20029 40123 53005 889//;
0143289520999992000040900004+53220+063620FM-12+015699999V0202701N001010075019N9999999N1+00361+00231101221ADDGF108991081091008001999999MA1999999099291MD1410001+9999REMSYN076AAXX  09001 28952 425// 82701 10036 20023 39929 40122 54000 889// 555 1/003;
0144289520999992000040903004+53220+063620FM-12+015699999V0202701N004010075019N0200001N1+00291+00131101321ADDGF108991081091008001999999MD1310101+9999REMSYN092AAXX  09031 28952 /2598 82704 10029 20013 40132 53010 889// 333 55092 555 20029 69902 7990/;
0152289520999992000040906004+53220+063620FM-12+015699999V0203201N004012200019N0200001N1+00701+00271101491ADDAA100000791GF101991011011012501001001KA1999N+00291MD1210201+9999REMSYN076AAXX  09061 28952 12698 13204 10070 20027 40149 52020 69900 81100 333 20029;
0122289520999992000040909004+53220+063620FM-12+015699999V0203201N003012200019N0200001N1+01191+00451101661ADDGA1001+999999999GF100991001001999999001001MD1210191+9999REMSYN054AAXX  09091 28952 42998 03203 10119 20045 40166 52019;
0153289520999992000040912004+53220+063620FM-12+015699999V0203201N004012200019N0200001N1+01211+00581101791ADDGA1001+999999999GF100991001001999999001001MA1999999099911MD1210131+9999REMSYN070AAXX  09121 28952 42998 03204 10121 20058 39991 40179 52013 555 1/019;
0175289520999992000040915004+53220+063620FM-12+015699999V0209999C000012200019N0200001N1+00871+00191101981ADDAA199000091GA1001+999999999GF100991001001999999001001KA1999M+01251MD1210181+9999REMSYN064AAXX  09151 28952 32998 00000 10087 20019 40198 52018 333 10125;EQDQ01  00002PRCP99
0175289520999992000040918004+53220+063620FM-12+015699999V0209999C000012200019N0000001N1+00501+00201102231ADDAA199000091GA1001+999999999GF100991001001999999001001KA1999M+01251MD1210211+9999REMSYN064AAXX  09181 28952 32900 00000 10050 20020 40223 52021 333 10125;EQDQ01  00002PRCP99
0112289520999992000040921004+53220+063620FM-12+015699999V0203601N002010075019N9999999N1+00301+00141102451ADDGF106991061051008001001001MD1210201+9999REMSYN060AAXX  09211 28952 425// 63602 10030 20014 40245 52020 86500;
0143289520999992000041000004+53220+063620FM-12+015699999V0203601N006010075019N9999999N1+00201-00141102731ADDGF107991071051008001999999MA1999999100761MD1210261+9999REMSYN076AAXX  10001 28952 425// 73606 10020 21014 30076 40273 52026 875// 555 1/000;
0176289520999992000041003004+53220+063620FM-12+015699999V0200501N004010075019N0200001N1+00081-00311102921ADDAA199000091GF108991081091008001999999GJ105709MD1210191+9999REMSYN086AAXX  10031 28952 32598 80504 10008 21031 40292 52019 889// 333 55095 555 20008 7000/;EQDQ01  00002PRCP99
0165289520999992000041006004+53220+063620FM-12+015699999V0200501N004010075019N0200001N1+00161-00321103121ADDAA199000091GF108991081091008001999999KA1999N+00081MD1210201+9999REMSYN070AAXX  10061 28952 32598 80504 10016 21032 40312 52020 889// 333 20008;EQDQ01  00002PRCP99
0112289520999992000041009004+53220+063620FM-12+015699999V0200501N004010075019N0200001N1+00531-00251103091ADDGF106991061091008001001001MD1410001+9999REMSYN060AAXX  10091 28952 42598 60504 10053 21025 40309 54000 86900;
0143289520999992000041012004+53220+063620FM-12+015699999V0200501N004012200019N0200001N1+00671-00161102991ADDGF102991021011012501001001MA1999999101061MD1810091+9999REMSYN076AAXX  10121 28952 42698 20504 10067 21016 30106 40299 58009 82100 555 1/013;
0175289520999992000041015004+53220+063620FM-12+015699999V0209999C000012200019N0200001N1+00381-00181103021ADDAA199000091GA1001+999999999GF100991001001999999001001KA1999M+00681MD1410001+9999REMSYN064AAXX  10151 28952 32998 00000 10038 21018 40302 54000 333 10068;EQDQ01  00002PRCP99
0165289520999992000041018004+53220+063620FM-12+015699999V0209999C000012200019N9999999N1+00021-00251102971ADDAA199000091GF102991001001999999001011KA1999M+00681MD1810071+9999REMSYN070AAXX  10181 28952 329// 20000 10002 21025 40297 58007 80001 333 10068;EQDQ01  00002PRCP99
0122289520999992000041021004+53220+063620FM-12+015699999V0209999C000012200019N9999999N1-00141-00371102971ADDGA1001+999999999GF100991001001999999001001MD1410001+9999REMSYN054AAXX  10211 28952 429// 00000 11014 21037 40297 54000;
0143289520999992000041100004+53220+063620FM-12+015699999V0200901N004019999999N9999999N1-00031-00181102881ADDGF107991071001999999051999MA1999999100901MD1810091+9999REMSYN076AAXX  11001 28952 429// 70904 11003 21018 30090 40288 58009 8705/ 555 1/102;
0176289520999992000041103004+53220+063620FM-12+015699999V0201101N003012200019N0200001N1+00021-00191102791ADDAA199000091GF102991021011012501001011GJ103189MD1710091+9999REMSYN086AAXX  11031 28952 32698 21103 10002 21019 40279 57009 82101 333 55053 555 21014 7000/;EQDQ01  00002PRCP99
0165289520999992000041106004+53220+063620FM-12+015699999V0200901N005012200019N0200001N1+00611-00081102541ADDAA199000091GF102991021001999999041001KA1999N-00141MD1710181+9999REMSYN070AAXX  11061 28952 32998 20905 10061 21008 40254 57018 82040 333 21014;EQDQ01  00002PRCP99
0112289520999992000041109004+53220+063620FM-12+015699999V0201101N008019999999N0200001N1+01191-00601102361ADDGF106991001001999999001021MD1710141+9999REMSYN060AAXX  11091 28952 42998 61108 10119 21060 40236 57014 80002;
0143289520999992000041112004+53220+063620FM-12+015699999V0201101N007010075019N0200001N1+01111-00471102091ADDGF108991081091008001999999MA1999999100211MD1710261+9999REMSYN076AAXX  11121 28952 42598 81107 10111 21047 30021 40209 57026 889// 555 1/012;
0173289520999992000041115004+53220+063620FM-12+015699999V0200901N005010075019N0100001N1+00751+00111101921ADDAY181031AY221031GF108991081091008001999999KA1120M+01251MD1710201+9999MW1801REMSYN086AAXX  11151 28952 /1597 80905 10075 20011 40192 57020 78082 889// 333 10125 555 69962;
0180289520999992000041118004+53220+063620FM-12+015699999V0200901N004010075019N9999999N1+00611+00271101681ADDAA100000591AY181061AY221061GF108991081091008001999999KA1999M+01251MD1710251+9999MW1251REMSYN082AAXX  11181 28952 115// 80904 10061 20027 40168 57025 69960 72582 889// 333 10125;
0112289520999992000041121004+53220+063620FM-12+015699999V0200901N005010075019N9999999N1+00651+00341101441ADDGF108991081091008001999999MD1710221+9999REMSYN060AAXX  11211 28952 425// 80905 10065 20034 40144 57022 889//;
0171289520999992000041200004+53220+063620FM-12+015699999V0201101N006010075019N9999999N1+00531+00441101141ADDAY181061AY221061GF108991081091008001999999MA1999999099241MD1710301+9999MW1801REMSYN082AAXX  12001 28952 415// 81106 10053 20044 39924 40114 57030 78082 889// 555 1/005;
0178289520999992000041203004+53220+063620FM-12+015699999V0201401N008010075019N0100001N1+00511+00391101031ADDAY181031AY281031GF108991081091008001999999MD1710111+9999MW1801REMSYN104AAXX  12031 28952 /1597 81408 10051 20039 40103 57011 78088 889// 333 55090 555 20051 32005 60122 7013/;
0199289520999992000041206004+53220+063620FM-12+015699999V0201401N005010075019N0200001N1+00671+00441100831ADDAA100999999AY181061AY221061GF108991081091008001999999KA1999N+00511MD1710191+9999MW1021REMSYN082AAXX  12061 28952 11598 81405 10067 20044 40083 57019 66120 70282 889// 333 20051;EQDQ01  61192PRCP00
0112289520999992000041209004+53220+063620FM-12+015699999V0201401N005010075019N0200001N1+01081+00641100801ADDGF106991061091008001001001MD1410001+9999REMSYN060AAXX  12091 28952 42598 61405 10108 20064 40080 54000 86900;
0171289520999992000041212004+53220+063620FM-12+015699999V0201401N004010075019N0200001N1+01531+00701100641ADDAY181061AY221061GF107991071091008001001001MA1999999098801MD1810141+9999MW1021REMSYN082AAXX  12121 28952 41598 71404 10153 20070 39880 40064 58014 70282 87900 555 1/016;
0173289520999992000041215004+53220+063620FM-12+015699999V0209999C000010075019N0200001N1+00991+00931100641ADDAY181031AY221031GF108991081091008001999999KA1120M+01531MD1710021+9999MW1021REMSYN086AAXX  12151 28952 /1598 80000 10099 20093 40064 57002 70282 889// 333 10153 555 60032;
0180289520999992000041218004+53220+063620FM-12+015699999V0209999C000010075019N9999999N1+00911+00711100641ADDAA100003091AY181061AY221061GF108991081091008001999999KA1999M+01531MD1710021+9999MW1021REMSYN082AAXX  12181 28952 115// 80000 10091 20071 40064 57002 60030 70282 889// 333 10153;
0140289520999992000041221004+53220+063620FM-12+015699999V0209999C000010075019N9999999N1+00811+00731100591ADDAY181031AY221031GF108991081091008001999999MD1710041+9999MW1801REMSYN066AAXX  12211 28952 415// 80000 10081 20073 40059 57004 78082 889//;
0171289520999992000041300004+53220+063620FM-12+015699999V0201601N003010075019N9999999N1+00761+00701100501ADDAY181061AY221061GF108991081091008001999999MA1999999098621MD1710101+9999MW1801REMSYN082AAXX  13001 28952 415// 81603 10076 20070 39862 40050 57010 78082 889// 555 1/007;
0178289520999992000041303004+53220+063620FM-12+015699999V0201801N003010075019N0200001N1+00821+00641100451ADDAY181031AY221031GF108991081091008001999999MD1710041+9999MW1021REMSYN104AAXX  13031 28952 /1598 81803 10082 20064 40045 57004 70282 889// 333 55028 555 20076 32007 60032 7001/;
0180289520999992000041306004+53220+063620FM-12+015699999V0201801N003010075019N0100001N1+00891+00651100451ADDAA100001091AY181061AY221061GF108991081091008001999999KA1999N+00761MD1410001+9999MW1801REMSYN082AAXX  13061 28952 11597 81803 10089 20065 40045 54000 60010 78082 889// 333 20076;
0140289520999992000041309004+53220+063620FM-12+015699999V0201601N003010075019N0200001N1+01141+00531100391ADDAY181031AY221031GF107991071091008001001001MD1810041+9999MW1021REMSYN066AAXX  13091 28952 41598 71603 10114 20053 40039 58004 70282 87900;
0171289520999992000041312004+53220+063620FM-12+015699999V0202001N004010075019N0100001N1+00881+00621100411ADDAY181061AY221061GF108991081091008001999999MA1999999098541MD1410001+9999MW1801REMSYN082AAXX  13121 28952 41597 82004 10088 20062 39854 40041 54000 78082 889// 555 1/010;
0173289520999992000041315004+53220+063620FM-12+015699999V0201801N001010075019N0200001N1+00871+00611100391ADDAY181031AY221031GF106991061051008001001001KA1120M+01271MD1810021+9999MW1021REMSYN086AAXX  13151 28952 /1598 61801 10087 20061 40039 58002 70282 86500 333 10127 555 60012;
0180289520999992000041318004+53220+063620FM-12+015699999V0201801N002010075019N9999999N1+00791+00561100401ADDAA100001091AY181061AY221061GF108991081091008001999999KA1999M+01271MD1410001+9999MW1021REMSYN082AAXX  13181 28952 115// 81802 10079 20056 40040 54000 60010 70282 889// 333 10127;
0112289520999992000041321004+53220+063620FM-12+015699999V0202001N001010075019N9999999N1+00721+00511100431ADDGF108991081091008001999999MD1310031+9999REMSYN060AAXX  13211 28952 425// 82001 10072 20051 40043 53003 889//;
0149289520999992000041400004+53220+063620FM-12+015699999V0202001N001019999999N9999999N1+00621+00511100481ADDGF108991999999008001999999MA1999999098601MD1210051+9999MW1891REMSYN076AAXX  14001 28952 415// 82001 10062 20051 39860 40048 52005 789// 555 1/006;
0178289520999992000041403004+53220+063620FM-12+015699999V0202901N002010075019N0200001N1+00441+00341100701ADDAY181031AY221031GF108991081091008001999999MD1210201+9999MW1021REMSYN104AAXX  14031 28952 /1598 82902 10044 20034 40070 52020 70282 889// 333 55015 555 20044 32005 69942 7002/;
0180289520999992000041406004+53220+063620FM-12+015699999V0202901N003010075019N0200001N1+00471+00301100911ADDAA100000591AY181061AY221061GF108991081091008001999999KA1999N+00441MD1210211+9999MW1021REMSYN082AAXX  14061 28952 11598 82903 10047 20030 40091 52021 69940 70282 889// 333 20044;
0112289520999992000041409004+53220+063620FM-12+015699999V0202701N005010075019N0200001N1+00531+00231101051ADDGF108991081091008001999999MD1210141+9999REMSYN060AAXX  14091 28952 42598 82705 10053 20023 40105 52014 889//;
0165289520999992000041415004+53220+063620FM-12+015699999V0203201N001010075019N0200001N1+00591+00191101251ADDAA199000091GF106991061051008001001001KA1999M+00631MD1210121+9999REMSYN070AAXX  14151 28952 32598 63201 10059 20019 40125 52012 86500 333 10063;EQDQ01  00002PRCP99
0165289520999992000041418004+53220+063620FM-12+015699999V0203201N001010075019N9999999N1+00541+00191101491ADDAA199000091GF108991081091008001999999KA1999M+00631MD1210241+9999REMSYN070AAXX  14181 28952 325// 83201 10054 20019 40149 52024 889// 333 10063;EQDQ01  00002PRCP99
0131289520999992000041421004+53220+063620FM-12+015699999V0203201N001012200019N9999999N1+00991+00151101481ADDGF102991999091008001999999MD1810011+9999REMSYN060AAXX  14211 28952 425// 23201 10099 20015 40148 58001 889//;EQDQ01+000082SCOTLC
0143289520999992000041500004+53220+063620FM-12+015699999V0202701N002010075019N9999999N1+00511+00211101551ADDGF108991081091008001999999MA1999999099641MD1310071+9999REMSYN076AAXX  15001 28952 425// 82702 10051 20021 39964 40155 53007 889// 555 1/005;
0200289520999992000041503004+53220+063620FM-12+015699999V0202701N003010075019N0200001N1+00591+00141101771ADDAA199000091GF105991051091008001001001GJ100009IA1119IA2999+00409MD1210211+9999REMSYN092AAXX  15031 28952 32598 52703 10059 20014 40177 52021 85900 333 55000 555 15049 32004 7000/;EQDQ01  00002PRCP99
0165289520999992000041506004+53220+063620FM-12+015699999V0203201N006010075019N0200001N1+00991+00191101861ADDAA199000091GF106991061051008001001001KA1999N+00491MD1210121+9999REMSYN070AAXX  15061 28952 32598 63206 10099 20019 40186 52012 86500 333 20049;EQDQ01  00002PRCP99
0112289520999992000041509004+53220+063620FM-12+015699999V0203201N007010120019N0200001N1+01191+00151101891ADDGF106991061021012501001001MD1210041+9999REMSYN060AAXX  15091 28952 42698 63207 10119 20015 40189 52004 86200;
0143289520999992000041512004+53220+063620FM-12+015699999V0203201N006012200019N0200001N1+01291+00151101921ADDGF102991021011012501001001MA1999999100051MD1210041+9999REMSYN076AAXX  15121 28952 42698 23206 10129 20015 30005 40192 52004 82100 555 1/019;
0175289520999992000041515004+53220+063620FM-12+015699999V0203201N003012200019N0200001N1+01091+00251102041ADDAA199000091GA1001+999999999GF100991001001999999001001KA1999M+01291MD1210111+9999REMSYN064AAXX  15151 28952 32998 03203 10109 20025 40204 52011 333 10129;EQDQ01  00002PRCP99
0175289520999992000041518004+53220+063620FM-12+015699999V0203201N004012200019N9999999N1+00501+00151102291ADDAA199000091GA1001+999999999GF100991001001999999001001KA1999M+01291MD1210201+9999REMSYN064AAXX  15181 28952 329// 03204 10050 20015 40229 52020 333 10129;EQDQ01  00002PRCP99
0122289520999992000041521004+53220+063620FM-12+015699999V0203201N004012200019N9999999N1+00231-00101102351ADDGA1001+999999999GF100991001001999999001001MD1210031+9999REMSYN054AAXX  15211 28952 429// 03204 10023 21010 40235 52003;
0153289520999992000041600004+53220+063620FM-12+015699999V0203201N001012200019N9999999N1+00091-00171102501ADDGA1001+999999999GF100991001001999999001001MA1999999100541MD1210151+9999REMSYN070AAXX  16001 28952 429// 03201 10009 21017 30054 40250 52015 555 1/000;
0210289520999992000041603004+53220+063620FM-12+015699999V0209999C000012200019N0200001N1+00401+00121102621ADDAA199000091GA1001+999999999GF100991001001999999001001GJ103969IA1099IA2999+00009MD1210131+9999REMSYN086AAXX  16031 28952 32998 00000 10040 20012 40262 52013 333 55066 555 20009 31000 7000/;EQDQ01  00002PRCP99
0175289520999992000041606004+53220+063620FM-12+015699999V0209999C000012200019N0200001N1+01331+00271102671ADDAA199000091GA1001+999999999GF100991001001999999001001KA1999N+00091MD1210111+9999REMSYN064AAXX  16061 28952 32998 00000 10133 20027 40267 52011 333 20009;EQDQ01  00002PRCP99
0112289520999992000041609004+53220+063620FM-12+015699999V0202701N002012200019N0200001N1+01741-00021102571ADDGF101991011011012501001001MD1810061+9999REMSYN060AAXX  16091 28952 42698 12702 10174 21002 40257 58006 81100;
0153289520999992000041612004+53220+063620FM-12+015699999V0209999C000012200019N0200001N1+01801-00091102521ADDGA1001+999999999GF100991001001999999001001MA1999999100671MD1710051+9999REMSYN070AAXX  16121 28952 42998 00000 10180 21009 30067 40252 57005 555 1/030;
0175289520999992000041615004+53220+063620FM-12+015699999V0209999C000012200019N0200001N1+01311+00461102521ADDAA199000091GA1001+999999999GF100991001001999999001001KA1999M+01801MD1710031+9999REMSYN064AAXX  16151 28952 32998 00000 10131 20046 40252 57003 333 10180;EQDQ01  00002PRCP99
0175289520999992000041618004+53220+063620FM-12+015699999V0209999C000012200019N9999999N1+00891+00251102551ADDAA199000091GA1001+999999999GF100991001001999999001001KA1999M+01801MD1310011+9999REMSYN064AAXX  16181 28952 329// 00000 10089 20025 40255 53001 333 10180;EQDQ01  00002PRCP99
0122289520999992000041621004+53220+063620FM-12+015699999V0209999C000012200019N9999999N1+00661+00171102591ADDGA1001+999999999GF100991001001999999001001MD1210021+9999REMSYN054AAXX  16211 28952 429// 00000 10066 20017 40259 52002;
0153289520999992000041700004+53220+063620FM-12+015699999V0209999C000012200019N9999999N1+00531+00121102661ADDGA1001+999999999GF100991001001999999001001MA1999999100731MD1210061+9999REMSYN070AAXX  17001 28952 429// 00000 10053 20012 30073 40266 52006 555 1/002;
0210289520999992000041703004+53220+063620FM-12+015699999V0209999C000012200019N0200001N1+00771+00151102751ADDAA199000091GA1001+999999999GF100991001001999999001001GJ107329IA1099IA2999+00109MD1210091+9999REMSYN086AAXX  17031 28952 32998 00000 10077 20015 40275 52009 333 55122 555 20049 31001 7000/;EQDQ01  00002PRCP99
0175289520999992000041706004+53220+063620FM-12+015699999V0209999C000012200019N0200001N1+01721+00561102711ADDAA199000091GA1001+999999999GF100991001001999999001001KA1999N+00491MD1210031+9999REMSYN064AAXX  17061 28952 32998 00000 10172 20056 40271 52003 333 20049;EQDQ01  00002PRCP99
0122289520999992000041709004+53220+063620FM-12+015699999V0202701N002012200019N0200001N1+01991-00071102611ADDGA1001+999999999GF100991001001999999001001MD1810091+9999REMSYN054AAXX  17091 28952 42998 02702 10199 21007 40261 58009;
0153289520999992000041712004+53220+063620FM-12+015699999V0202501N001012200019N0200001N1+02031-00021102501ADDGA1001+999999999GF100991001001999999001001MA1999999100661MD1710101+9999REMSYN070AAXX  17121 28952 42998 02501 10203 21002 30066 40250 57010 555 1/031;
0152289520999992000041715004+53220+063620FM-12+015699999V0202001N001012200019N0200001N1+01701+00091102461ADDAA199000091GA1001+999999999GF100991001001999999001001MD1710051+9999REMSYN054AAXX  17151 28952 32998 02001 10170 20009 40246 57005;EQDQ01  00002PRCP99
0175289520999992000041718004+53220+063620FM-12+015699999V0202001N001012200019N9999999N1+01021+00271102531ADDAA199000091GA1001+999999999GF100991001001999999001001KA1999M+02041MD1310021+9999REMSYN064AAXX  17181 28952 329// 02001 10102 20027 40253 53002 333 10204;EQDQ01  00002PRCP99
0122289520999992000041721004+53220+063620FM-12+015699999V0209999C000012200019N9999999N1+00731+00321102551ADDGA1001+999999999GF100991001001999999001001MD1410001+9999REMSYN054AAXX  17211 28952 429// 00000 10073 20032 40255 54000;
0143289520999992000041800004+53220+063620FM-12+015699999V0202001N001010075019N9999999N1+00691+00461102531ADDGF107991071051008001001001MA1999999100511MD1810021+9999REMSYN076AAXX  18001 28952 425// 72001 10069 20046 30051 40253 58002 87500 555 1/003;
0200289520999992000041803004+53220+063620FM-12+015699999V0201801N002010075019N0200001N1+00891+00431102531ADDAA199000091GF106991061051008001001001GJ107749IA1099IA2999+00209MD1310021+9999REMSYN092AAXX  18031 28952 32598 61802 10089 20043 40253 53002 86500 333 55129 555 20068 31002 7000/;EQDQ01  00002PRCP99
0165289520999992000041806004+53220+063620FM-12+015699999V0209999C000010075019N0200001N1+01531+00621102511ADDAA199000091GF106991061051008001001001KA1999N+00681MD1210021+9999REMSYN070AAXX  18061 28952 32598 60000 10153 20062 40251 52002 86500 333 20068;EQDQ01  00002PRCP99
0112289520999992000041809004+53220+063620FM-12+015699999V0209999C000010075019N0200001N1+01891+00361102491ADDGF107991071091008001001001MD1410001+9999REMSYN060AAXX  18091 28952 42598 70000 10189 20036 40249 54000 87900;
0142289520999992000041812004+53220+063620FM-12+015699999V0202701N001010300019N0200001N1+02101+00461102401ADDGF107991031021012501051001MA1999999100571MD1810081+9999REMSYN075AAXX  18121 28952 42698 72701 10210 20046 30057 40240 58008 83250 55 1/029;
0165289520999992000041815004+53220+063620FM-12+015699999V0209999C000019999999N0200001N1+01671+00441102421ADDAA199000091GF107991071001999999041001KA1999M+02101MD1410001+9999REMSYN070AAXX  18151 28952 32998 70000 10167 20044 40242 54000 87040 333 10210;EQDQ01  00002PRCP99
0165289520999992000041818004+53220+063620FM-12+015699999V0202701N002019999999N9999999N1+01221+00431102511ADDAA199000091GF107991071001999999051001KA1999M+02101MD1310061+9999REMSYN070AAXX  18181 28952 329// 72702 10122 20043 40251 53006 87050 333 10210;EQDQ01  00002PRCP99
0112289520999992000041821004+53220+063620FM-12+015699999V0202701N003010075019N9999999N1+01041+00481102481ADDGF107991071091008001001001MD1810041+9999REMSYN060AAXX  18211 28952 425// 72703 10104 20048 40248 58004 87900;
0143289520999992000041900004+53220+063620FM-12+015699999V0201101N002010075019N9999999N1+01151+00511102491ADDGF107991071091008001001001MA1999999100001MD1310011+9999REMSYN076AAXX  19001 28952 425// 71102 10115 20051 30000 40249 53001 87900 555 1/008;
0200289520999992000041903004+53220+063620FM-12+015699999V0200901N002019999999N0200001N1+01071+00361102621ADDAA199000091GF106991031001999999081011GJ103129IA1099IA2999+00809MD1210131+9999REMSYN092AAXX  19031 28952 32998 60902 10107 20036 40262 52013 83081 333 55052 555 20104 31008 7000/;EQDQ01  00002PRCP99
0165289520999992000041906004+53220+063620FM-12+015699999V0209999C000012200019N0200001N1+02001+00431102541ADDAA199000091GF102991001001999999001011KA1999N+01041MD1810031+9999REMSYN070AAXX  19061 28952 32998 20000 10200 20043 40254 58003 80001 333 20104;EQDQ01  00002PRCP99
0112289520999992000041909004+53220+063620FM-12+015699999V0200901N004010075019N0200001N1+02161+00041102441ADDGF106991061021008001001001MD1710091+9999REMSYN060AAXX  19091 28952 42598 60904 10216 20004 40244 57009 86200;
0137289520999992000041912004+53220+063620FM-12+015699999V0200501N002019999999N0200001N1+02321+00171102261ADDGF106991999999008001999999MA1999999100451MD1710161+9999REMSYN070AAXX  19121 28952 42598 60502 10232 20017 30045 40226 57016 555 1/031;
0181289520999992000041915004+53220+063620FM-12+015699999V0200501N002019999999N0200001N1+01861+00501102211ADDAA199000091GF107991999051008001001001KA1999M+02341MD1710081+9999REMSYN070AAXX  19151 28952 32598 70502 10186 20050 40221 57008 82500 333 10234;EQDQ01+000022SCOTLCQ02  00002PRCP99
0165289520999992000041918004+53220+063620FM-12+015699999V0200701N003019999999N9999999N1+01601+00341102181ADDAA199000091GF106991001001999999001011KA1999M+02341MD1710051+9999REMSYN070AAXX  19181 28952 329// 60703 10160 20034 40218 57005 80001 333 10234;EQDQ01  00002PRCP99
0112289520999992000041921004+53220+063620FM-12+015699999V0200501N004010075019N9999999N1+01341+00651102181ADDGF106991061051008001001001MD1710021+9999REMSYN060AAXX  19211 28952 425// 60504 10134 20065 40218 57002 86500;
0143289520999992000042000004+53220+063620FM-12+015699999V0200901N006012200019N9999999N1+01091+00341102141ADDGF102991021051008001001001MA1999999100251MD1710051+9999REMSYN076AAXX  20001 28952 425// 20906 10109 20034 30025 40214 57005 82500 555 1/008;
0200289520999992000042003004+53220+063620FM-12+015699999V0200901N005012200019N0200001N1+01191+00321102151ADDAA199000091GF103991011011008001001011GJ106309IA1019IA2999+00809MD1310011+9999REMSYN092AAXX  20031 28952 32598 30905 10119 20032 40215 53001 81101 333 55105 555 20109 30008 7000/;EQDQ01  00002PRCP99
0165289520999992000042006004+53220+063620FM-12+015699999V0200901N006019999999N0200001N1+02061+00211102011ADDAA199000091GF105991021001999999031021KA1999N+01091MD1810071+9999REMSYN070AAXX  20061 28952 32998 50906 10206 20021 40201 58007 82032 333 20109;EQDQ01  00002PRCP99
0112289520999992000042009004+53220+063620FM-12+015699999V0200901N008012200019N0200001N1+02441+00301101861ADDGF103991001001999999001011MD1710121+9999REMSYN060AAXX  20091 28952 42998 30908 10244 20030 40186 57012 80001;
0143289520999992000042012004+53220+063620FM-12+015699999V0201401N003010075019N0200001N1+02401+00321101811ADDGF107991071091008001001001MA1999999100011MD1710061+9999REMSYN076AAXX  20121 28952 42598 71403 10240 20032 30001 40181 57006 87900 555 1/028;
0165289520999992000042015004+53220+063620FM-12+015699999V0201801N001012200019N0200001N1+01781+00941101801ADDAA199000091GF103991031051008001001001KA1999M+02441MD1710041+9999REMSYN070AAXX  20151 28952 32598 31801 10178 20094 40180 57004 83500 333 10244;EQDQ01  00002PRCP99
0122289520999992000042021004+53220+063620FM-12+015699999V0200901N002012200019N9999999N1+01131+00451101711ADDGA1001+999999999GF100991001001999999001001MD1710061+9999REMSYN054AAXX  20211 28952 429// 00902 10113 20045 40171 57006;
0192289520999992000042103004+53220+063620FM-12+015699999V0203201N002012200019N0200001N1+01041+00701101791ADDAA199000091GF102991001001999999001011IA1019IA2999+00409MD1210051+9999REMSYN092AAXX  21031 28952 32998 23202 10104 20070 40179 52005 80001 333 53102 555 20073 30004 7000/;EQDQ01  00002PRCP99
0175289520999992000042106004+53220+063620FM-12+015699999V0203201N003012200019N0200001N1+01501+00801101781ADDAA199000091GA1001+999999999GF100991001001999999001001KA1999N+00731MD1210021+9999REMSYN064AAXX  21061 28952 32998 03203 10150 20080 40178 52002 333 20073;EQDQ01  00002PRCP99
0122289520999992000042109004+53220+063620FM-12+015699999V0203201N003012200019N0200001N1+01851+00591101781ADDGA1001+999999999GF100991001001999999001001MD1210021+9999REMSYN054AAXX  21091 28952 42998 03203 10185 20059 40178 52002;
0153289520999992000042112004+53220+063620FM-12+015699999V0203201N002012200019N0200001N1+01881+00641101761ADDGA1001+999999999GF100991001001999999001001MA1999999099931MD1810021+9999REMSYN070AAXX  21121 28952 42998 03202 10188 20064 39993 40176 58002 555 1/027;
0175289520999992000042115004+53220+063620FM-12+015699999V0203201N001012200019N0200001N1+01541+00651101791ADDAA199000091GA1001+999999999GF100991001001999999001001KA1999M+01931MD1310011+9999REMSYN064AAXX  21151 28952 32998 03201 10154 20065 40179 53001 333 10193;EQDQ01  00002PRCP99
0175289520999992000042118004+53220+063620FM-12+015699999V0203201N002012200019N9999999N1+01231+00761101881ADDAA199000091GA1001+999999999GF100991001001999999001001KA1999M+01931MD1210071+9999REMSYN064AAXX  21181 28952 329// 03202 10123 20076 40188 52007 333 10193;EQDQ01  00002PRCP99
0122289520999992000042121004+53220+063620FM-12+015699999V0209999C000012200019N9999999N1+00871+00681101951ADDGA1001+999999999GF100991001001999999001001MD1210051+9999REMSYN054AAXX  21211 28952 429// 00000 10087 20068 40195 52005;
0153289520999992000042200004+53220+063620FM-12+015699999V0209999C000012200019N9999999N1+00721+00561102071ADDGA1001+999999999GF100991001001999999001001MA1999999100161MD1210101+9999REMSYN070AAXX  22001 28952 429// 00000 10072 20056 30016 40207 52010 555 1/003;
0210289520999992000042203004+53220+063620FM-12+015699999V0209999C000012200019N0200001N1+00881+00581102171ADDAA199000091GA1001+999999999GF100991001001999999001001GJ107689IA1019IA2999+00209MD1210111+9999REMSYN086AAXX  22031 28952 32998 00000 10088 20058 40217 52011 333 55128 555 20068 30002 7000/;EQDQ01  00002PRCP99
0175289520999992000042206004+53220+063620FM-12+015699999V0203601N002012200019N0200001N1+01701+00641102231ADDAA199000091GA1001+999999999GF100991001001999999001001KA1999N+00681MD1210111+9999REMSYN064AAXX  22061 28952 32998 03602 10170 20064 40223 52011 333 20068;EQDQ01  00002PRCP99
0122289520999992000042209004+53220+063620FM-12+015699999V0203201N001012200019N0200001N1+02071+00671102191ADDGA1001+999999999GF100991001001999999001001MD1810021+9999REMSYN054AAXX  22091 28952 42998 03201 10207 20067 40219 58002;
0175289520999992000042215004+53220+063620FM-12+015699999V0209999C000012200019N0200001N1+01781+00381102211ADDAA199000091GA1001+999999999GF100991001001999999001001KA1999M+02181MD1410001+9999REMSYN064AAXX  22151 28952 32998 00000 10178 20038 40221 54000 333 10218;EQDQ01  00002PRCP99
0175289520999992000042218004+53220+063620FM-12+015699999V0209999C000012200019N9999999N1+01071+00581102371ADDAA199000091GA1001+999999999GF100991001001999999001001KA1999M+02181MD1310121+9999REMSYN064AAXX  22181 28952 329// 00000 10107 20058 40237 53012 333 10218;EQDQ01  00002PRCP99
0122289520999992000042221004+53220+063620FM-12+015699999V0209999C000012200019N9999999N1+00841+00581102381ADDGA1001+999999999GF100991001001999999001001MD1410001+9999REMSYN054AAXX  22211 28952 429// 00000 10084 20058 40238 54000;
0153289520999992000042300004+53220+063620FM-12+015699999V0209999C000012200019N9999999N1+00651+00471102391ADDGA1001+999999999GF100991001001999999001001MA1999999100471MD1810011+9999REMSYN070AAXX  23001 28952 429// 00000 10065 20047 30047 40239 58001 555 1/003;
0200289520999992000042303004+53220+063620FM-12+015699999V0209999C000012200019N0200001N1+01101+00481102381ADDAA199000091GF103991001001999999001021GJ107989IA1019IA2999+00209MD1310021+9999REMSYN092AAXX  23031 28952 32998 30000 10110 20048 40238 53002 80002 333 55133 555 20064 30002 7000/;EQDQ01  00002PRCP99
0165289520999992000042306004+53220+063620FM-12+015699999V0209999C000019999999N0200001N1+02051+00561102281ADDAA199000091GF106991001001999999001021KA1999N+00641MD1810041+9999REMSYN070AAXX  23061 28952 32998 60000 10205 20056 40228 58004 80002 333 20064;EQDQ01  00002PRCP99
0122289520999992000042309004+53220+063620FM-12+015699999V0201801N003012200019N0200001N1+02421+00301102021ADDGA1001+999999999GF100991001001999999001001MD1710221+9999REMSYN054AAXX  23091 28952 42998 01803 10242 20030 40202 57022;
0143289520999992000042312004+53220+063620FM-12+015699999V0202001N005012200019N0200001N1+02441-00021101801ADDGF102991001001999999001021MA1999999100011MD1710221+9999REMSYN076AAXX  23121 28952 42998 22005 10244 21002 30001 40180 57022 80002 555 1/035;
0165289520999992000042315004+53220+063620FM-12+015699999V0209999C000012200019N0200001N1+02021+00681101651ADDAA199000091GF103991001001999999001011KA1999M+02461MD1710181+9999REMSYN070AAXX  23151 28952 32998 30000 10202 20068 40165 57018 80001 333 10246;EQDQ01  00002PRCP99
0175289520999992000042318004+53220+063620FM-12+015699999V0209999C000012200019N9999999N1+01331+00551101641ADDAA199000091GA1001+999999999GF100991001001999999001001KA1999M+02461MD1710061+9999REMSYN064AAXX  23181 28952 329// 00000 10133 20055 40164 57006 333 10246;EQDQ01  00002PRCP99
0122289520999992000042321004+53220+063620FM-12+015699999V0209999C000012200019N9999999N1+01111+00411101521ADDGA1001+999999999GF100991001001999999001001MD1710121+9999REMSYN054AAXX  23211 28952 429// 00000 10111 20041 40152 57012;
0153289520999992000042400004+53220+063620FM-12+015699999V0209999C000012200019N9999999N1+00851+00551101431ADDGA1001+999999999GF100991001001999999001001MA1999999099551MD1710101+9999REMSYN070AAXX  24001 28952 429// 00000 10085 20055 39955 40143 57010 555 1/006;
0210289520999992000042403004+53220+063620FM-12+015699999V0201801N003012200019N0200001N1+01311+00431101321ADDAA199000091GA1001+999999999GF100991001001999999001001GJ107149IA1019IA2999+00609MD1710091+9999REMSYN086AAXX  24031 28952 32998 01803 10131 20043 40132 57009 333 55119 555 20085 30006 7000/;EQDQ01  00002PRCP99
0175289520999992000042406004+53220+063620FM-12+015699999V0202001N002012200019N0200001N1+02121+00941101171ADDAA199000091GA1001+999999999GF100991001001999999001001KA1999N+00851MD1710101+9999REMSYN064AAXX  24061 28952 32998 02002 10212 20094 40117 57010 333 20085;EQDQ01  00002PRCP99
0112289520999992000042409004+53220+063620FM-12+015699999V0202001N004012200019N0200001N1+02541+00811101051ADDGF101991011011012501001001MD1710021+9999REMSYN060AAXX  24091 28952 42698 12004 10254 20081 40105 57002 81100;
0173289520999992000042415004+53220+063620FM-12+015699999V0209999C000010075019N0100001N1+01521+01261101361ADDAY181031AY211031GF108991081091008001999999KA1120M+02541MD1310241+9999MW1801REMSYN086AAXX  24151 28952 /1597 80000 10152 20126 40136 53024 78081 889// 333 10254 555 69902;
0180289520999992000042418004+53220+063620FM-12+015699999V0209999C000010075019N9999999N1+01381+01181101441ADDAA100000791AY181061AY221061GF108991081091008001999999KA1999M+02541MD1810081+9999MW1021REMSYN082AAXX  24181 28952 115// 80000 10138 20118 40144 58008 69900 70282 889// 333 10254;
0122289520999992000042421004+53220+063620FM-12+015699999V0209999C000012200019N9999999N1+01071+00951101561ADDGA1001+999999999GF100991001001999999001001MD1210101+9999REMSYN054AAXX  24211 28952 429// 00000 10107 20095 40156 52010;
0143289520999992000042500004+53220+063620FM-12+015699999V0209999C000012200019N9999999N1+00971+00861101571ADDGF103991031001999999031001MA1999999099691MD1410001+9999REMSYN076AAXX  25001 28952 429// 30000 10097 20086 39969 40157 54000 83030 555 1/007;
0197289520999992000042503004+53220+063620FM-12+015699999V0203601N003012200019N0200001N1+00981+00901101631ADDAA112999929GA1001+999999999GF100991001001999999001001GJ106609IA1099IA2999+00709MD1310071+9999REMSYN092AAXX  25031 28952 /2998 03603 10098 20090 40163 53007 333 55110 555 20097 31007 69902 7990/;
0152289520999992000042506004+53220+063620FM-12+015699999V0203601N002012200019N0200001N1+01681+01001101571ADDAA100000791GF102991001001999999001021KA1999N+00971MD1810011+9999REMSYN076AAXX  25061 28952 12998 23602 10168 20100 40157 58001 69900 80002 333 20097;
0112289520999992000042509004+53220+063620FM-12+015699999V0203201N001012200019N0200001N1+02011+00501101461ADDGF102991001001999999001011MD1710091+9999REMSYN060AAXX  25091 28952 42998 23201 10201 20050 40146 57009 80001;
0143289520999992000042512004+53220+063620FM-12+015699999V0202901N002019999999N0200001N1+02141+00671101361ADDGF107991021021999999001011MA1999999099551MD1710101+9999REMSYN076AAXX  25121 28952 42998 72902 10214 20067 39955 40136 57010 82201 555 1/033;
0165289520999992000042515004+53220+063620FM-12+015699999V0209999C000012200019N0200001N1+01911+00781101341ADDAA199000091GF102991001001999999001011KA1999M+02171MD1710031+9999REMSYN070AAXX  25151 28952 32998 20000 10191 20078 40134 57003 80001 333 10217;EQDQ01  00002PRCP99
0175289520999992000042518004+53220+063620FM-12+015699999V0203201N001012200019N9999999N1+01411+00641101481ADDAA199000091GA1001+999999999GF100991001001999999001001KA1999M+02171MD1310111+9999REMSYN064AAXX  25181 28952 329// 03201 10141 20064 40148 53011 333 10217;EQDQ01  00002PRCP99
0122289520999992000042521004+53220+063620FM-12+015699999V0203601N001012200019N9999999N1+01071+00481101601ADDGA1001+999999999GF100991001001999999001001MD1210101+9999REMSYN054AAXX  25211 28952 429// 03601 10107 20048 40160 52010;
0143289520999992000042600004+53220+063620FM-12+015699999V0209999C000012200019N9999999N1+00771+00531101861ADDGF102991001001999999001011MA1999999099951MD1210221+9999REMSYN076AAXX  26001 28952 429// 20000 10077 20053 39995 40186 52022 80001 555 1/005;
0200289520999992000042603004+53220+063620FM-12+015699999V0200501N003012200019N0200001N1+01081+00301102121ADDAA199000091GF102991001001999999001011GJ107089IA1099IA2999+00509MD1210291+9999REMSYN092AAXX  26031 28952 32998 20503 10108 20030 40212 52029 80001 333 55118 555 20076 31005 7000/;EQDQ01  00002PRCP99
0165289520999992000042606004+53220+063620FM-12+015699999V0200501N003012200019N0200001N1+01391+00041102331ADDAA199000091GF102991001001999999001011KA1999N+00761MD1210211+9999REMSYN070AAXX  26061 28952 32998 20503 10139 20004 40233 52021 80001 333 20076;EQDQ01  00002PRCP99
0112289520999992000042609004+53220+063620FM-12+015699999V0203601N001012200019N0200001N1+01581-00221102391ADDGF101991001001999999001011MD1210081+9999REMSYN060AAXX  26091 28952 42998 13601 10158 21022 40239 52008 80001;
0143289520999992000042612004+53220+063620FM-12+015699999V0203601N001012200019N0200001N1+01721+00041102391ADDGF103991001001999999001011MA1999999100541MD1210011+9999REMSYN076AAXX  26121 28952 42998 33601 10172 20004 30054 40239 52001 80001 555 1/035;
0165289520999992000042615004+53220+063620FM-12+015699999V0209999C000012200019N0200001N1+01611+00061102381ADDAA199000091GF102991001001999999001011KA1999M+01721MD1810021+9999REMSYN070AAXX  26151 28952 32998 20000 10161 20006 40238 58002 80001 333 10172;EQDQ01  00002PRCP99
0175289520999992000042618004+53220+063620FM-12+015699999V0209999C000012200019N9999999N1+01011+00211102521ADDAA199000091GA1001+999999999GF100991001001999999001001KA1999M+01721MD1310091+9999REMSYN064AAXX  26181 28952 329// 00000 10101 20021 40252 53009 333 10172;EQDQ01  00002PRCP99
0122289520999992000042621004+53220+063620FM-12+015699999V0209999C000012200019N9999999N1+00741+00091102501ADDGA1001+999999999GF100991001001999999001001MD1810031+9999REMSYN054AAXX  26211 28952 429// 00000 10074 20009 40250 58003;
0153289520999992000042700004+53220+063620FM-12+015699999V0201801N002012200019N9999999N1+00651+00041102501ADDGA1001+999999999GF100991001001999999001001MA1999999100581MD1410001+9999REMSYN070AAXX  27001 28952 429// 01802 10065 20004 30058 40250 54000 555 1/004;
0210289520999992000042703004+53220+063620FM-12+015699999V0202001N003012200019N0200001N1+00961+00021102471ADDAA199000091GA1001+999999999GF100991001001999999001001GJ108289IA1019IA2999+00409MD1810011+9999REMSYN086AAXX  27031 28952 32998 02003 10096 20002 40247 58001 333 55138 555 20064 30004 7000/;EQDQ01  00002PRCP99
0175289520999992000042706004+53220+063620FM-12+015699999V0201801N006012200019N0200001N1+01871+00361102331ADDAA199000091GA1001+999999999GF100991001001999999001001KA1999N+00641MD1710081+9999REMSYN064AAXX  27061 28952 32998 01806 10187 20036 40233 57008 333 20064;EQDQ01  00002PRCP99
0122289520999992000042709004+53220+063620FM-12+015699999V0202001N007012200019N0200001N1+02341+00651102041ADDGA1001+999999999GF100991001001999999001001MD1710251+9999REMSYN054AAXX  27091 28952 42998 02007 10234 20065 40204 57025;
0153289520999992000042712004+53220+063620FM-12+015699999V0202001N006012200019N0200001N1+02471+00021101851ADDGA1001+999999999GF100991001001999999001001MA1999999100061MD1710181+9999REMSYN070AAXX  27121 28952 42998 02006 10247 20002 30006 40185 57018 555 1/033;
0175289520999992000042715004+53220+063620FM-12+015699999V0201801N003012200019N0200001N1+02201+00131101721ADDAA199000091GA1001+999999999GF100991001001999999001001KA1999M+02501MD1710161+9999REMSYN064AAXX  27151 28952 32998 01803 10220 20013 40172 57016 333 10250;EQDQ01  00002PRCP99
0175289520999992000042718004+53220+063620FM-12+015699999V0202001N002012200019N9999999N1+01761-00381101651ADDAA199000091GA1001+999999999GF100991001001999999001001KA1999M+02501MD1710091+9999REMSYN064AAXX  27181 28952 329// 02002 10176 21038 40165 57009 333 10250;EQDQ01  00002PRCP99
0122289520999992000042721004+53220+063620FM-12+015699999V0202301N003012200019N9999999N1+01421+00091101541ADDGA1001+999999999GF100991001001999999001001MD1710131+9999REMSYN054AAXX  27211 28952 429// 02303 10142 20009 40154 57013;
0153289520999992000042800004+53220+063620FM-12+015699999V0202001N002012200019N0200001N1+01291-00121101401ADDGA1001+999999999GF100991001001999999001001MA1999999099541MD1710141+9999REMSYN070AAXX  28001 28952 42998 02002 10129 21012 39954 40140 57014 555 1/009;
0210289520999992000042803004+53220+063620FM-12+015699999V0202001N002012200019N0200001N1+01491+00271101291ADDAA199000091GA1001+999999999GF100991001001999999001001GJ107989IA1019IA2999+00909MD1710101+9999REMSYN086AAXX  28031 28952 32998 02002 10149 20027 40129 57010 333 55133 555 20129 30009 7000/;EQDQ01  00002PRCP99
0175289520999992000042806004+53220+063620FM-12+015699999V0202301N003012200019N0200001N1+02261+00671101111ADDAA199000091GA1001+999999999GF100991001001999999001001KA1999N+01291MD1710131+9999REMSYN064AAXX  28061 28952 32998 02303 10226 20067 40111 57013 333 20129;EQDQ01  00002PRCP99
0112289520999992000042809004+53220+063620FM-12+015699999V0202001N005012200019N0200001N1+02441+00991100931ADDGF102991021021008001001011MD1710151+9999REMSYN060AAXX  28091 28952 42598 22005 10244 20099 40093 57015 82201;
0173289520999992000042815004+53220+063620FM-12+015699999V0203601N008010075019N0200001N1+00951+00811101321ADDAY191031AY281031GF108991081091008001999999KA1120M+02451MD1210101+9999MW1021REMSYN086AAXX  28151 28952 /1598 83608 10095 20081 40132 52010 70298 889// 333 10245 555 60032;
0180289520999992000042818004+53220+063620FM-12+015699999V0203601N008010075019N9999999N1+00721+00611101561ADDAA100003091AY191061AY281061GF108991081091008001999999KA1999M+02451MD1210221+9999MW1251REMSYN082AAXX  28181 28952 115// 83608 10072 20061 40156 52022 60030 72598 889// 333 10245;
0122289520999992000042821004+53220+063620FM-12+015699999V0203601N005012200019N9999999N1+00551+00411101611ADDGA1001+999999999GF100991001001999999001001MD1210041+9999REMSYN054AAXX  28211 28952 429// 03605 10055 20041 40161 52004;
0143289520999992000042900004+53220+063620FM-12+015699999V0200501N004012200019N0200001N1+00251+00091101691ADDGF102991021001999999041001MA1999999099751MD1210051+9999REMSYN076AAXX  29001 28952 42998 20504 10025 20009 39975 40169 52005 82040 555 1/001;
0144289520999992000042903004+53220+063620FM-12+015699999V0200501N007010120019N0200001N1+00411+00151101691ADDGF106991051021012501001011MD1410001+9999REMSYN092AAXX  29031 28952 /2698 60507 10041 20015 40169 54000 85201 333 55087 555 20025 60022 7005/;
0152289520999992000042906004+53220+063620FM-12+015699999V0200501N005010120019N0200001N1+00701+00061101661ADDAA100002091GF106991061021012501001001KA1999N+00251MD1410001+9999REMSYN076AAXX  29061 28952 12698 60505 10070 20006 40166 54000 60020 86200 333 20025;
0112289520999992000042909004+53220+063620FM-12+015699999V0200501N004010075019N0200001N1+00721-00171101611ADDGF107991071091008001001001MD1810041+9999REMSYN060AAXX  29091 28952 42598 70504 10072 21017 40161 58004 87900;
0143289520999992000042912004+53220+063620FM-12+015699999V0200201N004010075019N0200001N1+00671-00381101661ADDGF107991071091008001001001MA1999999099751MD1310041+9999REMSYN076AAXX  29121 28952 42598 70204 10067 21038 39975 40166 53004 87900 555 1/012;
0165289520999992000042915004+53220+063620FM-12+015699999V0203601N004010075019N0200001N1+00471-00411101721ADDAA199000091GF107991071091008001001001KA1999M+00751MD1210041+9999REMSYN070AAXX  29151 28952 32598 73604 10047 21041 40172 52004 87900 333 10075;EQDQ01  00002PRCP99
0165289520999992000042918004+53220+063620FM-12+015699999V0209999C000012200019N9999999N1+00061-00481101861ADDAA199000091GF103991001001999999001011KA1999M+00751MD1210111+9999REMSYN070AAXX  29181 28952 329// 30000 10006 21048 40186 52011 80001 333 10075;EQDQ01  00002PRCP99
0116289520999992000042921004+53220+063620FM-12+015699999V0209999C000012200019N9999999N1-00181+99999101911ADDGA1001+999999999GF100991001001999999001001MD1210031+9999REMSYN048AAXX  29211 28952 429// 00000 11018 40191 52003;
0153289520999992000043000004+53220+063620FM-12+015699999V0209999C000012200019N0200001N1-00341-00471101971ADDGA1001+999999999GF100991001001999999001001MA1999999099981MD1210051+9999REMSYN070AAXX  30001 28952 42998 00000 11034 21047 39998 40197 52005 555 1/106;
0210289520999992000043003004+53220+063620FM-12+015699999V0209999C000012200019N0200001N1+00141-00381102021ADDAA199000091GA1001+999999999GF100991001001999999001001GJ104389IA1099IA2999-00609MD1210091+9999REMSYN086AAXX  30031 28952 32998 00000 10014 21038 40202 52009 333 55073 555 21039 31106 7000/;EQDQ01  00002PRCP99
0165289520999992000043006004+53220+063620FM-12+015699999V0209999C000012200019N0200001N1+00671-00721102001ADDAA199000091GF102991021011012501001001KA1999N-00391MD1210021+9999REMSYN070AAXX  30061 28952 32698 20000 10067 21072 40200 52002 82100 333 21039;EQDQ01  00002PRCP99
0112289520999992000043009004+53220+063620FM-12+015699999V0202301N002012200019N0200001N1+00971-00571101831ADDGF103991031011012501001001MD1810151+9999REMSYN060AAXX  30091 28952 42698 32302 10097 21057 40183 58015 83100;
0133289520999992000043012004+53220+063620FM-12+015699999V0202001N004012200019N0200001N1+01061-00671101621ADDGF105991021011012501001011MA1999999099741MD1710201+9999REMSYN066AAXX  30121 28952 42698 52004 10106 21067 39974 40162 57020 82101;
0165289520999992000043015004+53220+063620FM-12+015699999V0201601N002019999999N0200001N1+00831-00501101451ADDAA199000091GF107991001001999999001011KA1999M+01101MD1710191+9999REMSYN070AAXX  30151 28952 32998 71602 10083 21050 40145 57019 80001 333 10110;EQDQ01  00002PRCP99
0175289520999992000043018004+53220+063620FM-12+015699999V0201401N003012200019N9999999N1+00551-00481101351ADDAA199000091GA1001+999999999GF100991001001999999001001KA1999M+01101MD1710111+9999REMSYN064AAXX  30181 28952 329// 01403 10055 21048 40135 57011 333 10110;EQDQ01  00002PRCP99
0122289520999992000043021004+53220+063620FM-12+015699999V0201901N002012200019N9999999N1+00441-00201101001ADDGA1001+999999999GF100991001001999999001001MD1710281+9999REMSYN054AAXX  30211 28952 429// 01902 10044 21020 40100 57028;
0143289520999992000050100004+53220+063620FM-12+015699999V0201101N004010075019N0200001N1+01411-00021100671ADDGF108991081091008001999999MA1999999098751MD1710411+9999REMSYN076AAXX  01001 28952 42598 81104 10141 21002 39875 40067 57041 889// 555 1/005;
0226289520999992000050103004+53220+063620FM-12+015699999V0201101N007012200019N0200001N1+00691+00001101372ADDAA199000091GA1001+999999999GF100991001001999999001001GJ106729IA1019IA2999+00409MD1710281+9999REMSYN086AAXX  01031 28952 32998 01107 10069 20000 40137 57028 333 55112 555 20041 30004 7000/;EQDQ01+101373APOSLPQ02  00002PRCP99
0181289520999992000050106004+53220+063620FM-12+015699999V0201401N007019999999N0200001N1+01121+00001100102ADDAA199000091GF106991061001999999031001KA1999N+00411MD1710221+9999REMSYN070AAXX  01061 28952 32998 61407 10112 20000 40010 57022 86030 333 20041;EQDQ01+100103APOSLPQ02  00002PRCP99
0112289520999992000050109004+53220+063620FM-12+015699999V0201401N007010075019N0200001N1+01551+00581099841ADDGF105991051091008001001001MD1710231+9999REMSYN060AAXX  01091 28952 42598 51407 10155 20058 49984 57023 85900;
0143289520999992000050112004+53220+063620FM-12+015699999V0201401N003010075019N0200001N1+01481+00561099741ADDGF107991071091008001001001MA1999999097921MD1710101+9999REMSYN076AAXX  01121 28952 42598 71403 10148 20056 39792 49974 57010 87900 555 1/017;
0173289520999992000050115004+53220+063620FM-12+015699999V0201401N002010075019N0200001N1+01381+00431099661ADDAY181031AY221031GF106991061091008001001001KA1120M+01551MD1710091+9999MW1021REMSYN086AAXX  01151 28952 /1598 61402 10138 20043 49966 57009 70282 86900 333 10155 555 69902;
0180289520999992000050118004+53220+063620FM-12+015699999V0202701N001010075019N9999999N1+01031+00711099761ADDAA100000791AY181061AY221061GF108991081091008001999999KA1999M+01551MD1310051+9999MW1251REMSYN082AAXX  01181 28952 115// 82701 10103 20071 49976 53005 69900 72582 889// 333 10155;
0140289520999992000050121004+53220+063620FM-12+015699999V0201801N001010075019N9999999N1+00791+00681099731ADDAY181031AY221031GF108991081091008001999999MD1810061+9999MW1801REMSYN066AAXX  01211 28952 415// 81801 10079 20068 49973 58006 78082 889//;
0171289520999992000050200004+53220+063620FM-12+015699999V0202301N003010075019N0200001N1+00731+00641099691ADDAY181061AY221061GF108991081091008001999999MA1999999097821MD1710041+9999MW1021REMSYN082AAXX  02001 28952 41598 82303 10073 20064 39782 49969 57004 70282 889// 555 1/007;
0150289520999992000050203004+53220+063620FM-12+015699999V0202301N005010075019N0200001N1+00431+00061100011ADDGF106991061091008001001001MD1310291+9999REMSYN098AAXX  02031 28952 /2598 62305 10043 20006 40001 53029 86900 333 55085 555 20043 32006 60042 7004/;
0171289520999992000050206004+53220+063620FM-12+015699999V0202701N006019999999N0200001N1+00591-00671100241ADDAA100004191GF107991999091008001001001KA1999N+00431MD1210241+9999REMSYN076AAXX  02061 28952 12598 72706 10059 21067 40024 52024 60040 88900 333 20043;EQDQ01+000082SCOTLC
0112289520999992000050209004+53220+063620FM-12+015699999V0202501N007010750019N0200001N1+00621-00381100431ADDGF106991031091008001001021MD1210191+9999REMSYN060AAXX  02091 28952 42598 62507 10062 21038 40043 52019 83902;
0143289520999992000050212004+53220+063620FM-12+015699999V0202301N006010075019N0200001N1+00761-00471100481ADDGF107991071091008001001001MA1999999098601MD1210061+9999REMSYN076AAXX  02121 28952 42598 72306 10076 21047 39860 40048 52006 87900 555 1/010;
0165289520999992000050215004+53220+063620FM-12+015699999V0202301N004010075019N0200001N1+00751-00091100481ADDAA199000091GF106991061091008001001001KA1999M+00771MD1410001+9999REMSYN070AAXX  02151 28952 32598 62304 10075 21009 40048 54000 86900 333 10077;EQDQ01  00002PRCP99
0159289520999992000050218004+53220+063620FM-12+015699999V0209999C004012200019N9999999N1+00271-00421100611ADDAA199000091GF102991999999999999999999KA1999M+00771MD1210101+9999REMSYN064AAXX  02181 28952 329// 20004 10027 21042 40061 52010 333 10077;EQDQ01  00002PRCP99
0122289520999992000050221004+53220+063620FM-12+015699999V0202001N002012200019N9999999N1+00151-00401100621ADDGA1001+999999999GF100991001001999999001001MD1410001+9999REMSYN054AAXX  02211 28952 429// 02002 10015 21040 40062 54000;
0143289520999992000050300004+53220+063620FM-12+015699999V0202301N002010075019N0200001N1+00101-00291100461ADDGF106991061051008001001001MA1999999098541MD1810161+9999REMSYN076AAXX  03001 28952 42598 62302 10010 21029 39854 40046 58016 86500 555 1/001;
0200289520999992000050303004+53220+063620FM-12+015699999V0202301N005010075019N0200001N1+00201-00201100461ADDAA199000091GF107991071091008001001001GJ105649IA1099IA2999+00109MD1410001+9999REMSYN092AAXX  03031 28952 32598 72305 10020 21020 40046 54000 87900 333 55094 555 20010 31001 7000/;EQDQ01  00002PRCP99
0174289520999992000050306004+53220+063620FM-12+015699999V0209999V006010075019N0200001N1+00371-00221100481ADDAA199000021AY181061AY221061GF106991061091008001001001KA1999N+00101MD1310031+9999MW1271REMSYN076AAXX  03061 28952 31598 69906 10037 21022 40048 53003 72782 86900 333 20010;
0112289520999992000050309004+53220+063620FM-12+015699999V0202501N007010075019N0200001N1+00771-00781100461ADDGF105991051091008001001001MD1210011+9999REMSYN060AAXX  03091 28952 42598 52507 10077 21078 40046 52001 85900;
0143289520999992000050312004+53220+063620FM-12+015699999V0202501N009010075019N0200001N1+00831-00861100601ADDGF105991051031008001001001MA1999999098721MD1210141+9999REMSYN076AAXX  03121 28952 42598 52509 10083 21086 39872 40060 52014 85300 555 1/016;
0164289520999992000050315004+53220+063620FM-12+015699999V0202001N004012200019N0200001N1+00591-00421100821ADDGF102991021091008001001001KA1120M+99999MD1210201+9999REMSYN080AAXX  03151 28952 /2598 22004 10059 21042 40082 52020 82900 333 10050 555 69902;EQDQ01 +00502ATMX  
0152289520999992000050318004+53220+063620FM-12+015699999V0202301N002010075019N9999999N1+00411-00311101001ADDAA100000791GF106991061051008001001001KA1999M+00951MD1210161+9999REMSYN076AAXX  03181 28952 125// 62302 10041 21031 40100 52016 69900 86500 333 10095;
0122289520999992000050321004+53220+063620FM-12+015699999V0202301N003012200019N9999999N1+00291-00291101071ADDGA1001+999999999GF100991001001999999001001MD1210071+9999REMSYN054AAXX  03211 28952 429// 02303 10029 21029 40107 52007;
0153289520999992000050400004+53220+063620FM-12+015699999V0209999C000012200019N0200001N1-00041-00341101181ADDGA1001+999999999GF100991001001999999001001MA1999999099241MD1210091+9999REMSYN070AAXX  04001 28952 42998 00000 11004 21034 39924 40118 52009 555 1/101;
0210289520999992000050403004+53220+063620FM-12+015699999V0202701N002012200019N0200001N1+00291-00261101271ADDAA199000091GA1001+999999999GF100991001001999999001001GJ105229IA1019IA2999-00209MD1210101+9999REMSYN086AAXX  04031 28952 32998 02702 10029 21026 40127 52010 333 55087 555 21010 30102 7990/;EQDQ01  00002PRCP99
0165289520999992000050406004+53220+063620FM-12+015699999V0202701N004010075019N0200001N1+00591-00541101211ADDAA199000091GF107991071091008001001001KA1999N-00101MD1810041+9999REMSYN070AAXX  04061 28952 32598 72704 10059 21054 40121 58004 87900 333 21010;EQDQ01  00002PRCP99
0112289520999992000050409004+53220+063620FM-12+015699999V0202701N004010075019N0200001N1+00721-00541101181ADDGF107991071091008001001001MD1710021+9999REMSYN060AAXX  04091 28952 42598 72704 10072 21054 40118 57002 87900;
0143289520999992000050412004+53220+063620FM-12+015699999V0202701N004010075019N0200001N1+00711-00601101131ADDGF108991081091008001999999MA1999999099241MD1710041+9999REMSYN076AAXX  04121 28952 42598 82704 10071 21060 39924 40113 57004 889// 555 1/013;
0152289520999992000050415004+53220+063620FM-12+015699999V0202701N003019999999N0200001N1+00591-00381101141ADDAA199000021GF108991999999008001999999KA1999M+00761MD1410001+9999MW1891REMSYN070AAXX  04151 28952 32598 82703 10059 21038 40114 54000 789// 333 10076;
0146289520999992000050418004+53220+063620FM-12+015699999V0209999C000010075019N9999999N1+00271+00001101311ADDAA199000021GF106991061051008001001001KA1999M+00761MD1310141+9999REMSYN070AAXX  04181 28952 325// 60000 10027 20000 40131 53014 86500 333 10076;
0112289520999992000050421004+53220+063620FM-12+015699999V0202701N003012200019N9999999N1+00221-00061101371ADDGF102991021051008001021001MD1210051+9999REMSYN060AAXX  04211 28952 425// 22703 10022 21006 40137 52005 82520;
0143289520999992000050500004+53220+063620FM-12+015699999V0202701N002010075019N0200001N1+00041-00261101591ADDGF106991061051008001001001MA1999999099641MD1210211+9999REMSYN076AAXX  05001 28952 42598 62702 10004 21026 39964 40159 52021 86500 555 1/101;
0181289520999992000050503004+53220+063620FM-12+015699999V0202701N003019999999N0200001N1+00451-00221101761ADDAA199000021GF105991051001999999031001GJ103189IA1019IA2999-00109MD1210191+9999REMSYN092AAXX  05031 28952 32998 52703 10045 21022 40176 52019 85030 333 55053 555 20004 30101 7000/;
0165289520999992000050506004+53220+063620FM-12+015699999V0203601N003012200019N0200001N1+00821-00271101881ADDAA199000091GF105991031011012501001011KA1999N+00041MD1210141+9999REMSYN070AAXX  05061 28952 32698 53603 10082 21027 40188 52014 83101 333 20004;EQDQ01  00002PRCP99
0112289520999992000050509004+53220+063620FM-12+015699999V0202701N003019999999N0200001N1+00981-00411102011ADDGF107991071091999999001001MD1210151+9999REMSYN060AAXX  05091 28952 42998 72703 10098 21041 40201 52015 87900;
0143289520999992000050512004+53220+063620FM-12+015699999V0202301N002019999999N0200001N1+01161-00601102041ADDGF105991001001999999001021MA1999999100161MD1210041+9999REMSYN076AAXX  05121 28952 42998 52302 10116 21060 30016 40204 52004 80002 555 1/020;
0175289520999992000050515004+53220+063620FM-12+015699999V0202301N002012200019N0200001N1+01061-00251102051ADDAA199000091GA1001+999999999GF100991001001999999001001KA1999M+01161MD1210011+9999REMSYN064AAXX  05151 28952 32998 02302 10106 21025 40205 52001 333 10116;EQDQ01  00002PRCP99
0175289520999992000050518004+53220+063620FM-12+015699999V0202301N002012200019N9999999N1+00731-00271102031ADDAA199000091GA1001+999999999GF100991001001999999001001KA1999M+01161MD1810051+9999REMSYN064AAXX  05181 28952 329// 02302 10073 21027 40203 58005 333 10116;EQDQ01  00002PRCP99
0122289520999992000050521004+53220+063620FM-12+015699999V0202301N003012200019N9999999N1+00711-00251101941ADDGA1001+999999999GF100991001001999999001001MD1710091+9999REMSYN054AAXX  05211 28952 429// 02303 10071 21025 40194 57009;
0143289520999992000050600004+53220+063620FM-12+015699999V0202301N003010075019N0200001N1+00631-00151101861ADDGF106991061051008001001001MA1999999099941MD1710091+9999REMSYN076AAXX  06001 28952 42598 62303 10063 21015 39994 40186 57009 86500 555 1/005;
0200289520999992000050603004+53220+063620FM-12+015699999V0202001N002012200019N0200001N1+00871-00021101841ADDAA199000091GF103991031001999999031001GJ106429IA1019IA2999+00509MD1310011+9999REMSYN092AAXX  06031 28952 32998 32002 10087 21002 40184 53001 83030 333 55107 555 20063 30005 7000/;EQDQ01  00002PRCP99
0165289520999992000050606004+53220+063620FM-12+015699999V0202301N004019999999N0200001N1+01521+00271101781ADDAA199000091GF107991071001999999031001KA1999N+00631MD1810021+9999REMSYN070AAXX  06061 28952 32998 72304 10152 20027 40178 58002 87030 333 20063;EQDQ01  00002PRCP99
0112289520999992000050609004+53220+063620FM-12+015699999V0202301N005010075019N0200001N1+01811+00271101771ADDGF107991071091008001001001MD1410001+9999REMSYN060AAXX  06091 28952 42598 72305 10181 20027 40177 54000 87900;
0143289520999992000050612004+53220+063620FM-12+015699999V0202301N004010075019N0200001N1+01611+00131101781ADDGF108991081091008001999999MA1999999099931MD1410001+9999REMSYN076AAXX  06121 28952 42598 82304 10161 20013 39993 40178 54000 889// 555 1/019;
0173289520999992000050615004+53220+063620FM-12+015699999V0202001N002010075019N0200001N1+01211+00681101801ADDAY121031AY221031GF107991071091008001001001KA1120M+01811MD1410001+9999MW1251REMSYN086AAXX  06151 28952 /1598 72002 10121 20068 40180 54000 72522 87900 333 10181 555 69902;
0180289520999992000050618004+53220+063620FM-12+015699999V0209999C000010075019N9999999N1+01201+00401101801ADDAA100000791AY181061AY221061GF107991071091008001001001KA1999M+01811MD1810011+9999MW1021REMSYN082AAXX  06181 28952 115// 70000 10120 20040 40180 58001 69900 70282 87900 333 10181;
0122289520999992000050621004+53220+063620FM-12+015699999V0209999C000012200019N9999999N1+00841+00171101851ADDGA1001+999999999GF100991001001999999001001MD1310041+9999REMSYN054AAXX  06211 28952 429// 00000 10084 20017 40185 53004;
0143289520999992000050700004+53220+063620FM-12+015699999V0201801N002012200019N0200001N1+00551+00091101911ADDGF102991021001999999031001MA1999999099991MD1210031+9999REMSYN076AAXX  07001 28952 42998 21802 10055 20009 39999 40191 52003 82030 555 1/003;
0191289520999992000050703004+53220+063620FM-12+015699999V0201801N001012200019N0200001N1+00901+00091101911ADDAA199000021GA1001+999999999GF100991001001999999001001GJ101809IA1019IA2999+00309MD1210031+9999REMSYN086AAXX  07031 28952 32998 01801 10090 20009 40191 52003 333 55030 555 20055 30003 7990/;
0165289520999992000050706004+53220+063620FM-12+015699999V0202301N004012200019N0200001N1+01741-00271101801ADDAA199000091GF102991001001999999001011KA1999N+00551MD1810061+9999REMSYN070AAXX  07061 28952 32998 22304 10174 21027 40180 58006 80001 333 20055;EQDQ01  00002PRCP99
0112289520999992000050709004+53220+063620FM-12+015699999V0202001N006010075019N0200001N1+01921-00221101621ADDGF106991061021008001001001MD1710171+9999REMSYN060AAXX  07091 28952 42598 62006 10192 21022 40162 57017 86200;
0143289520999992000050712004+53220+063620FM-12+015699999V0202001N004010120019N0200001N1+01981-00021101461ADDGF107991071081008001001001MA1999999099641MD1710151+9999REMSYN076AAXX  07121 28952 42598 72004 10198 21002 39964 40146 57015 87800 555 1/029;
0165289520999992000050715004+53220+063620FM-12+015699999V0209999C000010075019N0200001N1+01751+00131101291ADDAA199000091GF106991061051008001001001KA1999M+02001MD1710181+9999REMSYN070AAXX  07151 28952 32598 60000 10175 20013 40129 57018 86500 333 10200;EQDQ01  00002PRCP99
0165289520999992000050718004+53220+063620FM-12+015699999V0201601N001012200019N9999999N1+01201+00291101181ADDAA199000091GF102991021001999999041001KA1999M+02001MD1710151+9999REMSYN070AAXX  07181 28952 329// 21601 10120 20029 40118 57015 82040 333 10200;EQDQ01  00002PRCP99
0112289520999992000050721004+53220+063620FM-12+015699999V0209999V005010075019N9999999N1+01051+00401101061ADDGF106991061051008001001001MD1710111+9999REMSYN060AAXX  07211 28952 425// 69905 10105 20040 40106 57011 86500;
0143289520999992000050800004+53220+063620FM-12+015699999V0202001N001010075019N0200001N1+00891+00561100971ADDGF107991071051008001999999MA1999999099021MD1710111+9999REMSYN076AAXX  08001 28952 42598 72001 10089 20056 39902 40097 57011 875// 555 1/009;
0200289520999992000050803004+53220+063620FM-12+015699999V0202001N003010075019N0200001N1+00941+00551100791ADDAA199000091GF107991071051008001999999GJ105769IA1019IA2999+00909MD1710181+9999REMSYN092AAXX  08031 28952 32598 72003 10094 20055 40079 57018 875// 333 55096 555 20088 30009 7000/;EQDQ01  00002PRCP99
0165289520999992000050806004+53220+063620FM-12+015699999V0202301N003010750019N0200001N1+01331+00551100631ADDAA199000091GF105991021021012501001021KA1999N+00881MD1710131+9999REMSYN070AAXX  08061 28952 32698 52303 10133 20055 40063 57013 82202 333 20088;EQDQ01  00002PRCP99
0112289520999992000050809004+53220+063620FM-12+015699999V0202701N002010075019N0200001N1+01761+00511100511ADDGF107991071091008001001001MD1710081+9999REMSYN060AAXX  08091 28952 42598 72702 10176 20051 40051 57008 87900;
0143289520999992000050812004+53220+063620FM-12+015699999V0203201N004010075019N0200001N1+01701+00641100541ADDGF106991061091008001001001MA1999999098731MD1310031+9999REMSYN076AAXX  08121 28952 42598 63204 10170 20064 39873 40054 53003 86900 555 1/026;
0165289520999992000050815004+53220+063620FM-12+015699999V0203201N003012200019N0200001N1+01511+00411100711ADDAA199000091GF103991031081008001001001KA1999M+01841MD1210141+9999REMSYN070AAXX  08151 28952 32598 33203 10151 20041 40071 52014 83800 333 10184;EQDQ01  00002PRCP99
0175289520999992000050818004+53220+063620FM-12+015699999V0203401N002012200019N9999999N1+00891+00171101071ADDAA199000091GA1001+999999999GF100991001001999999001001KA1999M+01841MD1210321+9999REMSYN064AAXX  08181 28952 329// 03402 10089 20017 40107 52032 333 10184;EQDQ01  00002PRCP99
0122289520999992000050821004+53220+063620FM-12+015699999V0209999C000012200019N9999999N1+00421-00031101331ADDGA1001+999999999GF100991001001999999001001MD1210211+9999REMSYN054AAXX  08211 28952 429// 00000 10042 21003 40133 52021;
0153289520999992000050900004+53220+063620FM-12+015699999V0209999C000012200019N9999999N1+00101-00191101541ADDGA1001+999999999GF100991001001999999001001MA1999999099601MD1210201+9999REMSYN070AAXX  09001 28952 429// 00000 10010 21019 39960 40154 52020 555 1/000;
0186289520999992000050903004+53220+063620FM-12+015699999V0209999C000012200019N0200001N1+00591-00171101691ADDAA199000091GA1001+999999999GF100991001001999999001001GJ104389MD1210171+9999REMSYN080AAXX  09031 28952 32998 00000 10059 21017 40169 52017 333 55073 555 20053 30100;EQDQ01  00002PRCP99
0165289520999992000050906004+53220+063620FM-12+015699999V0202001N001012200019N0200001N1+01091-00121101661ADDAA199000091GF101991001001999999001011KA1999N+00101MD1210011+9999REMSYN070AAXX  09061 28952 32998 12001 10109 21012 40166 52001 80001 333 20010;EQDQ01  00002PRCP99
0112289520999992000050909004+53220+063620FM-12+015699999V0209999C000019999999N0200001N1+01371+00041101551ADDGF106991001001999999001021MD1810091+9999REMSYN060AAXX  09091 28952 42998 60000 10137 20004 40155 58009 80002;
0143289520999992000050912004+53220+063620FM-12+015699999V0200901N001012200019N0200001N1+01631+00271101451ADDGF103991001001999999001021MA1999999099621MD1710071+9999REMSYN076AAXX  09121 28952 42998 30901 10163 20027 39962 40145 57007 80002 555 1/035;
0165289520999992000050915004+53220+063620FM-12+015699999V0200201N002019999999N0200001N1+01511+00231101251ADDAA199000091GF107991001001999999001091KA1999M+01631MD1710221+9999REMSYN070AAXX  09151 28952 32998 70202 10151 20023 40125 57022 80009 333 10163;EQDQ01  00002PRCP99
0165289520999992000050918004+53220+063620FM-12+015699999V0200901N003019999999N9999999N1+01091+00061101191ADDAA199000091GF106991061001999999031001KA1999M+01631MD1710081+9999REMSYN070AAXX  09181 28952 329// 60903 10109 20006 40119 57008 86030 333 10163;EQDQ01  00002PRCP99
0112289520999992000050921004+53220+063620FM-12+015699999V0200901N007010075019N9999999N1+01031+00111100921ADDGF108991081091008001999999MD1710261+9999REMSYN060AAXX  09211 28952 425// 80907 10103 20011 40092 57026 889//;
0143289520999992000051000004+53220+063620FM-12+015699999V0200901N007010075019N0200001N1+01011+00091100681ADDGF108991081091008001999999MA1999999098801MD1710261+9999REMSYN076AAXX  10001 28952 42598 80907 10101 20009 39880 40068 57026 889// 555 1/010;
0178289520999992000051003004+53220+063620FM-12+015699999V0200901N006010075019N0040001N1+00891+00781100191ADDAY181031AY221031GF108991081091008001999999MD1710481+9999MW1801REMSYN104AAXX  10031 28952 /1596 80906 10089 20078 40019 57048 78082 889// 333 55143 555 20089 32009 60052 7005/;
0180289520999992000051006004+53220+063620FM-12+015699999V0200901N010010075019N0200001N1+01461+01091099611ADDAA100005191AY181061AY221061GF107991071091008001001001KA1999N+00891MD1710531+9999MW1031REMSYN082AAXX  10061 28952 11598 70910 10146 20109 49961 57053 60050 70382 87900 333 20089;
0159289520999992000051009004+53220+063620FM-12+015699999V0201801N004010075019N0200001N1+01541+01151099411ADDAY181031AY221031GF108991081091008001999999MD1710201+9999MW1251REMSYN066AAXX  10091 28952 41598 81804 10154 20115 49941 57119 72582 889//;EQDQ01+001192APC3  
0171289520999992000051012004+53220+063620FM-12+015699999V0201601N010012200019N0200001N1+01591+00271099421ADDAY181061AY221061GF107991031021008001001011MA1999999097611MD1310011+9999MW1021REMSYN082AAXX  10121 28952 41598 71610 10159 20027 39761 49942 53001 70282 83201 555 1/019;
0145289520999992000051015004+53220+063620FM-12+015699999V0201401N006012200019N0200001N1+01251+00431099361ADDGF103991021021008001001011KA1120M+01701MD1810071+9999REMSYN080AAXX  10151 28952 /2598 31406 10125 20043 49936 58007 82201 333 10170 555 69972;
0180289520999992000051018004+53220+063620FM-12+015699999V0201401N004010075019N9999999N1+00931+00781099231ADDAA100000891AY181061AY211061GF108991081091008001999999KA1999M+01701MD1710161+9999MW1251REMSYN082AAXX  10181 28952 115// 81404 10093 20078 49923 57016 69970 72581 889// 333 10170;
0112289520999992000051021004+53220+063620FM-12+015699999V0201401N005010075019N9999999N1+00811+00741099131ADDGF108991081091008001999999MD1710101+9999REMSYN060AAXX  10211 28952 425// 81405 10081 20074 49913 57010 889//;
0143289520999992000051100004+53220+063620FM-12+015699999V0201601N004010075019N0200001N1+00771+00551099061ADDGF108991081091008001999999MA1999999097211MD1710071+9999REMSYN076AAXX  11001 28952 42598 81604 10077 20055 39721 49906 57007 889// 555 1/008;
0150289520999992000051103004+53220+063620FM-12+015699999V0201401N002010075019N0200001N1+00731+00501099141ADDGF108991081091008001999999MD1310071+9999REMSYN098AAXX  11031 28952 /2598 81402 10073 20050 49914 53007 889// 333 55075 555 20068 32007 69902 7997/;
0180289520999992000051106004+53220+063620FM-12+015699999V0201401N005010075019N0200001N1+00771+00641099221ADDAA100000791AY181061AY221061GF108991081091008001999999KA1999N+00681MD1210081+9999MW1251REMSYN082AAXX  11061 28952 11598 81405 10077 20064 49922 52008 69900 72582 889// 333 20068;
0140289520999992000051109004+53220+063620FM-12+015699999V0201401N003010075019N0200001N1+00901+00841099351ADDAY181031AY221031GF108991081091008001999999MD1210141+9999MW1021REMSYN066AAXX  11091 28952 41598 81403 10090 20084 49935 52014 70282 889//;
0171289520999992000051112004+53220+063620FM-12+015699999V0201801N001010075019N0200001N1+00941+00551099481ADDAY181061AY221061GF108991081091008001999999MA1999999097631MD1210131+9999MW1021REMSYN082AAXX  11121 28952 41598 81801 10094 20055 39763 49948 52013 70282 889// 555 1/011;
0152289520999992000051118004+53220+063620FM-12+015699999V0202501N001010075019N9999999N1+00811+00651099851ADDAA100000791GF107991071051008001001001KA1999M+00971MD1210191+9999REMSYN076AAXX  11181 28952 125// 72501 10081 20065 49985 52019 69900 87500 333 10097;
0112289520999992000051121004+53220+063620FM-12+015699999V0203401N004010075019N9999999N1+00661+00381100061ADDGF107991071051008001999999MD1210201+9999REMSYN060AAXX  11211 28952 425// 73404 10066 20038 40006 52020 875//;
0171289520999992000051200004+53220+063620FM-12+015699999V0203401N003019999999N0005001N1+00571+00521100301ADDAY141061AY221061GF108991081001008001071999MA1999999098411MD1210221+9999MW1441REMSYN082AAXX  12001 28952 41593 83403 10057 20052 39841 40030 52022 74442 8807/ 555 1/006;
0228289520999992000051203004+53220+063620FM-12+015699999V0203201N003019999999N0200001N1+00531+00481100511ADDAA199000091AY141031AY221031GF108991081001999999011999GJ100009IA1119IA2999+00609MD1210211+9999MW1021REMSYN098AAXX  12031 28952 31998 83203 10053 20048 40051 52021 70242 8801/ 333 55000 555 20053 32006 7990/;EQDQ01  00002PRCP99
0174289520999992000051206004+53220+063620FM-12+015699999V0209999C000010075019N0100001N1+00611+00541100751ADDAA199000021AY151061AY241061GF108991081071008001999999KA1999N+00531MD1210241+9999MW1501REMSYN076AAXX  12061 28952 31597 80000 10061 20054 40075 52024 75054 887// 333 20053;
0140289520999992000051209004+53220+063620FM-12+015699999V0202701N002010075019N0200001N1+00741+00551100941ADDAY151031AY221031GF108991081091008001999999MD1210191+9999MW1021REMSYN066AAXX  12091 28952 41598 82702 10074 20055 40094 52019 70252 889//;
0171289520999992000051212004+53220+063620FM-12+015699999V0202701N002010075019N0200001N1+00821+00531101001ADDAY151061AY221061GF108991081091008001999999MA1999999099121MD1210071+9999MW1021REMSYN082AAXX  12121 28952 41598 82702 10082 20053 39912 40100 52007 70252 889// 555 1/012;
0145289520999992000051215004+53220+063620FM-12+015699999V0202701N001010075019N0200001N1+00771+00531101131ADDGF106991051091008001011001KA1120M+00821MD1210121+9999REMSYN080AAXX  12151 28952 /2598 62701 10077 20053 40113 52012 85910 333 10082 555 69902;
0171289520999992000051218004+53220+063620FM-12+015699999V0209999C000010075019N9999999N1+00591+00451101231ADDAA100999999GF107991071051008001999999KA1999M+00821MD1210101+9999REMSYN076AAXX  12181 28952 125// 70000 10059 20045 40123 52010 69000 875// 333 10082;EQDQ01  89992PRCP00
0112289520999992000051221004+53220+063620FM-12+015699999V0201801N001012200019N9999999N1+00491+00401101251ADDGF102991001001999999001011MD1210021+9999REMSYN060AAXX  12211 28952 429// 21801 10049 20040 40125 52002 80001;
0189289520999992000051300004+53220+063620FM-12+015699999V0201801N001019999999N0200001N1+00391+00291101281ADDAA199000091GF105991999091008001001001MA1999999099351MD1210011+9999REMSYN076AAXX  13001 28952 32598 51801 10039 20029 39935 40128 52001 86900 555 1/004;EQDQ01+000062SCOTLCQ02  00002PRCP99
0200289520999992000051303004+53220+063620FM-12+015699999V0201601N004019999999N0200001N1+00791+00591101271ADDAA199000091GF106991061001999999041001GJ100009IA1099IA2999+00409MD1210021+9999REMSYN092AAXX  13031 28952 32998 61604 10079 20059 40127 52002 86040 333 55000 555 20039 31004 7990/;EQDQ01  00002PRCP99
0165289520999992000051306004+53220+063620FM-12+015699999V0201601N006010075019N0200001N1+01411+00591101251ADDAA199000091GF107991071051008001999999KA1999N+00391MD1210031+9999REMSYN070AAXX  13061 28952 32598 71606 10141 20059 40125 52003 875// 333 20039;EQDQ01  00002PRCP99
0140289520999992000051309004+53220+063620FM-12+015699999V0202001N006010075019N0100001N1+01611+00411101241ADDAY121031AY221031GF108991081091008001999999MD1410001+9999MW1251REMSYN066AAXX  13091 28952 41597 82006 10161 20041 40124 54000 72522 889//;
0190289520999992000051312004+53220+063620FM-12+015699999V0201601N006019999999N0200001N1+01771+00401101171ADDAY181061AY221061GF106991999091008001001001MA1999999099341MD1810061+9999MW1021REMSYN082AAXX  13121 28952 41598 61606 10177 20040 39934 40117 58006 70282 87900 555 1/023;EQDQ01+000072SCOTLC
0145289520999992000051315004+53220+063620FM-12+015699999V0201401N004010075019N0200001N1+01641+00451101201ADDGF108991081091008001999999KA1120M+01851MD1310031+9999REMSYN080AAXX  13151 28952 /2598 81404 10164 20045 40120 53003 889// 333 10185 555 69902;
0152289520999992000051318004+53220+063620FM-12+015699999V0201401N004010075019N9999999N1+01391+00561101201ADDAA100000791GF108991081091008001999999KA1999M+01851MD1810031+9999REMSYN076AAXX  13181 28952 125// 81404 10139 20056 40120 58003 69900 889// 333 10185;
0112289520999992000051321004+53220+063620FM-12+015699999V0201401N005010075019N9999999N1+01371+00821101151ADDGF108991081091008001999999MD1710051+9999REMSYN060AAXX  13211 28952 425// 81405 10137 20082 40115 57005 889//;
0143289520999992000051400004+53220+063620FM-12+015699999V0201401N004010750019N0200001N1+01191+00641101131ADDGF105991021051008001031011MA1999999099261MD1710031+9999REMSYN076AAXX  14001 28952 42598 51404 10119 20064 39926 40113 57003 82531 555 1/009;
0200289520999992000051403004+53220+063620FM-12+015699999V0202701N002010075019N0200001N1+01161+00701101261ADDAA199000091GF107991071051008001001001GJ103969IA1019IA2999+00809MD1310131+9999REMSYN092AAXX  14031 28952 32598 72702 10116 20070 40126 53013 87500 333 55066 555 20113 30008 7990/;EQDQ01  00002PRCP99
0174289520999992000051406004+53220+063620FM-12+015699999V0209999C000010075019N0200001N1+01191+00801101151ADDAA199000021AY181061AY221061GF108991081091008001999999KA1999N+01131MD1810101+9999MW1251REMSYN076AAXX  14061 28952 31598 80000 10119 20080 40115 58010 72582 889// 333 20113;
0140289520999992000051409004+53220+063620FM-12+015699999V0202001N003010075019N0100001N1+01111+00851101091ADDAY181031AY221031GF108991081091008001999999MD1710061+9999MW1801REMSYN066AAXX  14091 28952 41597 82003 10111 20085 40109 57006 78082 889//;
0171289520999992000051412004+53220+063620FM-12+015699999V0201801N003010075019N0200001N1+01331+01041100931ADDAY101061AY221061GF108991081091008001999999MA1999999099081MD1710151+9999MW1821REMSYN082AAXX  14121 28952 41598 81803 10133 20104 39908 40093 57015 78202 889// 555 1/015;
0145289520999992000051415004+53220+063620FM-12+015699999V0202301N004010075019N0200001N1+00991+00431101051ADDGF107991071091008001001001KA1120M+01381MD1310091+9999REMSYN080AAXX  14151 28952 /2598 72304 10099 20043 40105 53009 87900 333 10138 555 60032;
0152289520999992000051418004+53220+063620FM-12+015699999V0209999C000012200019N9999999N1+00551+00331101181ADDAA100003091GF103991031091008001001001KA1999M+01381MD1210101+9999REMSYN076AAXX  14181 28952 125// 30000 10055 20033 40118 52010 60030 83900 333 10138;
0153289520999992000051500004+53220+063620FM-12+015699999V0202301N003012200019N0200001N1+00271+00031101451ADDGA1001+999999999GF100991001001999999001001MA1999999099521MD1210171+9999REMSYN070AAXX  15001 28952 42998 02303 10027 20003 39952 40145 52017 555 1/002;
0210289520999992000051503004+53220+063620FM-12+015699999V0202301N003012200019N0200001N1+00551-00091101581ADDAA199000091GA1001+999999999GF100991001001999999001001GJ100549IA1119IA2999+00209MD1210151+9999REMSYN086AAXX  15031 28952 32998 02303 10055 21009 40158 52015 333 55009 555 20025 32002 7003/;EQDQ01  00002PRCP99
0175289520999992000051506004+53220+063620FM-12+015699999V0202301N004012200019N0200001N1+00931-00301101751ADDAA199000091GA1001+999999999GF100991001001999999001001KA1999N+00251MD1210191+9999REMSYN064AAXX  15061 28952 32998 02304 10093 21030 40175 52019 333 20025;EQDQ01  00002PRCP99
0112289520999992000051509004+53220+063620FM-12+015699999V0202301N004010075019N0200001N1+01231-00301101761ADDGF105991051021008001001001MD1210021+9999REMSYN060AAXX  15091 28952 42598 52304 10123 21030 40176 52002 85200;
0143289520999992000051512004+53220+063620FM-12+015699999V0202001N003010075019N0200001N1+01351-00361101661ADDGF106991061021008001001001MA1999999099791MD1810091+9999REMSYN076AAXX  15121 28952 42598 62003 10135 21036 39979 40166 58009 86200 555 1/024;
0165289520999992000051515004+53220+063620FM-12+015699999V0201601N004012200019N0200001N1+01351-00541101491ADDAA199000091GF101991011001999999041001KA1999M+01451MD1710161+9999REMSYN070AAXX  15151 28952 32998 11604 10135 21054 40149 57016 81040 333 10145;EQDQ01  00002PRCP99
0175289520999992000051518004+53220+063620FM-12+015699999V0201401N003012200019N9999999N1+00891-00301101371ADDAA199000091GA1001+999999999GF100991001001999999001001KA1999M+01451MD1710141+9999REMSYN064AAXX  15181 28952 329// 01403 10089 21030 40137 57014 333 10145;EQDQ01  00002PRCP99
0112289520999992000051521004+53220+063620FM-12+015699999V0201401N005010075019N9999999N1+00941+00211101191ADDGF108991081091008001999999MD1710181+9999REMSYN060AAXX  15211 28952 425// 81405 10094 20021 40119 57018 889//;
0171289520999992000051600004+53220+063620FM-12+015699999V0202901N002010075019N0100001N1+00531+00341101271ADDAY181061AY211061GF108991081091008001999999MA1999999099361MD1310051+9999MW1801REMSYN082AAXX  16001 28952 41597 82902 10053 20034 39936 40127 53005 78081 889// 555 1/007;
0178289520999992000051603004+53220+063620FM-12+015699999V0202701N002010075019N0200001N1+00531+00231101321ADDAY181031AY221031GF106991061091008001001001MD1210051+9999MW1021REMSYN104AAXX  16031 28952 /1598 62702 10053 20023 40132 52005 70282 86900 333 55148 555 20039 31005 60022 7002/;
0180289520999992000051606004+53220+063620FM-12+015699999V0202701N004010120019N0200001N1+01021-00251101331ADDAA100002091AY181061AY221061GF105991051011012501001001KA1999N+00391MD1210041+9999MW1021REMSYN082AAXX  16061 28952 11698 52704 10102 21025 40133 52004 60020 70282 85100 333 20039;
0112289520999992000051609004+53220+063620FM-12+015699999V0202301N007010075019N0200001N1+01251-00051101281ADDGF107991071091008001001001MD1810031+9999REMSYN060AAXX  16091 28952 42598 72307 10125 21005 40128 58003 87900;
0143289520999992000051612004+53220+063620FM-12+015699999V0202301N005010120019N0200001N1+01281-00071101281ADDGF107991071021012501001001MA1999999099421MD1410001+9999REMSYN076AAXX  16121 28952 42698 72305 10128 21007 39942 40128 54000 87200 555 1/018;
0197289520999992000051615004+53220+063620FM-12+015699999V0202301N001019999999N0200001N1+01151+00171101291ADDAA199000091AY101031AY201031GF106991999999008001999999KA1999M+01311MD1410001+9999REMSYN070AAXX  16151 28952 32598 62301 10115 20017 40129 54000 76900 333 10131;EQDQ01+000692PRSWM1Q02  00002PRCP99
0165289520999992000051618004+53220+063620FM-12+015699999V0202301N001010075019N9999999N1+00841+00301101251ADDAA199000091GF106991061051008001001001KA1999M+01311MD1810051+9999REMSYN070AAXX  16181 28952 325// 62301 10084 20030 40125 58005 86500 333 10131;EQDQ01  00002PRCP99
0128289520999992000051621004+53220+063620FM-12+015699999V0202301N006012200019N9999999N1+00831+00411101011ADDGA1001+999999999GF100991001001999999001001MD1710241+9999REMSYN060AAXX  16211 28952 429// 02306 10083 20041 40101 57024 80001;
0162289520999992000051700004+53220+063620FM-12+015699999V0201801N008010075019N0200001N1+00951+00251100851ADDGF107991071051008001001999MA1999999999999MD1710161+9999REMSYN076AAXX  17001 28952 42598 71808 10095 20025 36897 40085 57016 8750/ 555 1/009;EQDQ01 068973APOSP 
0178289520999992000051703004+53220+063620FM-12+015699999V0201801N006010075019N0200001N1+00971+00091100801ADDAY121031AY221031GF108991081091008001999999MD1710051+9999MW1251REMSYN104AAXX  17031 28952 /1598 81806 10097 20009 40080 57005 72522 889// 333 55098 555 20083 31007 69902 7990/;
0180289520999992000051706004+53220+063620FM-12+015699999V0202301N006012200019N0200001N1+01621+00151100531ADDAA100000791AY181061AY211061GF102991001001999999001021KA1999N+00831MD1710211+9999MW1021REMSYN082AAXX  17061 28952 11998 22306 10162 20015 40053 57021 69900 70281 80002 333 20083;
0140289520999992000051709004+53220+063620FM-12+015699999V0201801N007010075019N0040001N1+01661+00301100391ADDAY181031AY211031GF108991081091008001999999MD1710131+9999MW1811REMSYN066AAXX  17091 28952 41596 81807 10166 20030 40039 57013 78181 889//;
0171289520999992000051712004+53220+063620FM-12+015699999V0201801N002010075019N0200001N1+01491+00841100391ADDAY181061AY211061GF105991051021008001001001MA1999999098561MD1710021+9999MW1021REMSYN082AAXX  17121 28952 41598 51802 10149 20084 39856 40039 57002 70281 85200 555 1/023;
0145289520999992000051715004+53220+063620FM-12+015699999V0202001N001010075019N0200001N1+01411+00971100331ADDGF106991061051008001001001KA1120M+01871MD1710061+9999REMSYN080AAXX  17151 28952 /2598 62001 10141 20097 40033 57006 86500 333 10187 555 60042;
0180289520999992000051718004+53220+063620FM-12+015699999V0209999C000010075019N9999999N1+01091+00851100271ADDAA100004191AY181061AY221061GF106991061051008001001001KA1999M+01871MD1710081+9999MW1021REMSYN082AAXX  17181 28952 115// 60000 10109 20085 40027 57008 60040 70282 86500 333 10187;
0112289520999992000051721004+53220+063620FM-12+015699999V0209999C000010075019N9999999N1+00821+00711100031ADDGF108991081091008001999999MD1710251+9999REMSYN060AAXX  17211 28952 425// 80000 10082 20071 40003 57025 889//;
0171289520999992000051800004+53220+063620FM-12+015699999V0209999C000010075019N0100001N1+00911+00771099741ADDAY181061AY221061GF108991081091008001999999MA1999999097881MD1710291+9999MW1801REMSYN082AAXX  18001 28952 41597 80000 10091 20077 39788 49974 57029 78082 889// 555 1/009;
0199289520999992000051806004+53220+063620FM-12+015699999V0202301N009010075019N0200001N1+00571+00171099391ADDAA100003091AY181061AY221061GF108991081091008001999999KA1999N+99999MD1710031+9999MW1021REMSYN082AAXX  18061 28952 11598 82309 10057 20017 49939 57003 60030 70282 889// 333 20082;EQDQ01 +00822ATMN  
0140289520999992000051809004+53220+063620FM-12+015699999V0202301N008010075019N0100001N1+00381+00181099621ADDAY181031AY221031GF108991081091008001999999MD1310211+9999MW1801REMSYN066AAXX  18091 28952 42597 82308 10038 20018 49962 53021 78082 889//;
0171289520999992000051812004+53220+063620FM-12+015699999V0202001N008010075019N0200001N1+00791+00151100001ADDAY181061AY221061GF107991071091008001001001MA1999999098131MD1210401+9999MW1021REMSYN082AAXX  18121 28952 41598 72008 10079 20015 39813 40000 52040 70282 87900 555 1/012;
0145289520999992000051815004+53220+063620FM-12+015699999V0202301N005012200019N0200001N1+00791+00131100211ADDGF102991021091008001001001KA1120M+00971MD1210201+9999REMSYN080AAXX  18151 28952 /2598 22305 10079 20013 40021 52020 82900 333 10097 555 69992;
0162289520999992000051818004+53220+063620FM-12+015699999V0202301N005012200019N9999999N1+00671+00001100381ADDAA100001091GA1001+999999999GF100991001001999999001001KA1999M+00971MD1210171+9999REMSYN070AAXX  18181 28952 129// 02305 10067 20000 40038 52017 69990 333 10097;
0122289520999992000051821004+53220+063620FM-12+015699999V0202301N005012200019N9999999N1+00541+00081100551ADDGA1001+999999999GF100991001001999999001001MD1210161+9999REMSYN054AAXX  18211 28952 429// 02305 10054 20008 40055 52016;
0153289520999992000051900004+53220+063620FM-12+015699999V0202001N004012200019N0200001N1+00351-00061100611ADDGA1001+999999999GF100991001001999999001001MA1999999098701MD1210041+9999REMSYN070AAXX  19001 28952 42998 02004 10035 21006 39870 40061 52004 555 1/002;
0200289520999992000051903004+53220+063620FM-12+015699999V0201801N004010075019N0200001N1+00491-00041100581ADDAA199000091GF108991081091008001999999GJ103069IA1099IA2999+00209MD1810011+9999REMSYN092AAXX  19031 28952 32598 81804 10049 21004 40058 58001 889// 333 55051 555 20035 31002 7999/;EQDQ01  00002PRCP99
0165289520999992000051906004+53220+063620FM-12+015699999V0202001N006010075019N0200001N1+00991+00231100531ADDAA199000091GF107991071091008001001001KA1999N+00351MD1710031+9999REMSYN070AAXX  19061 28952 32598 72006 10099 20023 40053 57003 87900 333 20035;EQDQ01  00002PRCP99
0112289520999992000051909004+53220+063620FM-12+015699999V0202301N005010075019N0200001N1+01111+00111100411ADDGF107991071091008001001001MD1710101+9999REMSYN060AAXX  19091 28952 42598 72305 10111 20011 40041 57010 87900;
0143289520999992000051912004+53220+063620FM-12+015699999V0202301N005010075019N0200001N1+01211+00001100201ADDGF107991071091008001001001MA1999999098351MD1710211+9999REMSYN076AAXX  19121 28952 42598 72305 10121 20000 39835 40020 57021 87900 555 1/017;
0173289520999992000051915004+53220+063620FM-12+015699999V0201801N003010075019N0200001N1+00911+00411099961ADDAY181031AY221031GF106991061091008001001001KA1120M+01301MD1710251+9999MW1251REMSYN086AAXX  19151 28952 /1598 61803 10091 20041 49996 57025 72582 86900 333 10130 555 60012;
0180289520999992000051918004+53220+063620FM-12+015699999V0201801N002012200019N9999999N1+00611+00051099911ADDAA100001091AY181061AY211061GF102991021091008001001001KA1999M+01301MD1710071+9999MW1011REMSYN082AAXX  19181 28952 115// 21802 10061 20005 49991 57007 60010 70181 82900 333 10130;
0112289520999992000051921004+53220+063620FM-12+015699999V0201801N002010075019N9999999N1+00471+00171099791ADDGF107991071091008001001001MD1710121+9999REMSYN060AAXX  19211 28952 425// 71802 10047 20017 49979 57012 87900;
0143289520999992000052000004+53220+063620FM-12+015699999V0202001N005010075019N0200001N1+00491+00131099781ADDGF107991071091008001001001MA1999999097901MD1710011+9999REMSYN076AAXX  20001 28952 42598 72005 10049 20013 39790 49978 57001 87900 555 1/004;
0191289520999992000052003004+53220+063620FM-12+015699999V0202301N005012200019N0200001N1+00631+00101099811ADDAA199000021GA1001+999999999GF100991001001999999001001GJ101869IA1119IA2999+00409MD1310031+9999REMSYN086AAXX  20031 28952 32998 02305 10063 20010 49981 53003 333 55031 555 20047 32004 7001/;
0193289520999992000052006004+53220+063620FM-12+015699999V0209999V007010075019N0200001N1+00831-00141099831ADDAA199000091AY181061AY211061GF108991081091008001999999KA1999N+00471MD1210031+9999MW1031REMSYN076AAXX  20061 28952 32598 89907 10083 21014 49983 52003 70381 889// 333 20047;EQDQ01  00002PRCP99
0140289520999992000052009004+53220+063620FM-12+015699999V0209999V010010075019N0100001N1+00591+00301099961ADDAY181031AY221031GF108991081091008001999999MD1210121+9999MW1801REMSYN066AAXX  20091 28952 41597 89910 10059 20030 49996 52012 78082 889//;
0171289520999992000052012004+53220+063620FM-12+015699999V0209999V010010075019N0200001N1+00751+00271100021ADDAY181061AY221061GF106991061091008001001001MA1999999098151MD1210071+9999MW1251REMSYN082AAXX  20121 28952 41598 69910 10075 20027 39815 40002 52007 72582 86900 555 1/012;
0145289520999992000052015004+53220+063620FM-12+015699999V0209999V007010750019N0200001N1+00851+00171100071ADDGF106991021041008001001091KA1120M+00901MD1210061+9999REMSYN080AAXX  20151 28952 /2598 69907 10085 20017 40007 52006 82409 333 10090 555 60012;
0162289520999992000052018004+53220+063620FM-12+015699999V0202301N004012200019N9999999N1+00651+00211100191ADDAA100001091GA1001+999999999GF100991001001999999001001KA1999M+00901MD1210101+9999REMSYN070AAXX  20181 28952 129// 02304 10065 20021 40019 52010 60010 333 10090;
0112289520999992000052021004+53220+063620FM-12+015699999V0202301N003010075019N9999999N1+00631+00321100221ADDGF105991051051008001001001MD1210031+9999REMSYN060AAXX  20211 28952 425// 52303 10063 20032 40022 52003 85500;
0153289520999992000052100004+53220+063620FM-12+015699999V0201801N002012200019N0200001N1+00291+00141100201ADDGA1001+999999999GF100991001001999999001001MA1999999098291MD1810051+9999REMSYN070AAXX  21001 28952 42998 01802 10029 20014 39829 40020 58005 555 1/003;
0210289520999992000052103004+53220+063620FM-12+015699999V0202301N002012200019N0200001N1+00611+00161100311ADDAA199000091GA1001+999999999GF100991001001999999001001GJ104449IA1099IA2999+00209MD1310131+9999REMSYN086AAXX  21031 28952 32998 02302 10061 20016 40031 53013 333 55074 555 20029 31002 7001/;EQDQ01  00002PRCP99
0165289520999992000052106004+53220+063620FM-12+015699999V0202701N002010075019N0200001N1+01091+00111100251ADDAA199000091GF107991071091008001001001KA1999N+00291MD1410001+9999REMSYN070AAXX  21061 28952 32598 72702 10109 20011 40025 54000 87900 333 20029;EQDQ01  00002PRCP99
0140289520999992000052109004+53220+063620FM-12+015699999V0202701N005010075019N0200001N1+01031+00381100241ADDAY121031AY221031GF108991081091008001999999MD1810031+9999MW1251REMSYN066AAXX  21091 28952 41598 82705 10103 20038 40024 58003 72522 889//;
0171289520999992000052112004+53220+063620FM-12+015699999V0202701N005010075019N0200001N1+01101+00301100331ADDAY181061AY221061GF107991071091008001001001MA1999999098481MD1310091+9999MW1021REMSYN082AAXX  21121 28952 41598 72705 10110 20030 39848 40033 53009 70282 87900 555 1/019;
0173289520999992000052115004+53220+063620FM-12+015699999V0202901N004010075019N0200001N1+00951+00301100451ADDAY181031AY221031GF106991061091008001001001KA1120M+01101MD1210101+9999MW1021REMSYN086AAXX  21151 28952 /1598 62904 10095 20030 40045 52010 70282 86900 333 10110 555 69902;
0180289520999992000052118004+53220+063620FM-12+015699999V0209999C000010075019N9999999N1+00661+00331100571ADDAA100000791AY181061AY221061GF106991051091008001001011KA1999M+01101MD1210111+9999MW1011REMSYN082AAXX  21181 28952 115// 60000 10066 20033 40057 52011 69900 70182 85901 333 10110;
0122289520999992000052121004+53220+063620FM-12+015699999V0209999C000012200019N9999999N1+00541+00251100611ADDGA1001+999999999GF100991001001999999001001MD1210031+9999REMSYN054AAXX  21211 28952 429// 00000 10054 20025 40061 52003;
0143289520999992000052200004+53220+063620FM-12+015699999V0209999C000019999999N0200001N1+00351+00171100711ADDGF106991061001999999031001MA1999999098791MD1210071+9999REMSYN076AAXX  22001 28952 42998 60000 10035 20017 39879 40071 52007 86030 555 1/003;
0194289520999992000052203004+53220+063620FM-12+015699999V0203201N001019999999N0200001N1+00691+00461100861ADDAA199000091GF105991999999012501999999GJ105049IA1099IA2999+00309MD1210181+9999REMSYN086AAXX  22031 28952 32698 53201 10069 20046 40086 52018 333 55084 555 20035 31003 7990/;EQDQ01  00002PRCP99
0165289520999992000052206004+53220+063620FM-12+015699999V0202701N004010075019N0200001N1+01151+00111100971ADDAA199000091GF107991071091008001001001KA1999N+00351MD1210141+9999REMSYN070AAXX  22061 28952 32598 72704 10115 20011 40097 52014 87900 333 20035;EQDQ01  00002PRCP99
0112289520999992000052209004+53220+063620FM-12+015699999V0202701N003010075019N0200001N1+01111+00301101091ADDGF107991071091008001001001MD1210121+9999REMSYN060AAXX  22091 28952 42598 72703 10111 20030 40109 52012 87900;
0173289520999992000052215004+53220+063620FM-12+015699999V0203201N001012200019N0200001N1+01171+00451101311ADDAY181031AY221031GF105991021021012501001011KA1120M+01321MD1210051+9999MW1011REMSYN086AAXX  22151 28952 /1698 53201 10117 20045 40131 52005 70182 82201 333 10132 555 69902;
0180289520999992000052218004+53220+063620FM-12+015699999V0203201N001010075019N9999999N1+00721+00551101491ADDAA100000791AY181061AY221061GF106991061091008001001001KA1999M+01321MD1210151+9999MW1021REMSYN082AAXX  22181 28952 115// 63201 10072 20055 40149 52015 69900 70282 86900 333 10132;
0112289520999992000052221004+53220+063620FM-12+015699999V0209999C000012200019N9999999N1+00611+00501101561ADDGF103991031001999999041001MD1210071+9999REMSYN060AAXX  22211 28952 429// 30000 10061 20050 40156 52007 83040;
0143289520999992000052300004+53220+063620FM-12+015699999V0209999C000010075019N0200001N1+00521+00431101591ADDGF107991071051008001001001MA1999999099681MD1210021+9999REMSYN076AAXX  23001 28952 42598 70000 10052 20043 39968 40159 52002 87500 555 1/005;
0178289520999992000052303004+53220+063620FM-12+015699999V0209999C000010075019N0100001N1+00771+00651101691ADDAY181031AY221031GF108991081091008001999999MD1210101+9999MW1801REMSYN104AAXX  23031 28952 /1597 80000 10077 20065 40169 52010 78082 889// 333 55077 555 20050 32005 69902 7990/;
0180289520999992000052306004+53220+063620FM-12+015699999V0209999C000010075019N0200001N1+00961+00761101761ADDAA100000791AY181061AY221061GF106991061091008001001001KA1999N+00501MD1210091+9999MW1021REMSYN082AAXX  23061 28952 11598 60000 10096 20076 40176 52009 69900 70282 86900 333 20050;
0112289520999992000052309004+53220+063620FM-12+015699999V0203601N001010075019N0200001N1+01291+00551101781ADDGF105991051091008001001001MD1210041+9999REMSYN060AAXX  23091 28952 42598 53601 10129 20055 40178 52004 85900;
0171289520999992000052312004+53220+063620FM-12+015699999V0201401N002010075019N0100001N1+01401+00481101801ADDAY181061AY221061GF106991061091008001001001MA1999999099941MD1210031+9999MW1801REMSYN082AAXX  23121 28952 41597 61402 10140 20048 39994 40180 52003 78082 86900 555 1/015;
0173289520999992000052315004+53220+063620FM-12+015699999V0209999C000010075019N0200001N1+01231+00711101841ADDAY181031AY221031GF106991061091008001001001KA1120M+01511MD1210031+9999MW1021REMSYN086AAXX  23151 28952 /1598 60000 10123 20071 40184 52003 70282 86900 333 10151 555 60042;
0190289520999992000052318004+53220+063620FM-12+015699999V0209999C000012200019N9999999N1+00791+00611101911ADDAA100004191AY181061AY211061GA1001+999999999GF100991001001999999001001KA1999M+01511MD1210031+9999MW1011REMSYN076AAXX  23181 28952 119// 00000 10079 20061 40191 52003 60040 70181 333 10151;
0122289520999992000052321004+53220+063620FM-12+015699999V0209999C000012200019N9999999N1+00521+00401102031ADDGA1001+999999999GF100991001001999999001001MD1210111+9999REMSYN054AAXX  23211 28952 429// 00000 10052 20040 40203 52011;
0153289520999992000052400004+53220+063620FM-12+015699999V0209999C000012200019N0200001N1+00311+00261102101ADDGA1001+999999999GF100991001001999999001001MA1999999100161MD1210051+9999REMSYN070AAXX  24001 28952 42998 00000 10031 20026 30016 40210 52005 555 1/002;
0210289520999992000052403004+53220+063620FM-12+015699999V0200501N001012200019N0200001N1+00891+00561102101ADDAA199000091GA1001+999999999GF100991001001999999001001GJ103249IA1119IA2999+00209MD1210051+9999REMSYN086AAXX  24031 28952 32998 00501 10089 20056 40210 52005 333 55054 555 20031 32002 70041;EQDQ01  00002PRCP99
0175289520999992000052406004+53220+063620FM-12+015699999V0203201N001012200019N0200001N1+01621+00431102041ADDAA199000091GA1001+999999999GF100991001001999999001001KA1999N+00311MD1810011+9999REMSYN064AAXX  24061 28952 32998 03201 10162 20043 40204 58001 333 20031;EQDQ01  00002PRCP99
0112289520999992000052409004+53220+063620FM-12+015699999V0203401N001012200019N0200001N1+02001+00171101981ADDGF102991021091008001001001MD1710051+9999REMSYN060AAXX  24091 28952 42598 23401 10200 20017 40198 57005 82900;
0143289520999992000052412004+53220+063620FM-12+015699999V0203401N003010075019N0200001N1+02161+00321101971ADDGF106991061091008001001001MA1999999100151MD1410001+9999REMSYN076AAXX  24121 28952 42598 63403 10216 20032 30015 40197 54000 86900 555 1/034;
0173289520999992000052415004+53220+063620FM-12+015699999V0209999C000010075019N0200001N1+01551+01021101941ADDAY181031AY221031GF107991071091008001001001KA1120M+02191MD1810061+9999MW1021REMSYN086AAXX  24151 28952 /1598 70000 10155 20102 40194 58006 70282 87900 333 10219 555 69932;
0190289520999992000052418004+53220+063620FM-12+015699999V0209999C000012200019N9999999N1+01231+00921101941ADDAA112000391AY181061AY211061GA1001+999999999GF100991001001999999001001KA1999M+02191MD1710021+9999MW1011REMSYN076AAXX  24181 28952 119// 00000 10123 20092 40194 57002 69932 70181 333 10219;
0130289520999992000052421004+53220+063620FM-12+015699999V0209999C000012200019N9999999N1+01231+00761101991ADDAY101031AY251031GA1001+999999999GF100991001001999999001001MW1301REMSYN054AAXX  24211 28952 429// 00000 10123 20076 40199 73005;
0153289520999992000052500004+53220+063620FM-12+015699999V0209999C000012200019N0200001N1+01011+00781102001ADDGA1001+999999999GF100991001001999999001001MA1999999100121MD1410001+9999REMSYN070AAXX  25001 28952 42998 00000 10101 20078 30012 40200 54000 555 1/006;
0210289520999992000052503004+53220+063620FM-12+015699999V0203201N001012200019N0200001N1+01591+00771102011ADDAA199000091GA1001+999999999GF100991001001999999001001GJ107269IA1099IA2999+00609MD1310051+9999REMSYN086AAXX  25031 28952 32998 03201 10159 20077 40201 53005 333 55121 555 20101 31006 7993/;EQDQ01  00002PRCP99
0165289520999992000052506004+53220+063620FM-12+015699999V0203601N003012200019N0200001N1+02241+00551101961ADDAA199000091GF101991011011012501001001KA1999N+01011MD1810011+9999REMSYN070AAXX  25061 28952 32698 13603 10224 20055 40196 58001 81100 333 20101;EQDQ01  00002PRCP99
0112289520999992000052509004+53220+063620FM-12+015699999V0202901N002012200019N0200001N1+02381+00361101841ADDGF103991031021008001001001MD1710121+9999REMSYN060AAXX  25091 28952 42598 32902 10238 20036 40184 57012 83200;
0143289520999992000052512004+53220+063620FM-12+015699999V0202901N002012200019N0200001N1+02461+00381101751ADDGF102991021021008001001001MA1999999099961MD1710081+9999REMSYN076AAXX  25121 28952 42598 22902 10246 20038 39996 40175 57008 82200 555 1/041;
0175289520999992000052518004+53220+063620FM-12+015699999V0209999C000012200019N9999999N1+01491+00971101781ADDAA199000091GA1001+999999999GF100991001001999999001001KA1999M+02501MD1310021+9999REMSYN064AAXX  25181 28952 329// 00000 10149 20097 40178 53002 333 10250;EQDQ01  00002PRCP99
0122289520999992000052521004+53220+063620FM-12+015699999V0209999C000012200019N9999999N1+01191+00851101721ADDGA1001+999999999GF100991001001999999001001MD1810081+9999REMSYN054AAXX  25211 28952 429// 00000 10119 20085 40172 58008;
0153289520999992000052600004+53220+063620FM-12+015699999V0209999C000012200019N0200001N1+00991+00711101741ADDGA1001+999999999GF100991001001999999001001MA1999999099851MD1410001+9999REMSYN070AAXX  26001 28952 42998 00000 10099 20071 39985 40174 54000 555 1/006;
0210289520999992000052603004+53220+063620FM-12+015699999V0209999C000012200019N0200001N1+01721+01031101711ADDAA199000091GA1001+999999999GF100991001001999999001001GJ108949IA1019IA2999+00609MD1310021+9999REMSYN086AAXX  26031 28952 32998 00000 10172 20103 40171 53002 333 55149 555 20098 30006 7000/;EQDQ01  00002PRCP99
0165289520999992000052606004+53220+063620FM-12+015699999V0202301N001019999999N0200001N1+02301+00841101571ADDAA199000091GF107991001001999999001021KA1999N+00981MD1810101+9999REMSYN070AAXX  26061 28952 32998 72301 10230 20084 40157 58010 80002 333 20098;EQDQ01  00002PRCP99
0112289520999992000052609004+53220+063620FM-12+015699999V0202301N002010750019N0200001N1+02541+00781101451ADDGF107991021011012501001021MD1710101+9999REMSYN060AAXX  26091 28952 42698 72302 10254 20078 40145 57010 82102;
0143289520999992000052612004+53220+063620FM-12+015699999V0202301N002010120019N0200001N1+02541+00811101301ADDGF108991051021012501001021MA1999999099521MD1710151+9999REMSYN076AAXX  26121 28952 42698 82302 10254 20081 39952 40130 57015 85202 555 1/039;
0165289520999992000052615004+53220+063620FM-12+015699999V0209999C000010750019N0200001N1+02241+01261101151ADDAA199000091GF108991031021012501001021KA1999M+02541MD1710171+9999REMSYN070AAXX  26151 28952 32698 80000 10224 20126 40115 57017 83202 333 10254;EQDQ01  00002PRCP99
0174289520999992000052618004+53220+063620FM-12+015699999V0202301N001010075019N9999999N1+01831+00941101011ADDAA199000021AY121061AY221061GF108991061091008001001021KA1999M+02541MD1710151+9999MW1801REMSYN076AAXX  26181 28952 315// 82301 10183 20094 40101 57015 78022 86902 333 10254;
0112289520999992000052621004+53220+063620FM-12+015699999V0202301N002010075019N9999999N1+01771+01091100751ADDGF108991051091008001001021MD1710261+9999REMSYN060AAXX  26211 28952 415// 82302 10177 20109 40075 57026 85902;
0150289520999992000052700004+53220+063620FM-12+015699999V0201401N003010075019N0200001N1+01701+01461100621ADDAY181061AY221061GF107991071051008001001001MD1710141+9999MW1021REMSYN076AAXX  27001 28952 41598 71403 10170 20146 40062 57014 70282 87500 555 1/015;
0150289520999992000052703004+53220+063620FM-12+015699999V0201401N003019999999N0200001N1+01851+01381100491ADDGF106991001001999999001091MD1710111+9999REMSYN098AAXX  27031 28952 /2998 61403 10185 20138 40049 57011 80009 333 55124 555 20170 30015 69902 7990/;
0152289520999992000052706004+53220+063620FM-12+015699999V0202701N007010120019N0200001N1+01981+01041100491ADDAA100000791GF105991051021012501001001KA1999N+01701MD1310011+9999REMSYN076AAXX  27061 28952 12698 52707 10198 20104 40049 53001 69900 85200 333 20170;
0112289520999992000052709004+53220+063620FM-12+015699999V0202701N006010075019N0200001N1+01921+00921100581ADDGF107991071091008001001001MD1210071+9999REMSYN060AAXX  27091 28952 42598 72706 10192 20092 40058 52007 87900;
0171289520999992000052712004+53220+063620FM-12+015699999V0203201N003010075019N0200001N1+01591+00931100661ADDAY181061AY221061GF107991071091008001001001MA1999999098841MD1210071+9999MW1021REMSYN082AAXX  27121 28952 41598 73203 10159 20093 39884 40066 52007 70282 87900 555 1/021;
0173289520999992000052715004+53220+063620FM-12+015699999V0203201N002010075019N0200001N1+01611+00801100661ADDAY181031AY221031GF107991071091008001001001KA1120M+02061MD1410001+9999MW1251REMSYN086AAXX  27151 28952 /1598 73202 10161 20080 40066 54000 72582 87900 333 10206 555 69902;
0180289520999992000052718004+53220+063620FM-12+015699999V0202701N003012200019N9999999N1+01421+00921100701ADDAA100000791AY181061AY221061GF106991021051008001001011KA1999M+02061MD1310021+9999MW1021REMSYN082AAXX  27181 28952 115// 62703 10142 20092 40070 53002 69900 70282 82501 333 10206;
0112289520999992000052721004+53220+063620FM-12+015699999V0202701N003012200019N9999999N1+01411+01001100691ADDGF102991021051008001001001MD1810011+9999REMSYN060AAXX  27211 28952 425// 22703 10141 20100 40069 58001 82500;
0143289520999992000052800004+53220+063620FM-12+015699999V0209999C000012200019N0200001N1+01211+00931100721ADDGF102991021051008001001011MA1999999098871MD1310021+9999REMSYN076AAXX  28001 28952 42598 20000 10121 20093 39887 40072 53002 82501 555 1/010;
0197289520999992000052803004+53220+063620FM-12+015699999V0203201N003012200019N0200001N1+01641+00951100771ADDAA112999929GA1001+999999999GF100991001001999999001001GJ104629IA1019IA2999+01009MD1210081+9999REMSYN092AAXX  28031 28952 /2998 03203 10164 20095 40077 52008 333 55077 555 20121 30010 69902 7990/;
0152289520999992000052806004+53220+063620FM-12+015699999V0203201N007012200019N0200001N1+02071+00561100781ADDAA100000791GF102991021011012501001001KA1999N+01211MD1210031+9999REMSYN076AAXX  28061 28952 12698 23207 10207 20056 40078 52003 69900 82100 333 20121;
0112289520999992000052809004+53220+063620FM-12+015699999V0202701N004010075019N0200001N1+02281+00581100691ADDGF106991061091008001001001MD1810081+9999REMSYN060AAXX  28091 28952 42598 62704 10228 20058 40069 58008 86900;
0162289520999992000052812004+53220+063620FM-12+015699999V0202701N007019999999N0200001N1+02291+00581100511ADDGF105991999091008001001001MA1999999098731MD1710171+9999REMSYN076AAXX  28121 28952 42598 52707 10229 20058 39873 40051 57017 86900 555 1/028;EQDQ01+000062SCOTLC
0165289520999992000052815004+53220+063620FM-12+015699999V0203201N001019999999N0200001N1+02141+00851100411ADDAA199000091GF107991071001999999031001KA1999M+02481MD1710111+9999REMSYN070AAXX  28151 28952 32998 73201 10214 20085 40041 57011 87030 333 10248;EQDQ01  00002PRCP99
0174289520999992000052818004+53220+063620FM-12+015699999V0203601N001010075019N9999999N1+01411+01281100431ADDAA199000021AY181061AY221061GF108991081091008001999999KA1999M+02481MD1710021+9999MW1801REMSYN076AAXX  28181 28952 315// 83601 10141 20128 40043 57002 78082 889// 333 10248;
0118289520999992000052821004+53220+063620FM-12+015699999V0203601N001019999999N9999999N1+01411+01301100241ADDGF108991999999008001999999MD1710191+9999MW1891REMSYN060AAXX  28211 28952 415// 83601 10141 20130 40024 57019 789//;
0171289520999992000052900004+53220+063620FM-12+015699999V0203201N001010075019N0200001N1+01271+01101100151ADDAY181061AY221061GF106991061091008001001001MA1999999098311MD1710101+9999MW1021REMSYN082AAXX  29001 28952 41598 63201 10127 20110 39831 40015 57010 70282 86900 555 1/012;
0178289520999992000052903004+53220+063620FM-12+015699999V0203201N001010075019N0200001N1+01331+00891100161ADDAY181031AY221031GF106991061091008001001001MD1310011+9999MW1021REMSYN104AAXX  29031 28952 /1598 63201 10133 20089 40016 53001 70282 86900 333 55124 555 20126 32012 60052 7005/;
0171289520999992000052906004+53220+063620FM-12+015699999V0202701N007010075019N0200001N1+01581+00481100121ADDAA100005191GF106991061091008001001001KA1999M+99999MD1810031+9999REMSYN076AAXX  29061 28952 12598 62707 10158 20048 40012 58003 60050 86900 333 10126;EQDQ01 +01262ATMX  
0140289520999992000052909004+53220+063620FM-12+015699999V0203201N007010075019N0200001N1+01541+00381100121ADDAY121031AY251031GF106991061091008001001001MD1310011+9999MW1021REMSYN066AAXX  29091 28952 41598 63207 10154 20038 40012 53001 70225 86900;
0171289520999992000052912004+53220+063620FM-12+015699999V0203201N007010075019N0200001N1+01511+00461100231ADDAY181061AY221061GF107991071091008001001001MA1999999098401MD1210101+9999MW1021REMSYN082AAXX  29121 28952 41598 73207 10151 20046 39840 40023 52010 70282 87900 555 1/022;
0145289520999992000052915004+53220+063620FM-12+015699999V0203201N007010075019N0200001N1+01331+00551100231ADDGF107991071091008001001001KA1120M+01751MD1810011+9999REMSYN080AAXX  29151 28952 /2598 73207 10133 20055 40023 58001 87900 333 10175 555 69902;
0180289520999992000052918004+53220+063620FM-12+015699999V0202701N003010075019N9999999N1+01091+00901100221ADDAA100000791AY101061AY221061GF108991081091008001999999KA1999M+01751MD1710021+9999MW1801REMSYN082AAXX  29181 28952 115// 82703 10109 20090 40022 57002 69900 78002 889// 333 10175;
0140289520999992000052921004+53220+063620FM-12+015699999V0202701N002010075019N9999999N1+01241+01061100111ADDAY181031AY221031GF108991081091008001999999MD1710101+9999MW1021REMSYN066AAXX  29211 28952 415// 82702 10124 20106 40011 57010 70282 889//;
0171289520999992000053000004+53220+063620FM-12+015699999V0203201N003010075019N0100001N1+01311+01181100071ADDAY181061AY221061GF108991081091008001999999MA1999999098241MD1710031+9999MW1801REMSYN082AAXX  30001 28952 41597 83203 10131 20118 39824 40007 57003 78082 889// 555 1/013;
0178289520999992000053003004+53220+063620FM-12+015699999V0203201N005010075019N0200001N1+01391+01241100231ADDAY181031AY221031GF108991081091008001999999MD1310161+9999MW1021REMSYN104AAXX  30031 28952 /1598 83205 10139 20124 40023 53016 70282 889// 333 55088 555 20109 31011 60032 7003/;
0180289520999992000053006004+53220+063620FM-12+015699999V0203201N006010075019N0200001N1+01631+01091100391ADDAA100003091AY181061AY221061GF108991081091008001999999KA1999N+01091MD1210181+9999MW1021REMSYN082AAXX  30061 28952 11598 83206 10163 20109 40039 52018 60030 70282 889// 333 20109;
0112289520999992000053009004+53220+063620FM-12+015699999V0203201N006010075019N0200001N1+01581+00991100581ADDGF108991081091008001999999MD1210181+9999REMSYN060AAXX  30091 28952 42598 83206 10158 20099 40058 52018 889//;
0149289520999992000053012004+53220+063620FM-12+015699999V0203201N006019999999N0200001N1+01701+00921100691ADDGF108991999999008001999999MA1999999098871MD1210111+9999MW1891REMSYN076AAXX  30121 28952 42598 83206 10170 20092 39887 40069 52011 789// 555 1/021;
0146289520999992000053015004+53220+063620FM-12+015699999V0203601N004010075019N0200001N1+01391+00781100851ADDAA199000021GF108991081091008001999999KA1999M+01701MD1210141+9999REMSYN070AAXX  30151 28952 32598 83604 10139 20078 40085 52014 889// 333 10170;
0146289520999992000053018004+53220+063620FM-12+015699999V0203201N005010075019N9999999N1+01271+00671100921ADDAA199000021GF107991071091008001001001KA1999M+01701MD1210061+9999REMSYN070AAXX  30181 28952 325// 73205 10127 20067 40092 52006 87900 333 10170;
0112289520999992000053021004+53220+063620FM-12+015699999V0203601N005010075019N9999999N1+01061+00591101031ADDGF108991081091008001999999MD1210101+9999REMSYN060AAXX  30211 28952 425// 83605 10106 20059 40103 52010 889//;
0143289520999992000053100004+53220+063620FM-12+015699999V0203201N001010075019N0200001N1+00891+00781101091ADDGF107991071091008001001001MA1999999099211MD1210041+9999REMSYN076AAXX  31001 28952 42598 73201 10089 20078 39921 40109 52004 87900 555 1/009;
0200289520999992000053103004+53220+063620FM-12+015699999V0203601N003010075019N0200001N1+01091+00681101071ADDAA199000091GF107991071091008001001001GJ101509IA1019IA2999+00909MD1410001+9999REMSYN092AAXX  31031 28952 32598 73603 10109 20068 40107 54000 87900 333 55025 555 20089 30009 7000/;EQDQ01  00002PRCP99
0165289520999992000053106004+53220+063620FM-12+015699999V0203601N004010120019N0200001N1+01551+00621101101ADDAA199000091GF106991051081008001001011KA1999N+00891MD1310041+9999REMSYN070AAXX  31061 28952 32598 63604 10155 20062 40110 53004 85801 333 20089;EQDQ01  00002PRCP99
0112289520999992000053109004+53220+063620FM-12+015699999V0203601N004010120019N0200001N1+01941+00321101071ADDGF106991051021012501001091MD1410001+9999REMSYN060AAXX  31091 28952 42698 63604 10194 20032 40107 54000 85209;
0143289520999992000053112004+53220+063620FM-12+015699999V0203601N003010075019N0200001N1+01911+00431101071ADDGF106991061091008001001001MA1999999099251MD1410001+9999REMSYN076AAXX  31121 28952 42598 63603 10191 20043 39925 40107 54000 86900 555 1/023;
0165289520999992000053115004+53220+063620FM-12+015699999V0203601N001012200019N0200001N1+01881+00291101171ADDAA199000091GF102991021011012501001001KA1999M+01941MD1310101+9999REMSYN070AAXX  31151 28952 32698 23601 10188 20029 40117 53010 82100 333 10194;EQDQ01  00002PRCP99
0175289520999992000053118004+53220+063620FM-12+015699999V0209999C000012200019N9999999N1+01251+00501101271ADDAA199000091GA1001+999999999GF100991001001999999001001KA1999M+01941MD1210061+9999REMSYN064AAXX  31181 28952 329// 00000 10125 20050 40127 52006 333 10194;EQDQ01  00002PRCP99
0112289520999992000053121004+53220+063620FM-12+015699999V0209999C000019999999N9999999N1+01041+00481101281ADDGF106991061001999999031001MD1410001+9999REMSYN060AAXX  31211 28952 429// 60000 10104 20048 40128 54000 86030;
0143289520999992000060100004+53220+063620FM-12+015699999V0209999C000010075019N0200001N1+00831+00591101301ADDGF106991061051008001001001MA1999999099421MD1310011+9999REMSYN076AAXX  01001 28952 42598 60000 10083 20059 39942 40130 53001 86500 555 1/007;
0210289520999992000060103004+53220+063620FM-12+015699999V0203601N002012200019N0200001N1+01271+00361101321ADDAA199000091GA1001+999999999GF100991001001999999001001GJ105589IA1019IA2999+00709MD1210041+9999REMSYN086AAXX  01031 28952 32998 03602 10127 20036 40132 52004 333 55093 555 20083 30007 7000/;EQDQ01  00002PRCP99
0165289520999992000060106004+53220+063620FM-12+015699999V0203601N008012200019N0200001N1+01601-00221101391ADDAA199000091GF102991021011012501001001KA1999N+00831MD1210081+9999REMSYN070AAXX  01061 28952 32698 23608 10160 21022 40139 52008 82100 333 20083;EQDQ01  00002PRCP99
0112289520999992000060109004+53220+063620FM-12+015699999V0203601N006012200019N0200001N1+01821-00271101341ADDGF101991011011012501001001MD1810011+9999REMSYN060AAXX  01091 28952 42698 13606 10182 21027 40134 58001 81100;
0143289520999992000060112004+53220+063620FM-12+015699999V0203601N005012200019N0200001N1+01861-00641101371ADDGF101991011011012501001001MA1999999099541MD1310031+9999REMSYN076AAXX  01121 28952 42698 13605 10186 21064 39954 40137 53003 81100 555 1/036;
0175289520999992000060115004+53220+063620FM-12+015699999V0203601N003012200019N0200001N1+01681-00301101461ADDAA199000091GA1001+999999999GF100991001001999999001001KA1999M+01861MD1210091+9999REMSYN064AAXX  01151 28952 32998 03603 10168 21030 40146 52009 333 10186;EQDQ01  00002PRCP99
0175289520999992000060118004+53220+063620FM-12+015699999V0209999C000012200019N9999999N1+01031+00231101701ADDAA199000091GA1001+999999999GF100991001001999999001001KA1999M+01861MD1210191+9999REMSYN064AAXX  01181 28952 329// 00000 10103 20023 40170 52019 333 10186;EQDQ01  00002PRCP99
0122289520999992000060121004+53220+063620FM-12+015699999V0209999C000012200019N9999999N1+00671+00061101781ADDGA1001+999999999GF100991001001999999001001MD1210051+9999REMSYN054AAXX  01211 28952 429// 00000 10067 20006 40178 52005;
0153289520999992000060200004+53220+063620FM-12+015699999V0209999C000012200019N0200001N1+00411+00151101961ADDGA1001+999999999GF100991001001999999001001MA1999999100021MD1210151+9999REMSYN070AAXX  02001 28952 42998 00000 10041 20015 30002 40196 52015 555 1/004;
0210289520999992000060203004+53220+063620FM-12+015699999V0209999C000012200019N0200001N1+01111+00251102071ADDAA199000091GA1001+999999999GF100991001001999999001001GJ109309IA1019IA2999+00409MD1210171+9999REMSYN086AAXX  02031 28952 32998 00000 10111 20025 40207 52017 333 55155 555 20041 30004 7000/;EQDQ01  00002PRCP99
0165289520999992000060206004+53220+063620FM-12+015699999V0203601N003012200019N0200001N1+01641+00021102011ADDAA199000091GF101991011011012501001001KA1999N+00411MD1810031+9999REMSYN070AAXX  02061 28952 32698 13603 10164 20002 40201 58003 81100 333 20041;EQDQ01  00002PRCP99
0112289520999992000060209004+53220+063620FM-12+015699999V0200201N006012200019N0200001N1+01891-00271101981ADDGF102991001001999999001011MD1710011+9999REMSYN060AAXX  02091 28952 42998 20206 10189 21027 40198 57001 80001;
0143289520999992000060212004+53220+063620FM-12+015699999V0203201N003012200019N0200001N1+02051-00021101931ADDGF101991001001999999001011MA1999999100111MD1710041+9999REMSYN076AAXX  02121 28952 42998 13203 10205 21002 30011 40193 57004 80001 555 1/042;
0175289520999992000060215004+53220+063620FM-12+015699999V0203201N001012200019N0200001N1+01991+00191101901ADDAA199000091GA1001+999999999GF100991001001999999001001KA1999M+02061MD1710041+9999REMSYN064AAXX  02151 28952 32998 03201 10199 20019 40190 57004 333 10206;EQDQ01  00002PRCP99
0175289520999992000060218004+53220+063620FM-12+015699999V0209999C000012200019N9999999N1+01201+00701101851ADDAA199000091GA1001+999999999GF100991001001999999001001KA1999M+02061MD1710091+9999REMSYN064AAXX  02181 28952 329// 00000 10120 20070 40185 57009 333 10206;EQDQ01  00002PRCP99
0116289520999992000060221004+53220+063620FM-12+015699999V0209999C000012200019N9999999N1+00931+00481999999ADDGA1001+999999999GF100991001001999999001001MD1710021+9999REMSYN048AAXX  02211 28952 429// 00000 10093 20048 57002;
0153289520999992000060300004+53220+063620FM-12+015699999V0209999C000012200019N0200001N1+00901+00401101751ADDGA1001+999999999GF100991001001999999001001MA1999999099861MD1710101+9999REMSYN070AAXX  03001 28952 42998 00000 10090 20040 39986 40175 57010 555 1/007;
0210289520999992000060303004+53220+063620FM-12+015699999V0202001N002012200019N0200001N1+01591+00691101561ADDAA199000091GA1001+999999999GF100991001001999999001001GJ109489IA1019IA2999+00709MD1710141+9999REMSYN086AAXX  03031 28952 32998 02002 10159 20069 40156 57014 333 55158 555 20086 30007 7000/;EQDQ01  00002PRCP99
0165289520999992000060306004+53220+063620FM-12+015699999V0202701N004012200019N0200001N1+02581+00971101341ADDAA199000091GF102991021091008001001001KA1999N+00861MD1710151+9999REMSYN070AAXX  03061 28952 32598 22704 10258 20097 40134 57015 82900 333 20086;EQDQ01  00002PRCP99
0134289520999992000060309004+53220+063620FM-12+015699999V0201601N003010075019N0200001N1+99999+99999101351ADDAY191031AY281031GF105991051091008001001001MD1410001+9999MW1951REMSYN060AAXX  03091 28952 41598 51603 20145 40135 54000 79598 85900;
0171289520999992000060312004+53220+063620FM-12+015699999V0202301N005010075019N0200001N1+02401+01231101261ADDAY191061AY281061GF107991071091008001001001MA1999999099481MD1810091+9999MW1171REMSYN082AAXX  03121 28952 41598 72305 10240 20123 39948 40126 58009 71798 87900 555 1/023;
0145289520999992000060315004+53220+063620FM-12+015699999V0202501N003010075019N0200001N1+02581+01231101211ADDGF106991061091008001001001KA1120M+02651MD1710041+9999REMSYN080AAXX  03151 28952 /2598 62503 10258 20123 40121 57004 86900 333 10265 555 60042;
0152289520999992000060318004+53220+063620FM-12+015699999V0202701N003012200019N0200001N1+02081+01251101241ADDAA100004191GF102991021091008001001001KA1999M+02651MD1710011+9999REMSYN076AAXX  03181 28952 12598 22703 10208 20125 40124 57001 60040 82900 333 10265;
0112289520999992000060321004+53220+063620FM-12+015699999V0209999C000012200019N9999999N1+01581+01221101341ADDGF102991021091008001001001MD1310081+9999REMSYN060AAXX  03211 28952 425// 20000 10158 20122 40134 53008 82900;
0143289520999992000060400004+53220+063620FM-12+015699999V0201801N001012200019N0200001N1+01381+01201101361ADDGF107991021091008001001011MA1999999099511MD1410001+9999REMSYN076AAXX  04001 28952 42598 71801 10138 20120 39951 40136 54000 82901 555 1/013;
0200289520999992000060403004+53220+063620FM-12+015699999V0202301N002010075019N0200001N1+01901+01281101351ADDAA199000091GF108991061091008001001011GJ106969IA1119IA2999+01309MD1310011+9999REMSYN092AAXX  04031 28952 32598 82302 10190 20128 40135 53001 86901 333 55116 555 20138 32013 7004/;EQDQ01  00002PRCP99
0193289520999992000060406004+53220+063620FM-12+015699999V0202701N003010120019N0200001N1+02471+01171101291ADDAA199000091AY181061AY221061GF106991061091012501001001KA1999N+01381MD1810021+9999MW1021REMSYN076AAXX  04061 28952 31698 62703 10247 20117 40129 58002 70282 86900 333 20138;EQDQ01  00002PRCP99
0112289520999992000060409004+53220+063620FM-12+015699999V0202701N003019999999N0200001N1+02621+01121101241ADDGF106991021001999999031021MD1710041+9999REMSYN060AAXX  04091 28952 42998 62703 10262 20112 40124 57004 82032;
0143289520999992000060412004+53220+063620FM-12+015699999V0203201N002010075019N0200001N1+02741+01211101151ADDGF107991071091008001001001MA1999999099381MD1710091+9999REMSYN076AAXX  04121 28952 42598 73202 10274 20121 39938 40115 57009 87900 555 1/038;
0173289520999992000060415004+53220+063620FM-12+015699999V0209999C000010075019N0200001N1+02111+01671101151ADDAY191031AY281031GF107991071091008001001001KA1120M+02761MD1710031+9999MW1171REMSYN086AAXX  04151 28952 /1598 70000 10211 20167 40115 57003 71798 87900 333 10276 555 69982;
0180289520999992000060418004+53220+063620FM-12+015699999V0209999C000010075019N9999999N1+01731+01561101181ADDAA100000891AY191061AY281061GF107991071091008001001001KA1999M+02761MD1310011+9999MW1021REMSYN082AAXX  04181 28952 115// 70000 10173 20156 40118 53001 69980 70298 87900 333 10276;
0112289520999992000060421004+53220+063620FM-12+015699999V0209999C000010075019N9999999N1+01681+01521101181ADDGF108991081091008001999999MD1810011+9999REMSYN060AAXX  04211 28952 425// 80000 10168 20152 40118 58001 889//;
0143289520999992000060500004+53220+063620FM-12+015699999V0202301N001012200019N0200001N1+01651+01461101121ADDGF102991021001999999041001MA1999999099291MD1710061+9999REMSYN076AAXX  05001 28952 42998 22301 10165 20146 39929 40112 57006 82040 555 1/015;
0150289520999992000060503004+53220+063620FM-12+015699999V0202301N001019999999N0200001N1+01841+01551101151ADDGF106991001001999999001011MD1310041+9999REMSYN098AAXX  05031 28952 /2998 62301 10184 20155 40115 53004 80001 333 55089 555 20165 32014 69992 7002/;
0152289520999992000060506004+53220+063620FM-12+015699999V0202301N001010120019N0200001N1+02161+01721100981ADDAA100001091GF107991051081008001051001KA1999N+01651MD1810141+9999REMSYN076AAXX  05061 28952 12598 72301 10216 20172 40098 58014 69990 85850 333 20165;
0112289520999992000060509004+53220+063620FM-12+015699999V0202001N002010750019N0200001N1+02271+01701100931ADDGF106991031021012501001021MD1710051+9999REMSYN060AAXX  05091 28952 42698 62002 10227 20170 40093 57005 83202;
0143289520999992000060512004+53220+063620FM-12+015699999V0202501N002010750019N0200001N1+02441+01091100781ADDGF106991031021012501001021MA1999999099011MD1710131+9999REMSYN076AAXX  05121 28952 42698 62502 10244 20109 39901 40078 57013 83202 555 1/033;
0197289520999992000060515004+53220+063620FM-12+015699999V0202301N001019999999N0200001N1+02201+01211100681ADDAA199000091AY101031AY201031GF107991999999008001999999KA1999M+02441MD1710121+9999REMSYN070AAXX  05151 28952 31598 72301 10220 20121 40068 57012 77900 333 10244;EQDQ01+000792PRSWM1Q02  00002PRCP99
0203289520999992000060518004+53220+063620FM-12+015699999V0209999C000012200019N9999999N1+01741+01411100641ADDAA199000091AY191061AY211061GA1001+999999999GF100991001001999999001001KA1999M+02441MD1710061+9999MW1011REMSYN070AAXX  05181 28952 319// 00000 10174 20141 40064 57006 70191 333 10244;EQDQ01  00002PRCP99
0122289520999992000060521004+53220+063620FM-12+015699999V0209999C000012200019N9999999N1+01491+01231100571ADDGA1001+999999999GF100991001001999999001001MD1710091+9999REMSYN054AAXX  05211 28952 429// 00000 10149 20123 40057 57009;
0143289520999992000060600004+53220+063620FM-12+015699999V0209999C000019999999N0200001N1+01381+01231100571ADDGF106991001001999999001011MA1999999098741MD1410001+9999REMSYN076AAXX  06001 28952 42998 60000 10138 20123 39874 40057 54000 80001 555 1/013;
0176289520999992000060603004+53220+063620FM-12+015699999V0209999C000010300019N0200001N1+01701+01291100581ADDAA199000091GF107991041051008001031011GJ104089MD1310021+9999REMSYN086AAXX  06031 28952 32598 70000 10170 20129 40058 53002 84531 333 55068 555 20136 7000/;EQDQ01  00002PRCP99
0165289520999992000060606004+53220+063620FM-12+015699999V0203201N004010750019N0200001N1+02091+00981100451ADDAA199000091GF107991021021012501001021KA1999N+01361MD1810101+9999REMSYN070AAXX  06061 28952 32698 73204 10209 20098 40045 58010 82202 333 20136;EQDQ01  00002PRCP99
0112289520999992000060609004+53220+063620FM-12+015699999V0202901N003010075019N0200001N1+02311+00681100351ADDGF107991071021008001001001MD1710091+9999REMSYN060AAXX  06091 28952 42598 72903 10231 20068 40035 57009 87200;
0171289520999992000060612004+53220+063620FM-12+015699999V0202901N003010075019N0200001N1+01961+00701100401ADDAY121061AY221061GF108991081091008001999999MA1999999098601MD1310031+9999MW1251REMSYN082AAXX  06121 28952 41598 82903 10196 20070 39860 40040 53003 72522 889// 555 1/022;
0145289520999992000060615004+53220+063620FM-12+015699999V0202701N002010075019N0200001N1+01941+00991100371ADDGF106991061051008001031001KA1120M+02361MD1810031+9999REMSYN080AAXX  06151 28952 /2598 62702 10194 20099 40037 58003 86530 333 10236 555 69902;
0162289520999992000060618004+53220+063620FM-12+015699999V0209999C000012200019N9999999N1+01351+01111100421ADDAA100000791GA1001+999999999GF100991001001999999001001KA1999M+02361MD1310011+9999REMSYN070AAXX  06181 28952 129// 00000 10135 20111 40042 53001 69900 333 10236;
0140289520999992000060621004+53220+063620FM-12+015699999V0200201N001012200019N9999999N1+01291+01001100331ADDAY181031AY201031GF102991021051008001001001MD1810091+9999MW1011REMSYN066AAXX  06211 28952 415// 20201 10129 20100 40033 58009 70180 82500;
0171289520999992000060700004+53220+063620FM-12+015699999V0209999C000012200019N0200001N1+01121+00941100331ADDAY181061AY201061GF102991021011012501001001MA1999999098481MD1710011+9999MW1021REMSYN082AAXX  07001 28952 41698 20000 10112 20094 39848 40033 57001 70280 82100 555 1/010;
0150289520999992000060703004+53220+063620FM-12+015699999V0209999C000012200019N0200001N1+01411+00851100311ADDGF102991021001999999031001MD1410001+9999REMSYN098AAXX  07031 28952 /2998 20000 10141 20085 40031 54000 82030 333 55071 555 20110 31010 69952 7995/;
0152289520999992000060706004+53220+063620FM-12+015699999V0202501N003012200019N0200001N1+01841+00611100221ADDAA100000591GF103991031001999999031001KA1999N+01101MD1810061+9999REMSYN076AAXX  07061 28952 12998 32503 10184 20061 40022 58006 69950 83030 333 20110;
0112289520999992000060709004+53220+063620FM-12+015699999V0202001N003010075019N0200001N1+01721+00731100091ADDGF107991061091008001001011MD1710141+9999REMSYN060AAXX  07091 28952 42598 72003 10172 20073 40009 57014 86901;
0171289520999992000060712004+53220+063620FM-12+015699999V0201801N002010075019N0200001N1+01381+00901100191ADDAY191061AY281061GF105991051091008001001001MA1999999098361MD1710081+9999MW1291REMSYN082AAXX  07121 28952 41598 51802 10138 20090 39836 40019 57008 72998 85900 555 1/025;
0173289520999992000060715004+53220+063620FM-12+015699999V0202701N003012200019N0200001N1+01211+00681100281ADDAY181031AY221031GF102991021091008001001001KA1120M+01901MD1310081+9999MW1021REMSYN086AAXX  07151 28952 /1598 22703 10121 20068 40028 53008 70282 82900 333 10190 555 60042;
0180289520999992000060718004+53220+063620FM-12+015699999V0202701N002012200019N9999999N1+01091+00741100441ADDAA100004191AY181061AY221061GF102991021091008001001001KA1999M+01901MD1210151+9999MW1021REMSYN082AAXX  07181 28952 115// 22702 10109 20074 40044 52015 60040 70282 82900 333 10190;
0112289520999992000060721004+53220+063620FM-12+015699999V0202701N004012200019N9999999N1+00991+00581100571ADDGF101991011091008001001001MD1210111+9999REMSYN060AAXX  07211 28952 425// 12704 10099 20058 40057 52011 81900;
0153289520999992000060800004+53220+063620FM-12+015699999V0202901N004012200019N9999999N1+00831+00561100681ADDGA1001+999999999GF100991001001999999001001MA1999999098801MD1210101+9999REMSYN070AAXX  08001 28952 429// 02904 10083 20056 39880 40068 52010 555 1/008;
0216289520999992000060803004+53220+063620FM-12+015699999V0203201N005019999999N0200001N1+01111+00671100781ADDAA199000091GA1091+999999999GF109991091999999999999999GJ106309IA1119IA2999+00809MD1210121+9999REMSYN092AAXX  08031 28952 32598 93205 10111 20067 40078 52012 89900 333 55105 555 20083 32008 7004/;EQDQ01  00002PRCP99
0165289520999992000060806004+53220+063620FM-12+015699999V0203201N005010075019N0200001N1+01461+00581100881ADDAA199000091GF107991071091008001001001KA1999N+00831MD1210121+9999REMSYN070AAXX  08061 28952 32598 73205 10146 20058 40088 52012 87900 333 20083;EQDQ01  00002PRCP99
0112289520999992000060809004+53220+063620FM-12+015699999V0203401N005010075019N0200001N1+01601+00511100911ADDGF108991081091008001999999MD1210041+9999REMSYN060AAXX  08091 28952 42598 83405 10160 20051 40091 52004 889//;
0155289520999992000060812004+53220+063620FM-12+015699999V0203201N004019999999N0100001N1+01481+00611101041ADDAY181061AY221061GF108991999999008001999999MA1999999099201MD1210121+9999MW1801REMSYN066AAXX  08121 28952 41597 83204 10148 20061 39920 40104 52012 78082;
0173289520999992000060815004+53220+063620FM-12+015699999V0203201N003010075019N0200001N1+01521+00611101061ADDAY181031AY221031GF107991071091008001001001KA1120M+01701MD1210021+9999MW1021REMSYN086AAXX  08151 28952 /1598 73203 10152 20061 40106 52002 70282 87900 333 10170 555 69902;
0180289520999992000060818004+53220+063620FM-12+015699999V0209999C000012200019N9999999N1+00961+00651101201ADDAA100000791AY181061AY211061GF102991021051008001001001KA1999M+01701MD1210101+9999MW1011REMSYN082AAXX  08181 28952 115// 20000 10096 20065 40120 52010 69900 70181 82500 333 10170;
0112289520999992000060821004+53220+063620FM-12+015699999V0209999C000019999999N9999999N1+00941+00611101271ADDGF105991001001999999001021MD1210071+9999REMSYN060AAXX  08211 28952 429// 50000 10094 20061 40127 52007 80002;
0143289520999992000060900004+53220+063620FM-12+015699999V0209999C000012200019N0200001N1+00771+00581101461ADDGF102991021051008001001001MA1999999099561MD1210171+9999REMSYN076AAXX  09001 28952 42598 20000 10077 20058 39956 40146 52017 82500 555 1/006;
0200289520999992000060903004+53220+063620FM-12+015699999V0203201N004010075019N0200001N1+01201+00581101571ADDAA199000091GF108991081091008001999999GJ103309IA1099IA2999+00609MD1210141+9999REMSYN092AAXX  09031 28952 32598 83204 10120 20058 40157 52014 889// 333 55055 555 20077 31006 7990/;EQDQ01  00002PRCP99
0165289520999992000060906004+53220+063620FM-12+015699999V0203201N002010075019N0200001N1+01331+00741101621ADDAA199000091GF108991081091008001999999KA1999N+00771MD1210051+9999REMSYN070AAXX  09061 28952 32598 83202 10133 20074 40162 52005 889// 333 20077;EQDQ01  00002PRCP99
0122289520999992000060909004+53220+063620FM-12+015699999V0203201N002012200019N0200001N1+01821+00901101621ADDGA1001+999999999GF100991001001999999001001MD1210041+9999REMSYN054AAXX  09091 28952 42998 03202 10182 20090 40162 52004;
0143289520999992000060912004+53220+063620FM-12+015699999V0203201N002012200019N0200001N1+02201+00811101531ADDGF102991021021008001001001MA1999999099731MD1810061+9999REMSYN076AAXX  09121 28952 42598 23202 10220 20081 39973 40153 58006 82200 555 1/039;
0165289520999992000060915004+53220+063620FM-12+015699999V0209999C000012200019N0200001N1+02201+00861101641ADDAA199000091GF101991011021008001001001KA1999M+02231MD1310011+9999REMSYN070AAXX  09151 28952 32598 10000 10220 20086 40164 53001 81200 333 10223;EQDQ01  00002PRCP99
0175289520999992000060918004+53220+063620FM-12+015699999V0209999C000012200019N9999999N1+01481+01001101601ADDAA199000091GA1001+999999999GF100991001001999999001001KA1999M+02231MD1210011+9999REMSYN064AAXX  09181 28952 329// 00000 10148 20100 40160 52001 333 10223;EQDQ01  00002PRCP99
0122289520999992000060921004+53220+063620FM-12+015699999V0209999C000012200019N9999999N1+01201+00861101591ADDGA1001+999999999GF100991001001999999001001MD1810021+9999REMSYN054AAXX  09211 28952 429// 00000 10120 20086 40159 58002;
0153289520999992000061000004+53220+063620FM-12+015699999V0209999C000012200019N0200001N1+01071+00781101581ADDGA1001+999999999GF100991001001999999001001MA1999999099711MD1710021+9999REMSYN070AAXX  10001 28952 42998 00000 10107 20078 39971 40158 57002 555 1/009;
0201289520999992000061003004+53220+063620FM-12+015699999V0201801N001012200019N0200001N1+01721+00951101551ADDAA199000091GA1001+999999999GF100991001001999999001001IA1019IA2999+00909MD1310011+9999REMSYN085AAXX  10031 28952 32998 01801 10172 20095 40155 53001 33 55100 555 20107 30009 7000/;EQDQ01  00002PRCP99
0165289520999992000061006004+53220+063620FM-12+015699999V0201801N004012200019N0200001N1+02311+00821101461ADDAA199000091GF102991021021012501001011KA1999N+01071MD1810061+9999REMSYN070AAXX  10061 28952 32698 21804 10231 20082 40146 58006 82201 333 20107;EQDQ01  00002PRCP99
0112289520999992000061009004+53220+063620FM-12+015699999V0201801N005012200019N0200001N1+02551+00801101311ADDGF105991021021012501001011MD1710131+9999REMSYN060AAXX  10091 28952 42698 51805 10255 20080 40131 57013 82201;
0143289520999992000061012004+53220+063620FM-12+015699999V0201801N005010750019N0200001N1+02521+00711101211ADDGF106991011021012501001021MA1999999099431MD1710101+9999REMSYN076AAXX  10121 28952 42698 61805 10252 20071 39943 40121 57010 81202 555 1/031;
0165289520999992000061015004+53220+063620FM-12+015699999V0201801N003010075019N0200001N1+02381+00711101141ADDAA199000091GF107991071051008001999999KA1999M+02711MD1710091+9999REMSYN070AAXX  10151 28952 32598 71803 10238 20071 40114 57009 875// 333 10271;EQDQ01  00002PRCP99
0165289520999992000061018004+53220+063620FM-12+015699999V0201401N003012200019N9999999N1+02101+01801101571ADDAA199000091GF102991021051008001001001KA1999M+02711MD1710161+9999REMSYN070AAXX  10181 28952 325// 21403 10210 20180 40157 57016 82500 333 10271;EQDQ01  00002PRCP99
0147289520999992000061021004+53220+063620FM-12+015699999V0201401N003010075019N9999999N1+01071+99999100822ADDGF108991999091008001001001MD1710161+9999REMSYN060AAXX  10211 28952 425// 81403 10107 20169 40082 57016 87900;EQDQ01+000072SCOTLCQ02+100823APOSLP
0143289520999992000061100004+53220+063620FM-12+015699999V0202501N005010075019N0200001N1+01771+01461100861ADDGF107991071051008001999999MA1999999099051MD1310031+9999REMSYN076AAXX  11001 28952 42598 72505 10177 20146 39905 40086 53003 875// 555 1/017;
0200289520999992000061103004+53220+063620FM-12+015699999V0201801N001010075019N0200001N1+01711+01141101131ADDAA199000091GF107991071051008001999999GJ107629IA1019IA2999+01709MD1210251+9999REMSYN092AAXX  11031 28952 32598 71801 10171 20114 40113 52025 875// 333 55127 555 20169 30017 7000/;EQDQ01  00002PRCP99
0165289520999992000061106004+53220+063620FM-12+015699999V0202301N003019999999N0200001N1+02181+00841101211ADDAA199000091GF106991001001999999001011KA1999N+01691MD1210101+9999REMSYN070AAXX  11061 28952 32998 62303 10218 20084 40121 52010 80001 333 20169;EQDQ01  00002PRCP99
0112289520999992000061109004+53220+063620FM-12+015699999V0202001N001010075019N0200001N1+02461+00651101201ADDGF108991061091008001001011MD1210021+9999REMSYN060AAXX  11091 28952 42598 82001 10246 20065 40120 52002 86901;
0143289520999992000061112004+53220+063620FM-12+015699999V0201801N001010075019N0200001N1+02461+00561101131ADDGF107991071091008001001001MA1999999099351MD1810071+9999REMSYN076AAXX  11121 28952 42598 71801 10246 20056 39935 40113 58007 87900 555 1/035;
0173289520999992000061115004+53220+063620FM-12+015699999V0209999C000010075019N0200001N1+01921+01181101191ADDAY121031AY221031GF107991071091008001001001KA1120M+02501MD1310021+9999MW1251REMSYN086AAXX  11151 28952 /1598 70000 10192 20118 40119 53002 72522 87900 333 10250 555 69902;
0180289520999992000061118004+53220+063620FM-12+015699999V0209999C000019999999N9999999N1+01741+01251101271ADDAA100000791AY181061AY221061GF107991071001999999051001KA1999M+02501MD1210081+9999MW1021REMSYN082AAXX  11181 28952 119// 70000 10174 20125 40127 52008 69900 70282 87050 333 10250;
0143289520999992000061200004+53220+063620FM-12+015699999V0201101N002010075019N0200001N1+01481+01301101331ADDGF108991061091008001001011MA1999999099481MD1410001+9999REMSYN076AAXX  12001 28952 42598 81102 10148 20130 39948 40133 54000 86901 555 1/014;
0165289520999992000061206004+53220+063620FM-12+015699999V0201401N002010075019N0200001N1+01981+01331101401ADDAA199000091GF107991071091008001001001KA1999N+01481MD1210071+9999REMSYN070AAXX  12061 28952 32598 71402 10198 20133 40140 52007 87900 333 20148;EQDQ01  00002PRCP99
0112289520999992000061209004+53220+063620FM-12+015699999V0203401N001019999999N0200001N1+02061+01301101331ADDGF107991071001999999051001MD1810071+9999REMSYN060AAXX  12091 28952 42998 73401 10206 20130 40133 58007 87050;
0173289520999992000061215004+53220+063620FM-12+015699999V0209999C000010075019N0200001N1+01851+01431100991ADDAY191031AY281031GF106991061091008001001001KA1120M+02101MD1710211+9999MW1021REMSYN086AAXX  12151 28952 /1598 60000 10185 20143 40099 57021 70298 86900 333 10210 555 69942;
0180289520999992000061218004+53220+063620FM-12+015699999V0200501N004010075019N9999999N1+01641+01321101161ADDAA100000591AY191061AY281061GF107991071091008001001001KA1999M+02101MD1310151+9999MW1021REMSYN082AAXX  12181 28952 115// 70504 10164 20132 40116 53015 69940 70298 87900 333 10210;
0140289520999992000061221004+53220+063620FM-12+015699999V0200501N004010075019N9999999N1+01511+01291101151ADDAY181031AY221031GF107991071091008001001001MD1810031+9999MW1251REMSYN066AAXX  12211 28952 415// 70504 10151 20129 40115 58003 72582 87900;
0171289520999992000061300004+53220+063620FM-12+015699999V0209999C000010075019N0200001N1+01441+01261100991ADDAY181061AY221061GF106991061091008001001001MA1999999099151MD1710151+9999MW1021REMSYN082AAXX  13001 28952 41598 60000 10144 20126 39915 40099 57015 70282 86900 555 1/013;
0150289520999992000061303004+53220+063620FM-12+015699999V0200701N004010075019N0200001N1+01651+01291100861ADDGF107991071091008001001001MD1710111+9999REMSYN098AAXX  13031 28952 /2598 70704 10165 20129 40086 57011 87900 333 55011 555 20144 32013 60032 7003/;
0152289520999992000061306004+53220+063620FM-12+015699999V0202701N002010075019N0200001N1+02011+01341100801ADDAA100003091GF107991071091008001001001KA1999N+01441MD1710041+9999REMSYN076AAXX  13061 28952 12598 72702 10201 20134 40080 57004 60030 87900 333 20144;
0112289520999992000061309004+53220+063620FM-12+015699999V0200201N006010750019N0200001N1+02661+01091100461ADDGF108991021021008001001051MD1710291+9999REMSYN060AAXX  13091 28952 42598 80206 10266 20109 40046 57029 82205;
0143289520999992000061312004+53220+063620FM-12+015699999V0200201N006010075019N0200001N1+02661+00921100231ADDGF107991071091008001001001MA1999999098481MD1710231+9999REMSYN076AAXX  13121 28952 42598 70206 10266 20092 39848 40023 57023 87900 555 1/029;
0173289520999992000061315004+53220+063620FM-12+015699999V0200901N002010075019N0200001N1+02041+01281100261ADDAY181031AY221031GF108991081091008001999999KA1120M+02701MD1710011+9999MW1021REMSYN086AAXX  13151 28952 /1598 80902 10204 20128 40026 57001 70282 889// 333 10270 555 69902;
0140289520999992000061321004+53210+063610FM-12+015699999V0209999C000010075019N9999999N1+01531+01331100281ADDAY181031AY281031GF108991081091008001999999MD1810041+9999MW1801REMSYN066AAXX  13211 28952 415// 80000 10153 20133 40028 58004 78088 889//;
0171289520999992000061400004+53210+063610FM-12+015699999V0201401N001010075019N0200001N1+01341+01261100291ADDAY181061AY221061GF107991071091008001001001MA1999999098451MD1410001+9999MW1021REMSYN082AAXX  14001 28952 41598 71401 10134 20126 39845 40029 54000 70282 87900 555 1/014;
0150289520999992000061403004+53210+063610FM-12+015699999V0201801N002010075019N0200001N1+01431+01301100311ADDGF107991071091008001001001MD1310031+9999REMSYN098AAXX  14031 28952 /2598 71802 10143 20130 40031 53003 87900 333 55041 555 20134 32013 60052 7005/;
0152289520999992000061406004+53210+063610FM-12+015699999V0201601N005010750019N0200001N1+01651+01231100351ADDAA100005191GF107991021011012501001021KA1999N+01341MD1210061+9999REMSYN076AAXX  14061 28952 12698 71605 10165 20123 40035 52006 60050 82102 333 20134;
0112289520999992000061409004+53210+063610FM-12+015699999V0201401N004010075019N0200001N1+02011+00801100391ADDGF106991061091008001001001MD1210061+9999REMSYN060AAXX  14091 28952 42598 61404 10201 20080 40039 52006 86900;
0143289520999992000061412004+53210+063610FM-12+015699999V0201401N005012200019N0200001N1+02271+00841100391ADDGF106991031021012501001011MA1999999098611MD1210011+9999REMSYN076AAXX  14121 28952 42698 61405 10227 20084 39861 40039 52001 83201 555 1/033;
0173289520999992000061415004+53210+063610FM-12+015699999V0201601N002010075019N0200001N1+01791+01271100481ADDAY181031AY221031GF106991061091008001001001KA1120M+02281MD1210071+9999MW1251REMSYN086AAXX  14151 28952 /1598 61602 10179 20127 40048 52007 72582 86900 333 10228 555 60022;
0180289520999992000061418004+53210+063610FM-12+015699999V0201101N002010075019N9999999N1+01611+01251100541ADDAA100002091AY181061AY221061GF108991081091008001999999KA1999M+02281MD1210051+9999MW1021REMSYN082AAXX  14181 28952 115// 81102 10161 20125 40054 52005 60020 70282 889// 333 10228;
0140289520999992000061421004+53210+063610FM-12+015699999V0201601N003010075019N9999999N1+01461+01191100501ADDAY181031AY221031GF108991081091008001999999MD1810041+9999MW1021REMSYN066AAXX  14211 28952 415// 81603 10146 20119 40050 58004 70282 889//;
0171289520999992000061500004+53210+063610FM-12+015699999V0201101N002012200019N0200001N1+01211+01101100441ADDAY181061AY211061GF103991031051008001001001MA1999999098601MD1710091+9999MW1021REMSYN082AAXX  15001 28952 41598 31102 10121 20110 39860 40044 57009 70281 83500 555 1/012;
0150289520999992000061503004+53210+063610FM-12+015699999V0201101N002010075019N0200001N1+01461+01201100351ADDGF107991051051008001031001MD1710081+9999REMSYN098AAXX  15031 28952 /2598 71102 10146 20120 40035 57008 85530 333 55093 555 20120 32011 69942 7003/;
0152289520999992000061506004+53210+063610FM-12+015699999V0209999C000010075019N0200001N1+01501+01281100251ADDAA112000591GF108991081091008001999999KA1999N+01201MD1710101+9999REMSYN076AAXX  15061 28952 11598 80000 10150 20128 40025 57010 69942 889// 333 20120;
0140289520999992000061509004+53210+063610FM-12+015699999V0200901N002010075019N0100001N1+01801+01101100001ADDAY121031AY221031GF108991081091008001999999MD1710211+9999MW1801REMSYN066AAXX  15091 28952 41597 80902 10180 20110 40000 57021 78022 889//;
0143289520999992000061512004+53210+063610FM-12+015699999V0202301N001010075019N0200001N1+01601+01241099961ADDGF107991071091008001001001MA1999999098141MD1710071+9999REMSYN076AAXX  15121 28952 41598 72301 10160 20124 39814 49996 57007 87900 555 1/021;
0145289520999992000061515004+53210+063610FM-12+015699999V0209999C000010075019N0200001N1+01621+01221100011ADDGF107991071091008001001001KA1120M+01851MD1310061+9999REMSYN080AAXX  15151 28952 /2598 70000 10162 20122 40001 53006 87900 333 10185 555 69952;
0152289520999992000061518004+53210+063610FM-12+015699999V0209999C000012200019N9999999N1+01341+01231100101ADDAA100000591GF103991031091008001001001KA1999M+01851MD1210061+9999REMSYN076AAXX  15181 28952 125// 30000 10134 20123 40010 52006 69950 83900 333 10185;
0112289520999992000061521004+53210+063610FM-12+015699999V0201801N002012200019N9999999N1+01211+00951100201ADDGF106991031091008001001011MD1210101+9999REMSYN060AAXX  15211 28952 425// 61802 10121 20095 40020 52010 83901;
0143289520999992000061600004+53210+063610FM-12+015699999V0202001N002012200019N0200001N1+01091+00991100311ADDGF102991021091008001001001MA1999999098461MD1210101+9999REMSYN076AAXX  16001 28952 42598 22002 10109 20099 39846 40031 52010 82900 555 1/010;
0200289520999992000061603004+53210+063610FM-12+015699999V0202301N002012200019N0200001N1+01471+01111100431ADDAA199000091GF102991021091008001001001GJ100729IA1119IA2999+01009MD1210141+9999REMSYN092AAXX  16031 28952 32598 22302 10147 20111 40043 52014 82900 333 55012 555 20109 32010 7995/;EQDQ01  00002PRCP99
0165289520999992000061606004+53210+063610FM-12+015699999V0202001N003010120019N0200001N1+01961+01101100441ADDAA199000091GF107991051021012501001021KA1999N+01091MD1210041+9999REMSYN070AAXX  16061 28952 32698 72003 10196 20110 40044 52004 85202 333 20109;EQDQ01  00002PRCP99
0112289520999992000061609004+53210+063610FM-12+015699999V0202501N003010075019N0200001N1+02021+01001100501ADDGF107991071091008001001001MD1210121+9999REMSYN060AAXX  16091 28952 42598 72503 10202 20100 40050 52012 87900;
0143289520999992000061612004+53210+063610FM-12+015699999V0202301N003012200019N0200001N1+02221+01171100631ADDGF103991031081008001001001MA1999999098841MD1210081+9999REMSYN076AAXX  16121 28952 42598 32303 10222 20117 39884 40063 52008 83800 555 1/035;
0165289520999992000061615004+53210+063610FM-12+015699999V0202301N002012200019N0200001N1+02091+01151100891ADDAA199000091GF103991021051008001001091KA1999M+02221MD1210251+9999REMSYN070AAXX  16151 28952 32598 32302 10209 20115 40089 52025 82509 333 10222;EQDQ01  00002PRCP99
0165289520999992000061618004+53210+063610FM-12+015699999V0209999C000012200019N9999999N1+01811+01351100901ADDAA199000091GF103991031051008001001001KA1999M+02221MD1410001+9999REMSYN070AAXX  16181 28952 325// 30000 10181 20135 40090 54000 83500 333 10222;EQDQ01  00002PRCP99
0122289520999992000061621004+53210+063610FM-12+015699999V0209999C000012200019N9999999N1+01551+01181101141ADDGA1001+999999999GF100991001001999999001001MD1310211+9999REMSYN054AAXX  16211 28952 429// 00000 10155 20118 40114 53021;
0153289520999992000061700004+53210+063610FM-12+015699999V0209999C000012200019N0200001N1+01241+01101101271ADDGA1001+999999999GF100991001001999999001001MA1999999099411MD1210111+9999REMSYN070AAXX  17001 28952 /2998 00000 10124 20110 39941 40127 52011 555 1/011;
0210289520999992000061703004+53210+063610FM-12+015699999V0209999C000012200019N0200001N1+01911+01521101431ADDAA199000091GA1001+999999999GF100991001001999999001001GJ107569IA1099IA2999+01109MD1210201+9999REMSYN086AAXX  17031 28952 32998 00000 10191 20152 40143 52020 333 55126 555 20124 31011 7000/;EQDQ01  00002PRCP99
0165289520999992000061706004+53210+063610FM-12+015699999V0202701N002012200019N0200001N1+02281+01331101411ADDAA199000091GF102991021021012501001001KA1999N+01241MD1410001+9999REMSYN070AAXX  17061 28952 32698 22702 10228 20133 40141 54000 82200 333 20124;EQDQ01  00002PRCP99
0112289520999992000061709004+53210+063610FM-12+015699999V0202301N002010075019N0200001N1+02541+01301101401ADDGF106991061091008001001001MD1310021+9999REMSYN060AAXX  17091 28952 42598 62302 10254 20130 40140 53002 86900;
0143289520999992000061712004+53210+063610FM-12+015699999V0202001N003012200019N0200001N1+02721+01131101411ADDGF105991031021012501001011MA1999999099641MD1210011+9999REMSYN076AAXX  17121 28952 42698 52003 10272 20113 39964 40141 52001 83201 555 1/042;
0165289520999992000061715004+53210+063610FM-12+015699999V0209999C000012200019N0200001N1+02611+01251101421ADDAA199000091GF102991021021012501001001KA1999M+02751MD1210011+9999REMSYN070AAXX  17151 28952 32698 20000 10261 20125 40142 52001 82200 333 10275;EQDQ01  00002PRCP99
0165289520999992000061718004+53210+063610FM-12+015699999V0201801N001012200019N9999999N1+02091+01441101491ADDAA199000091GF102991001001999999001011KA1999M+02751MD1210031+9999REMSYN070AAXX  17181 28952 329// 21801 10209 20144 40149 52003 80001 333 10275;EQDQ01  00002PRCP99
0112289520999992000061721004+53210+063610FM-12+015699999V0209999C000019999999N9999999N1+01911+01611101571ADDGF106991001001999999001021MD1210071+9999REMSYN060AAXX  17211 28952 429// 60000 10191 20161 40157 52007 80002;
0143289520999992000061800004+53210+063610FM-12+015699999V0201801N002012200019N0200001N1+01841+01601101611ADDGF103991031001999999031001MA1999999099781MD1210031+9999REMSYN076AAXX  18001 28952 42998 31802 10184 20160 39978 40161 52003 83030 555 1/017;
0200289520999992000061803004+53210+063610FM-12+015699999V0202001N002012200019N0200001N1+02191+01751101651ADDAA199000091GF101991001001999999001011GJ109309IA1019IA2999+01709MD1210071+9999REMSYN092AAXX  18031 28952 32998 12002 10219 20175 40165 52007 80001 333 55155 555 20184 30017 7000/;EQDQ01  00002PRCP99
0175289520999992000061806004+53210+063610FM-12+015699999V0202301N002012200019N0200001N1+02761+01731101711ADDAA199000091GA1001+999999999GF100991001001999999001001KA1999N+01841MD1210091+9999REMSYN064AAXX  18061 28952 32998 02302 10276 20173 40171 52009 333 20184;EQDQ01  00002PRCP99
0112289520999992000061809004+53210+063610FM-12+015699999V0209999C000012200019N0200001N1+03001+01541101701ADDGF104991041021008001001001MD1410001+9999REMSYN060AAXX  18091 28952 42598 40000 10300 20154 40170 54000 84200;
0143289520999992000061812004+53210+063610FM-12+015699999V0209999C000012200019N0200001N1+03181+01511101621ADDGF103991031031008001001001MA1999999099871MD1810071+9999REMSYN076AAXX  18121 28952 42598 30000 10318 20151 39987 40162 58007 83300 555 1/053;
0173289520999992000061815004+53210+063610FM-12+015699999V0209999C000010075019N0100001N1+02671+01641101681ADDAY191031AY281031GF107991061091008001001031KA1120M+03201MD1310031+9999MW1801REMSYN086AAXX  18151 28952 /1597 70000 10267 20164 40168 53003 78098 86903 333 10320 555 69902;
0180289520999992000061818004+53210+063610FM-12+015699999V0209999C000010075019N9999999N1+02401+01651101801ADDAA100000791AY191061AY281061GF107991071091008001001001KA1999M+03201MD1210111+9999MW1171REMSYN082AAXX  18181 28952 115// 70000 10240 20165 40180 52011 69900 71798 87900 333 10320;
0140289520999992000061821004+53210+063610FM-12+015699999V0209999C000012200019N9999999N1+01911+01831101811ADDAY191031AY281031GF102991021051008001001001MD1810021+9999MW1291REMSYN066AAXX  18211 28952 415// 20000 10191 20183 40181 58002 72998 82500;
0171289520999992000061900004+53210+063610FM-12+015699999V0209999C000010075019N0200001N1+02101+01731101801ADDAY191061AY281061GF106991061051008001001001MA1999999100001MD1310011+9999MW1021REMSYN082AAXX  19001 28952 41598 60000 10210 20173 30000 40180 53001 70298 86500 555 1/020;
0150289520999992000061903004+53210+063610FM-12+015699999V0209999C000012200019N0200001N1+02521+01811101821ADDGF102991021051008001001001MD1210041+9999REMSYN098AAXX  19031 28952 /2598 20000 10252 20181 40182 52004 82500 333 55126 555 20193 32019 60232 7023/;
0146289520999992000061906004+53210+063610FM-12+015699999V0200201N001012200019N0200001N1+02881+01911999999ADDAA100023191GF102991021051008001001001KA1999N+01931MD1410001+9999REMSYN070AAXX  19061 28952 12598 20201 10288 20191 54000 60230 82500 333 20193;
0140289520999992000061909004+53210+063610FM-12+015699999V0202001N003010075019N0200001N1+02521+01511101741ADDAY191031AY211031GF107991071091008001001001MD1810081+9999MW1171REMSYN066AAXX  19091 28952 41598 72003 10252 20151 40174 58008 71791 87900;
0171289520999992000061912004+53210+063610FM-12+015699999V0202301N003010075019N0200001N1+02121+01751101741ADDAY191061AY281061GF107991071091008001001001MA1999999099941MD1710021+9999MW1291REMSYN082AAXX  19121 28952 41598 72303 10212 20175 39994 40174 57002 72998 87900 555 1/025;
0145289520999992000061915004+53210+063610FM-12+015699999V0203201N001012200019N0200001N1+02321+01731101731ADDGF108991021091008001001011KA1120M+03001MD1410001+9999REMSYN080AAXX  19151 28952 /2598 83201 10232 20173 40173 54000 82901 333 10300 555 69942;
0152289520999992000061918004+53210+063610FM-12+015699999V0209999C000012200019N9999999N1+02001+01821101861ADDAA100000591GF102991001001999999001011KA1999M+03001MD1310101+9999REMSYN076AAXX  19181 28952 129// 20000 10200 20182 40186 53010 69940 80001 333 10300;
0143289520999992000062000004+53210+063610FM-12+015699999V0209999C000012200019N0200001N1+01721+01641101841ADDGF102991021091008001001001MA1999999100011MD1410001+9999REMSYN076AAXX  20001 28952 42598 20000 10172 20164 30001 40184 54000 82900 555 1/017;
0200289520999992000062003004+53210+063610FM-12+015699999V0209999C000010075019N0200001N1+02301+01811101911ADDAA199000091GF105991051091008001001001GJ104809IA1119IA2999+01709MD1310111+9999REMSYN092AAXX  20031 28952 32598 50000 10230 20181 40191 53011 85900 333 55080 555 20170 32017 7994/;EQDQ01  00002PRCP99
0165289520999992000062006004+53210+063610FM-12+015699999V0209999C000012200019N0200001N1+02941+01491101941ADDAA199000091GF102991021011012501001001KA1999N+01701MD1210061+9999REMSYN070AAXX  20061 28952 32698 20000 10294 20149 40194 52006 82100 333 20170;EQDQ01  00002PRCP99
0112289520999992000062009004+53210+063610FM-12+015699999V0200501N003010120019N0200001N1+03041+01531101841ADDGF106991061021012501001001MD1810101+9999REMSYN060AAXX  20091 28952 42698 60503 10304 20153 40184 58010 86200;
0143289520999992000062012004+53210+063610FM-12+015699999V0200501N003010120019N0200001N1+03141+01491101781ADDGF106991061021012501001001MA1999999100031MD1710051+9999REMSYN076AAXX  20121 28952 42698 60503 10314 20149 30003 40178 57005 86200 555 1/047;
0165289520999992000062015004+53210+063610FM-12+015699999V0209999C000012200019N0200001N1+03021+01551101741ADDAA199000091GF102991001001999999001011KA1999M+03201MD1710051+9999REMSYN070AAXX  20151 28952 32998 20000 10302 20155 40174 57005 80001 333 10320;EQDQ01  00002PRCP99
0165289520999992000062018004+53210+063610FM-12+015699999V0200701N002010075019N9999999N1+02451+01671101801ADDAA199000091GF107991071091008001001001KA1999M+03201MD1310031+9999REMSYN070AAXX  20181 28952 325// 70702 10245 20167 40180 53003 87900 333 10320;EQDQ01  00002PRCP99
0112289520999992000062021004+53210+063610FM-12+015699999V0200501N003010075019N9999999N1+02401+01931101831ADDGF106991061091008001001001MD1210031+9999REMSYN060AAXX  20211 28952 425// 60503 10240 20193 40183 52003 86900;
0143289520999992000062100004+53210+063610FM-12+015699999V0209999C000019999999N0200001N1+02001+01521101931ADDGF106991001001999999001011MA1999999100111MD1210071+9999REMSYN076AAXX  21001 28952 42998 60000 10200 20152 30011 40193 52007 80001 555 1/019;
0210289520999992000062103004+53210+063610FM-12+015699999V0209999C000012200019N0200001N1+02641+01681101971ADDAA199000091GA1001+999999999GF100991001001999999001001GJ109129IA1019IA2999+01909MD1210081+9999REMSYN086AAXX  21031 28952 32998 00000 10264 20168 40197 52008 333 55152 555 20198 30019 7000/;EQDQ01  00002PRCP99
0175289520999992000062106004+53210+063610FM-12+015699999V0200701N004012200019N0200001N1+02961+01581101951ADDAA199000091GA1001+999999999GF100991001001999999001001KA1999N+01981MD1410001+9999REMSYN064AAXX  21061 28952 32998 00704 10296 20158 40195 54000 333 20198;EQDQ01  00002PRCP99
0112289520999992000062109004+53210+063610FM-12+015699999V0200901N005012200019N0200001N1+03131+01471101881ADDGF103991021021012501001011MD1810061+9999REMSYN060AAXX  21091 28952 42698 30905 10313 20147 40188 58006 82201;
0143289520999992000062112004+53210+063610FM-12+015699999V0200901N005012200019N0200001N1+03231+01391101771ADDGF103991021021012501001011MA1999999100021MD1710111+9999REMSYN076AAXX  21121 28952 42698 30905 10323 20139 30002 40177 57011 82201 555 1/049;
0165289520999992000062115004+53210+063610FM-12+015699999V0200901N004019999999N0200001N1+03041+01581101731ADDAA199000091GF107991001001999999001011KA1999M+03251MD1710051+9999REMSYN070AAXX  21151 28952 32998 70904 10304 20158 40173 57005 80001 333 10325;EQDQ01  00002PRCP99
0165289520999992000062118004+53210+063610FM-12+015699999V0200901N002012200019N9999999N1+02501+01421101751ADDAA199000091GF102991001001999999001011KA1999M+03251MD1710011+9999REMSYN070AAXX  21181 28952 329// 20902 10250 20142 40175 57001 80001 333 10325;EQDQ01  00002PRCP99
0112289520999992000062121004+53210+063610FM-12+015699999V0201101N004019999999N9999999N1+02481+01371101741ADDGF106991001001999999001011MD1710011+9999REMSYN060AAXX  21211 28952 429// 61104 10248 20137 40174 57001 80001;
0143289520999992000062200004+53210+063610FM-12+015699999V0201401N004019999999N0200001N1+02261+01281101751ADDGF107991001001999999001011MA1999999099951MD1410001+9999REMSYN076AAXX  22001 28952 42998 71404 10226 20128 39995 40175 54000 80001 555 1/020;
0210289520999992000062203004+53210+063610FM-12+015699999V0201401N004012200019N0200001N1+02611+01471101741ADDAA199000091GA1001+999999999GF100991001001999999001001GJ108529IA1019IA2999+02009MD1310011+9999REMSYN086AAXX  22031 28952 32998 01404 10261 20147 40174 53001 333 55142 555 20224 30020 7000/;EQDQ01  00002PRCP99
0175289520999992000062206004+53210+063610FM-12+015699999V0201401N004012200019N0200001N1+03061+01371101681ADDAA199000091GA1001+999999999GF100991001001999999001001KA1999N+02241MD1810041+9999REMSYN064AAXX  22061 28952 32998 01404 10306 20137 40168 58004 333 20224;EQDQ01  00002PRCP99
0112289520999992000062209004+53210+063610FM-12+015699999V0201401N004012200019N0200001N1+03291+01321101571ADDGF103991031021012501001001MD1710101+9999REMSYN060AAXX  22091 28952 42698 31404 10329 20132 40157 57010 83200;
0143289520999992000062212004+53210+063610FM-12+015699999V0201401N004010750019N0200001N1+03281+01301101371ADDGF105991021021012501001021MA1999999099631MD1710191+9999REMSYN076AAXX  22121 28952 42698 51404 10328 20130 39963 40137 57019 82202 555 1/044;
0165289520999992000062215004+53210+063610FM-12+015699999V0201401N002012200019N0200001N1+03141+01351101261ADDAA199000091GF102991021021012501001001KA1999M+03321MD1710111+9999REMSYN070AAXX  22151 28952 32698 21402 10314 20135 40126 57011 82200 333 10332;EQDQ01  00002PRCP99
0193289520999992000062218004+53210+063610FM-12+015699999V0209999C000012200019N9999999N1+02501+01641101281ADDAA199000091AY111061AY211061GF103991031091008001001001KA1999M+03321MD1710011+9999MW1131REMSYN076AAXX  22181 28952 315// 30000 10250 20164 40128 57001 71311 83900 333 10332;EQDQ01  00002PRCP99
0112289520999992000062221004+53210+063610FM-12+015699999V0200901N002012200019N9999999N1+02221+01531101191ADDGF101991001001999999001011MD1710121+9999REMSYN060AAXX  22211 28952 429// 10902 10222 20153 40119 57012 80001;
0143289520999992000062300004+53210+063610FM-12+015699999V0201801N001012200019N0200001N1+02041+01341101191ADDGF101991001001999999001011MA1999999099381MD1710011+9999REMSYN076AAXX  23001 28952 42998 11801 10204 20134 39938 40119 57001 80001 555 1/018;
0210289520999992000062303004+53210+063610FM-12+015699999V0201801N001012200019N0200001N1+02541+01451101131ADDAA199000091GA1001+999999999GF100991001001999999001001GJ109429IA1019IA2999+01709MD1710021+9999REMSYN086AAXX  23031 28952 32998 01801 10254 20145 40113 57002 333 55157 555 20204 30017 7000/;EQDQ01  00002PRCP99
0165289520999992000062306004+53210+063610FM-12+015699999V0201401N005012200019N0200001N1+03181+01151101101ADDAA199000091GF102991021091008001001001KA1999N+02041MD1410001+9999REMSYN070AAXX  23061 28952 32598 21405 10318 20115 40110 54000 82900 333 20204;EQDQ01  00002PRCP99
0137289520999992000062309004+53210+063610FM-12+015699999V0201801N005010075019N0200001N1+03201+01181100991ADDGF108991999091008001001001MD1810181+9999REMSYN066AAXX  23091 28952 42598 81805 10320 20118 40099 58018 86900 81607;EQDQ01+000062SCOTLC
0173289520999992000062315004+53210+063610FM-12+015699999V0209999C000010075019N0200001N1+03021+01611100791ADDAY191031AY281031GF107991051091008001001011KA1120M+03351MD1710071+9999MW1021REMSYN086AAXX  23151 28952 /1598 70000 10302 20161 40079 57007 70298 85901 333 10335 555 69952;
0180289520999992000062318004+53210+063610FM-12+015699999V0200201N005010075019N9999999N1+02371+01511100781ADDAA100000591AY191061AY281061GF107991071091008001001001KA1999M+03351MD1710041+9999MW1131REMSYN082AAXX  23181 28952 115// 70205 10237 20151 40078 57004 69950 71398 87900 333 10335;
0140289520999992000062321004+53210+063610FM-12+015699999V0200901N003012200019N9999999N1+02161+01471100791ADDAY111031AY211031GF103991031091008001001001MD1710011+9999MW1131REMSYN066AAXX  23211 28952 415// 30903 10216 20147 40079 57001 71311 83900;
0143289520999992000062400004+53210+063610FM-12+015699999V0209999C000010075019N0200001N1+01941+01481100801ADDGF106991061091008001001001MA1999999099001MD1410001+9999REMSYN076AAXX  24001 28952 42598 60000 10194 20148 39900 40080 54000 86900 555 1/019;
0200289520999992000062403004+53210+063610FM-12+015699999V0200701N004010075019N0200001N1+02181+01411100801ADDAA199000091GF107991071091008001001001GJ107509IA1019IA2999+01909MD1310011+9999REMSYN092AAXX  24031 28952 32598 70704 10218 20141 40080 53001 87900 333 55125 555 20194 30019 7995/;EQDQ01  00002PRCP99
0165289520999992000062406004+53210+063610FM-12+015699999V0200201N001010075019N0200001N1+02401+01701100831ADDAA199000091GF107991071091008001001001KA1999N+01941MD1210051+9999REMSYN070AAXX  24061 28952 32598 70201 10240 20170 40083 52005 87900 333 20194;EQDQ01  00002PRCP99
0112289520999992000062409004+53210+063610FM-12+015699999V0200701N004010075019N0200001N1+02401+01521100831ADDGF107991071051008001001001MD1410001+9999REMSYN060AAXX  24091 28952 42598 70704 10240 20152 40083 54000 87500;
0143289520999992000062412004+53210+063610FM-12+015699999V0200501N004010075019N0200001N1+02661+01681100751ADDGF107991071091008001001001MA1999999098991MD1810071+9999REMSYN076AAXX  24121 28952 42598 70504 10266 20168 39899 40075 58007 87900 555 1/043;
0165289520999992000062415004+53210+063610FM-12+015699999V0209999C000010075019N0200001N1+02661+01871100661ADDAA199000091GF107991051051008001001021KA1999M+02661MD1710081+9999REMSYN070AAXX  24151 28952 32598 70000 10266 20187 40066 57008 85502 333 10266;EQDQ01  00002PRCP99
0181289520999992000062418004+53210+063610FM-12+015699999V0209999C000010075019N9999999N1+02361+01901999999ADDAA199000091GF107991071091008001001001KA1999M+02661MD1710031+9999REMSYN070AAXX  24181 28952 325// 70000 10236 20190 40165 57003 87900 333 10266;EQDQ01+101653APOSLPQ02  00002PRCP99
0143289520999992000062500004+53210+063610FM-12+015699999V0209999C000012200019N0200001N1+01731+01561100571ADDGF102991021001999999031001MA1999999098761MD1410001+9999REMSYN076AAXX  25001 28952 42998 20000 10173 20156 39876 40057 54000 82030 555 1/017;
0200289520999992000062503004+53210+063610FM-12+015699999V0200501N004019999999N0200001N1+02401+01521100511ADDAA199000091GF106991001001999999001021GJ102049IA1019IA2999+01709MD1810021+9999REMSYN092AAXX  25031 28952 32998 60504 10240 20152 40051 58002 80002 333 55034 555 20173 30017 7000/;EQDQ01  00002PRCP99
0174289520999992000062506004+53210+063610FM-12+015699999V0200901N001010075019N0200001N1+02341+01711100541ADDAA199000021AY181061AY221061GF107991071091008001001001KA1999N+01731MD1310031+9999MW1251REMSYN076AAXX  25061 28952 31598 70901 10234 20171 40054 53003 72582 87900 333 20173;
0140289520999992000062509004+53210+063610FM-12+015699999V0200501N002010075019N0200001N1+02601+01771100551ADDAY121031AY221031GF108991081091008001999999MD1210021+9999MW1251REMSYN066AAXX  25091 28952 41598 80502 10260 20177 40055 52002 72522 889//;
0171289520999992000062512004+53210+063610FM-12+015699999V0200501N004010750019N0200001N1+02771+01521100331ADDAY181061AY221061GF105991021051008001031011MA1999999098591MD1810201+9999MW1021REMSYN082AAXX  25121 28952 41598 50504 10277 20152 39859 40033 58020 70282 82531 555 1/032;
0145289520999992000062515004+53210+063610FM-12+015699999V0200901N005010075019N0200001N1+02921+01371100091ADDGF106991061091008001001001KA1120M+03001MD1710241+9999REMSYN080AAXX  25151 28952 /2598 60905 10292 20137 40009 57024 86900 333 10300 555 69902;
0152289520999992000062518004+53210+063610FM-12+015699999V0200901N005019999999N9999999N1+02651+01391100021ADDAA100000791GF107991001001999999001021KA1999M+03001MD1710071+9999REMSYN076AAXX  25181 28952 129// 70905 10265 20139 40002 57007 69900 80002 333 10300;
0112289520999992000062521004+53210+063610FM-12+015699999V0200901N006010075019N9999999N1+02481+01441099881ADDGF106991061051008001001001MD1710161+9999REMSYN060AAXX  25211 28952 425// 60906 10248 20144 49988 57016 86500;
0200289520999992000062603004+53210+063610FM-12+015699999V0200501N005010075019N0200001N1+02241+01301099671ADDAA199000091GF105991051051008001001001GJ104209IA1019IA2999+02009MD1710031+9999REMSYN092AAXX  26031 28952 32598 50505 10224 20130 49967 57003 85500 333 55070 555 20216 30020 7990/;EQDQ01  00002PRCP99
0165289520999992000062606004+53210+063610FM-12+015699999V0200901N006012200019N0200001N1+02631+01451099591ADDAA199000091GF102991021051008001001001KA1999N+02161MD1710051+9999REMSYN070AAXX  26061 28952 32598 20906 10263 20145 49959 57005 82500 333 20216;EQDQ01  00002PRCP99
0112289520999992000062609004+53210+063610FM-12+015699999V0201601N008012200019N0200001N1+02881+01291099751ADDGF103991031021012501001001MD1310171+9999REMSYN060AAXX  26091 28952 42698 31608 10288 20129 49975 53017 83200;
0143289520999992000062612004+53210+063610FM-12+015699999V0202001N006010120019N0200001N1+02711+01191099961ADDGF106991061021012501001001MA1999999098221MD1210201+9999REMSYN076AAXX  26121 28952 42698 62006 10271 20119 39822 49996 52020 86200 555 1/046;
0175289520999992000062615004+53210+063610FM-12+015699999V0201401N003012200019N0200001N1+02591+00931100061ADDAA199000091GA1001+999999999GF100991001001999999001001KA1999M+02981MD1210091+9999REMSYN064AAXX  26151 28952 32998 01403 10259 20093 40006 52009 333 10298;EQDQ01  00002PRCP99
0175289520999992000062618004+53210+063610FM-12+015699999V0200901N002012200019N9999999N1+02071+01201100181ADDAA199000091GA1001+999999999GF100991001001999999001001KA1999M+02981MD1210081+9999REMSYN064AAXX  26181 28952 329// 00902 10207 20120 40018 52008 333 10298;EQDQ01  00002PRCP99
0122289520999992000062621004+53210+063610FM-12+015699999V0200901N002012200019N9999999N1+01851+01181100201ADDGA1001+999999999GF100991001001999999001001MD1210011+9999REMSYN054AAXX  26211 28952 429// 00902 10185 20118 40020 52001;
0153289520999992000062700004+53210+063610FM-12+015699999V0209999C000012200019N0200001N1+01621+01181100211ADDGA1001+999999999GF100991001001999999001001MA1999999098401MD1410001+9999REMSYN070AAXX  27001 28952 42998 00000 10162 20118 39840 40021 54000 555 1/015;
0194289520999992000062703004+53210+063610FM-12+015699999V0201401N003012200019N0200001N1+99999+99999100201ADDAA199000091GF102991001001999999001011GJ108589IA1019IA2999+01509MD1310031+9999REMSYN086AAXX  27031 28952 32998 21403 20114 40020 53003 80001 333 55143 555 20161 30015 7000/;EQDQ01  00002PRCP99
0165289520999992000062706004+53210+063610FM-12+015699999V0201401N005012200019N0200001N1+02821+00681100201ADDAA199000091GF102991021021012501001001KA1999N+01611MD1210031+9999REMSYN070AAXX  27061 28952 32698 21405 10282 20068 40020 52003 82200 333 20161;EQDQ01  00002PRCP99
0143289520999992000062712004+53210+063610FM-12+015699999V0201601N004010075019N0200001N1+03001+00681100141ADDGF106991061091008001001001MA1999999098411MD1810051+9999REMSYN076AAXX  27121 28952 42598 61604 10300 20068 39841 40014 58005 86900 555 1/037;
0165289520999992000062715004+53210+063610FM-12+015699999V0201401N004012200019N0200001N1+02901+00821100131ADDAA199000091GF103991031091008001001001KA1999M+03151MD1710021+9999REMSYN070AAXX  27151 28952 32598 31404 10290 20082 40013 57002 83900 333 10315;EQDQ01  00002PRCP99
0165289520999992000062718004+53210+063610FM-12+015699999V0200101N005010075019N9999999N1+02501+01001100231ADDAA199000091GF107991071091008001001001KA1999M+03151MD1310071+9999REMSYN070AAXX  27181 28952 325// 70105 10250 20100 40023 53007 87900 333 10315;EQDQ01  00002PRCP99
0112289520999992000062721004+53210+063610FM-12+015699999V0200701N005010075019N9999999N1+02341+00991100191ADDGF107991071091008001001001MD1810051+9999REMSYN060AAXX  27211 28952 425// 70705 10234 20099 40019 58005 87900;
0143289520999992000062800004+53210+063610FM-12+015699999V0201101N004010075019N0200001N1+02081+01231100251ADDGF107991071091008001001001MA1999999098461MD1310051+9999REMSYN076AAXX  28001 28952 42598 71104 10208 20123 39846 40025 53005 87900 555 1/020;
0200289520999992000062803004+53210+063610FM-12+015699999V0201101N003012200019N0200001N1+02161+01261100261ADDAA199000091GF102991021091008001001001GJ108469IA1019IA2999+02009MD1210021+9999REMSYN092AAXX  28031 28952 32598 21103 10216 20126 40026 52002 82900 333 55141 555 20208 30020 7000/;EQDQ01  00002PRCP99
0165289520999992000062806004+53210+063610FM-12+015699999V0200901N001019999999N0200001N1+02701+01241100281ADDAA199000091GF107991001001999999001091KA1999N+02081MD1210051+9999REMSYN070AAXX  28061 28952 32998 70901 10270 20124 40028 52005 80009 333 20208;EQDQ01  00002PRCP99
0112289520999992000062809004+53210+063610FM-12+015699999V0200901N004010750019N0200001N1+02981+01341100181ADDGF106991021021012501001091MD1810081+9999REMSYN060AAXX  28091 28952 42698 60904 10298 20134 40018 58008 82209;
0143289520999992000062812004+53210+063610FM-12+015699999V0200901N004010120019N0200001N1+02921+01461100181ADDGF106991051021012501001051MA1999999098451MD1410001+9999REMSYN076AAXX  28121 28952 42698 60904 10292 20146 39845 40018 54000 85205 555 1/043;
0165289520999992000062815004+53210+063610FM-12+015699999V0200901N005010075019N0200001N1+02621+01431100251ADDAA199000091GF106991051091008001001091KA1999M+02981MD1310051+9999REMSYN070AAXX  28151 28952 32598 60905 10262 20143 40025 53005 85909 333 10298;EQDQ01  00002PRCP99
0165289520999992000062818004+53210+063610FM-12+015699999V0200701N006010075019N9999999N1+02091+01661100371ADDAA199000091GF106991061091008001001001KA1999M+02981MD1210081+9999REMSYN070AAXX  28181 28952 325// 60706 10209 20166 40037 52008 86900 333 10298;EQDQ01  00002PRCP99
0112289520999992000062821004+53210+063610FM-12+015699999V0200701N007010075019N9999999N1+01901+01581100461ADDGF106991061091008001001001MD1210081+9999REMSYN060AAXX  28211 28952 425// 60707 10190 20158 40046 52008 86900;
0143289520999992000062900004+53210+063610FM-12+015699999V0200501N003010075019N0200001N1+01631+01421100471ADDGF106991061051008001001001MA1999999098661MD1410001+9999REMSYN076AAXX  29001 28952 42598 60503 10163 20142 39866 40047 54000 86500 555 1/016;
0178289520999992000062903004+53210+063610FM-12+015699999V0203601N002010075019N0040001N1+01651+01551100631ADDAY181031AY221031GF108991081091008001999999MD1310151+9999MW1801REMSYN104AAXX  29031 28952 /1596 83602 10165 20155 40063 53015 78082 889// 333 55121 555 20163 31016 60032 7003/;
0180289520999992000062906004+53210+063610FM-12+015699999V0200201N002010075019N0200001N1+01871+01701100641ADDAA100003091AY181061AY221061GF108991081091008001999999KA1999N+01631MD1210021+9999MW1021REMSYN082AAXX  29061 28952 11598 80202 10187 20170 40064 52002 60030 70282 889// 333 20163;
0112289520999992000062909004+53210+063610FM-12+015699999V0200201N002010075019N0200001N1+02221+01751100681ADDGF106991061091008001001001MD1210061+9999REMSYN060AAXX  29091 28952 42598 60202 10222 20175 40068 52006 86900;
0143289520999992000062912004+53210+063610FM-12+015699999V0200201N002010075019N0200001N1+02321+01741100701ADDGF105991051091008001001001MA1999999098931MD1210041+9999REMSYN076AAXX  29121 28952 42598 50202 10232 20174 39893 40070 52004 85900 555 1/027;
0145289520999992000062915004+53210+063610FM-12+015699999V0200501N003010075019N0200001N1+02001+01671100801ADDGF107991071091008001001001KA1120M+02321MD1210071+9999REMSYN080AAXX  29151 28952 /2598 70503 10200 20167 40080 52007 87900 333 10232 555 60032;
0152289520999992000062918004+53210+063610FM-12+015699999V0200501N002010075019N9999999N1+01771+01571100951ADDAA100003091GF108991081091008001999999KA1999M+02321MD1210141+9999REMSYN076AAXX  29181 28952 125// 80502 10177 20157 40095 52014 60030 889// 333 10232;
0112289520999992000062921004+53210+063610FM-12+015699999V0200201N002010075019N9999999N1+01721+01571101001ADDGF108991081091008001999999MD1210051+9999REMSYN060AAXX  29211 28952 425// 80202 10172 20157 40100 52005 889//;
0143289520999992000063000004+53210+063610FM-12+015699999V0200201N003010075019N0200001N1+01611+01511101091ADDGF108991081091008001999999MA1999999099261MD1210071+9999REMSYN076AAXX  30001 28952 42598 80203 10161 20151 39926 40109 52007 889// 555 1/017;
0178289520999992000063003004+53210+063610FM-12+015699999V0200201N002010075019N0100001N1+01601+01501101181ADDAY151031AY221031GF108991081061008001999999MD1210091+9999MW1511REMSYN104AAXX  30031 28952 /1597 80202 10160 20150 40118 52009 75152 886// 333 55038 555 20160 31016 69992 7003/;
0174289520999992000063006004+53210+063610FM-12+015699999V0209999C000010075019N0040001N1+01661+01591101331ADDAA199000021AY181061AY251061GF108991081091008001999999KA1999N+01601MD1210151+9999MW1811REMSYN076AAXX  30061 28952 31596 80000 10166 20159 40133 52015 78185 889// 333 20160;
0140289520999992000063009004+53210+063610FM-12+015699999V0200201N001010075019N0100001N1+01691+01601101441ADDAY181031AY281031GF108991081091008001999999MD1210111+9999MW1801REMSYN066AAXX  30091 28952 41597 80201 10169 20160 40144 52011 78088 889//;
0171289520999992000063012004+53210+063610FM-12+015699999V0200501N001010075019N0200001N1+01981+01471101491ADDAY181061AY221061GF107991071091008001001001MA1999999099681MD1210071+9999MW1021REMSYN082AAXX  30121 28952 41598 70501 10198 20147 39968 40149 52007 70282 87900 555 1/027;
0173289520999992000063015004+53210+063610FM-12+015699999V0203401N002010075019N0100001N1+01711+01591101561ADDAY181031AY221031GF108991081091008001999999KA1120M+01981MD1210061+9999MW1801REMSYN086AAXX  30151 28952 /1597 83402 10171 20159 40156 52006 78082 889// 333 10198 555 60042;
0180289520999992000063018004+53210+063610FM-12+015699999V0203601N001010075019N9999999N1+01711+01561101641ADDAA100004191AY181061AY221061GF108991081091008001999999KA1999M+01981MD1210071+9999MW1021REMSYN082AAXX  30181 28952 115// 83601 10171 20156 40164 52007 60040 70282 889// 333 10198;
0140289520999992000063021004+53210+063610FM-12+015699999V0209999C000010075019N9999999N1+01581+01511101671ADDAY181031AY221031GF108991081091008001999999MD1210021+9999MW1251REMSYN066AAXX  30211 28952 415// 80000 10158 20151 40167 52002 72582 889//;
0171289520999992000070100004+53210+063610FM-12+015699999V0209999C000010300019N0200001N1+01491+01441101681ADDAY181061AY221061GF106991031051008001031001MA1999999099831MD1410001+9999MW1021REMSYN082AAXX  01001 28952 41598 60000 10149 20144 39983 40168 54000 70282 83530 555 1/015;
0150289520999992000070103004+53210+063610FM-12+015699999V0209999C000012200019N0200001N1+01651+01461101691ADDGF102991021021012501001001MD1310021+9999REMSYN098AAXX  01031 28952 /2698 20000 10165 20146 40169 53002 82200 333 55010 555 20147 32015 60022 7007/;
0152289520999992000070106004+53210+063610FM-12+015699999V0209999C000010075019N0200001N1+02101+01231101691ADDAA100002091GF106991061091008001001001KA1999N+01471MD1210021+9999REMSYN076AAXX  01061 28952 12598 60000 10210 20123 40169 52002 60020 86900 333 20147;
0112289520999992000070109004+53210+063610FM-12+015699999V0202901N003010075019N0200001N1+02441+01021101641ADDGF106991061091008001001001MD1810021+9999REMSYN060AAXX  01091 28952 42598 62903 10244 20102 40164 58002 86900;
0143289520999992000070112004+53210+063610FM-12+015699999V0203201N002010075019N0200001N1+02501+00901101591ADDGF106991061091008001001001MA1999999099801MD1710051+9999REMSYN076AAXX  01121 28952 42598 63202 10250 20090 39980 40159 57005 86900 555 1/035;
0165289520999992000070115004+53210+063610FM-12+015699999V0209999C000012200019N0200001N1+02421+00981101591ADDAA199000091GF102991021091008001001001KA1999M+02551MD1410001+9999REMSYN070AAXX  01151 28952 32598 20000 10242 20098 40159 54000 82900 333 10255;EQDQ01  00002PRCP99
0175289520999992000070118004+53210+063610FM-12+015699999V0209999C000012200019N9999999N1+01881+01221101671ADDAA199000091GA1001+999999999GF100991001001999999001001KA1999M+02551MD1310021+9999REMSYN064AAXX  01181 28952 329// 00000 10188 20122 40167 53002 333 10255;EQDQ01  00002PRCP99
0122289520999992000070121004+53210+063610FM-12+015699999V0209999C000012200019N9999999N1+01521+01191101691ADDGA1001+999999999GF100991001001999999001001MD1410001+9999REMSYN054AAXX  01211 28952 429// 00000 10152 20119 40169 54000;
0143289520999992000070200004+53210+063610FM-12+015699999V0209999C000012200019N0200001N1+01301+01171101711ADDGF102991021091008001001001MA1999999099841MD1410001+9999REMSYN076AAXX  02001 28952 42598 20000 10130 20117 39984 40171 54000 82900 555 1/013;
0210289520999992000070203004+53210+063610FM-12+015699999V0209999C000012200019N0200001N1+01841+01331101691ADDAA199000091GA1001+999999999GF100991001001999999001001GJ107929IA1019IA2999+01309MD1310021+9999REMSYN086AAXX  02031 28952 32998 00000 10184 20133 40169 53002 333 55132 555 20130 30013 7000/;EQDQ01  00002PRCP99
0165289520999992000070206004+53210+063610FM-12+015699999V0209999C000010120019N0200001N1+02501+01051101601ADDAA199000091GF106991061021012501001001KA1999N+01301MD1810051+9999REMSYN070AAXX  02061 28952 32698 60000 10250 20105 40160 58005 86200 333 20130;EQDQ01  00002PRCP99
0112289520999992000070209004+53210+063610FM-12+015699999V0202301N002010120019N0200001N1+02661+00991101541ADDGF106991061021012501001001MD1710051+9999REMSYN060AAXX  02091 28952 42698 62302 10266 20099 40154 57005 86200;
0143289520999992000070212004+53210+063610FM-12+015699999V0202301N002010120019N0200001N1+02751+00981101401ADDGF105991051021012501001001MA1999999099631MD1710131+9999REMSYN076AAXX  02121 28952 42698 52302 10275 20098 39963 40140 57013 85200 555 1/046;
0165289520999992000070215004+53210+063610FM-12+015699999V0202301N001012200019N0200001N1+02601+01001101341ADDAA199000091GF105991021081008001001011KA1999M+02751MD1710061+9999REMSYN070AAXX  02151 28952 32598 52301 10260 20100 40134 57006 82801 333 10275;EQDQ01  00002PRCP99
0165289520999992000070218004+53210+063610FM-12+015699999V0209999C000010075019N9999999N1+02061+01301101381ADDAA199000091GF107991071051008001001001KA1999M+02751MD1410001+9999REMSYN070AAXX  02181 28952 325// 70000 10206 20130 40138 54000 87500 333 10275;EQDQ01  00002PRCP99
0122289520999992000070221004+53210+063610FM-12+015699999V0209999C000012200019N9999999N1+01751+01191101321ADDGA1001+999999999GF100991001001999999001001MD1810071+9999REMSYN054AAXX  02211 28952 429// 00000 10175 20119 40132 58007;
0143289520999992000070300004+53210+063610FM-12+015699999V0209999C000010075019N0200001N1+01601+01151101261ADDGF105991051051008001001001MA1999999099431MD1710071+9999REMSYN076AAXX  03001 28952 42598 50000 10160 20115 39943 40126 57007 85500 555 1/015;
0200289520999992000070303004+53210+063610FM-12+015699999V0209999C000012200019N0200001N1+02141+01361101171ADDAA199000091GF103991031081008001001001GJ109129IA1019IA2999+01509MD1710061+9999REMSYN092AAXX  03031 28952 32598 30000 10214 20136 40117 57006 83800 333 55152 555 20160 30015 7000/;EQDQ01  00002PRCP99
0165289520999992000070306004+53210+063610FM-12+015699999V0201401N002019999999N0200001N1+02771+01181101011ADDAA199000091GF106991001001999999001011KA1999N+01601MD1710121+9999REMSYN070AAXX  03061 28952 32998 61402 10277 20118 40101 57012 80001 333 20160;EQDQ01  00002PRCP99
0143289520999992000070312004+53210+063610FM-12+015699999V0201801N005010075019N0200001N1+03201+00591100601ADDGF105991051091008001001001MA1999999098871MD1710171+9999REMSYN076AAXX  03121 28952 42598 51805 10320 20059 39887 40060 57017 85900 555 1/045;
0165289520999992000070315004+53210+063610FM-12+015699999V0202001N004010075019N0200001N1+02481+01271100671ADDAA199000091GF107991071091008001001001KA1999M+03231MD1310031+9999REMSYN070AAXX  03151 28952 32598 72004 10248 20127 40067 53003 87900 333 10323;EQDQ01  00002PRCP99
0165289520999992000070318004+53210+063610FM-12+015699999V0200601N002010075019N9999999N1+02141+01381100611ADDAA199000091GF106991061051008001001001KA1999M+03231MD1810081+9999REMSYN070AAXX  03181 28952 325// 60602 10214 20138 40061 58008 86500 333 10323;EQDQ01  00002PRCP99
0112289520999992000070321004+53210+063610FM-12+015699999V0209999C000012200019N9999999N1+01981+01371100501ADDGF102991021051008001001001MD1710111+9999REMSYN060AAXX  03211 28952 425// 20000 10198 20137 40050 57011 82500;
0143289520999992000070400004+53210+063610FM-12+015699999V0201801N001012200019N0200001N1+01681+01361100491ADDGF102991021051008001001001MA1999999098681MD1710031+9999REMSYN076AAXX  04001 28952 42598 21801 10168 20136 39868 40049 57003 82500 555 1/017;
0200289520999992000070403004+53210+063610FM-12+015699999V0201801N003012200019N0200001N1+02031+01581100481ADDAA199000091GF101991001001999999001011GJ107569IA1019IA2999+01609MD1310011+9999REMSYN092AAXX  04031 28952 32998 11803 10203 20158 40048 53001 80001 333 55126 555 20166 30016 7000/;EQDQ01  00002PRCP99
0165289520999992000070406004+53210+063610FM-12+015699999V0202301N004012200019N0200001N1+02401+01211100451ADDAA199000091GF106991031021012501001011KA1999N+01661MD1810011+9999REMSYN070AAXX  04061 28952 32698 62304 10240 20121 40045 58001 83201 333 20166;EQDQ01  00002PRCP99
0112289520999992000070409004+53210+063610FM-12+015699999V0202701N004010120019N0200001N1+02461+01261100491ADDGF106991061021012501001001MD1310041+9999REMSYN060AAXX  04091 28952 42698 62704 10246 20126 40049 53004 86200;
0143289520999992000070412004+53210+063610FM-12+015699999V0202301N006010120019N0200001N1+02691+01351100461ADDGF106991061021012501001001MA1999999098711MD1810011+9999REMSYN076AAXX  04121 28952 42698 62306 10269 20135 39871 40046 58001 86200 555 1/043;
0165289520999992000070415004+53210+063610FM-12+015699999V0202301N003010750019N0200001N1+02441+01321100491ADDAA199000091GF107991021021012501001021KA1999M+02721MD1310011+9999REMSYN070AAXX  04151 28952 32698 72303 10244 20132 40049 53001 82202 333 10272;EQDQ01  00002PRCP99
0165289520999992000070418004+53210+063610FM-12+015699999V0202001N001012200019N9999999N1+02111+01341100561ADDAA199000091GF102991001001999999001011KA1999M+02721MD1210041+9999REMSYN070AAXX  04181 28952 329// 22001 10211 20134 40056 52004 80001 333 10272;EQDQ01  00002PRCP99
0143289520999992000070500004+53210+063610FM-12+015699999V0202001N001019999999N0200001N1+01731+01341100581ADDGF106991001001999999001091MA1999999098761MD1310011+9999REMSYN076AAXX  05001 28952 42998 62001 10173 20134 39876 40058 53001 80009 555 1/017;
0200289520999992000070503004+53210+063610FM-12+015699999V0202001N003010075019N0200001N1+01901+01431100611ADDAA199000091GF108991081091008001999999GJ107989IA1019IA2999+01609MD1210041+9999REMSYN092AAXX  05031 28952 32598 82003 10190 20143 40061 52004 889// 333 55133 555 20173 30016 7000/;EQDQ01  00002PRCP99
0112289520999992000070509004+53210+063610FM-12+015699999V0201801N005010075019N0200001N1+02501+00061100551ADDGF107991071091008001001001MD1810081+9999REMSYN060AAXX  05091 28952 42598 71805 10250 20006 40055 58008 87900;
0143289520999992000070512004+53210+063610FM-12+015699999V0202301N002010750019N0200001N1+02501+01342100501ADDGF107991021021008001001021MA1999999098731MD1710051+9999REMSYN076AAXX  05121 28952 42598 72302 10250 20134 39873 40050 57005 82202 555 1/041;
0165289520999992000070515004+53210+063610FM-12+015699999V0202001N002010750019N0200001N1+02441+01321100421ADDAA199000091GF107991031091008001001021KA1999M+02581MD1710081+9999REMSYN070AAXX  05151 28952 32598 72002 10244 20132 40042 57008 83902 333 10258;EQDQ01  00002PRCP99
0165289520999992000070518004+53210+063610FM-12+015699999V0209999C000010075019N9999999N1+02021+01571100331ADDAA199000091GF106991061091008001001001KA1999M+02581MD1210071+9999REMSYN070AAXX  05181 28952 325// 60000 10202 20157 40033 52007 86900 333 10258;EQDQ01  00002PRCP99
0140289520999992000070521004+53210+063610FM-12+015699999V0200901N005019999999N9999999N1+01761+01641100171ADDAY191031AY281031GF108991081091999999999999MD1210211+9999MW1951REMSYN066AAXX  05211 28952 419// 80905 10176 20164 40017 52021 79598 889//;
0171289520999992000070600004+53210+063610FM-12+015699999V0200501N003010075019N0200001N1+01701+01551099981ADDAY191061AY281061GF108991081091008001999999MA1999999098191MD1210191+9999MW1291REMSYN082AAXX  06001 28952 41598 80503 10170 20155 39819 49998 52019 72998 889// 555 1/018;
0140289520999992000070609004+53210+063610FM-12+015699999V0203401N006010075019N0040001N1+01361+01321099771ADDAY181031AY221031GF108991081091008001999999MD1310141+9999MW1811REMSYN066AAXX  06091 28952 41596 83406 10136 20132 49977 53014 78182 889//;
0171289520999992000070612004+53210+063610FM-12+015699999V0203201N007010075019N0200001N1+01481+01301100171ADDAY181061AY221061GF108991081091008001999999MA1999999098341MD1210391+9999MW1021REMSYN082AAXX  06121 28952 41598 83207 10148 20130 39834 40017 52039 70282 889// 555 1/020;
0145289520999992000070615004+53210+063610FM-12+015699999V0203201N006010075019N0200001N1+01441+01141100331ADDGF108991081091008001999999KA1120M+01561MD1210161+9999REMSYN080AAXX  06151 28952 /2598 83206 10144 20114 40033 52016 889// 333 10156 555 60362;
0152289520999992000070618004+53210+063610FM-12+015699999V0203201N002010075019N9999999N1+01311+01061100531ADDAA100036191GF107991071091008001001001KA1999M+01561MD1210191+9999REMSYN076AAXX  06181 28952 125// 73202 10131 20106 40053 52019 60360 87900 333 10156;
0112289520999992000070621004+53210+063610FM-12+015699999V0203201N004010075019N9999999N1+01281+01111100531ADDGF107991071091008001001001MD1410001+9999REMSYN060AAXX  06211 28952 425// 73204 10128 20111 40053 54000 87900;
0143289520999992000070700004+53210+063610FM-12+015699999V0203201N003010075019N0200001N1+01141+00941100701ADDGF107991071051008001001001MA1999999098841MD1310151+9999REMSYN076AAXX  07001 28952 42598 73203 10114 20094 39884 40070 53015 87500 555 1/012;
0167289520999992000070703004+53210+063610FM-12+015699999V0203201N006010075019N0200001N1+01261+00881100841ADDAA101200992GF108991081091008001999999GJ100249IA1119IA2999+01209REMSYN092AAXX  07031 28952 32598 83206 10126 20088 40084 62015 889// 333 55004 555 20114 32012 7036/;
0145289520999992000070706004+53210+063610FM-12+015699999V0203201N006012200019N0200001N1+01461+00801100881ADDAA199000091GF103991031091008001001001KA1999N+01141REMSYN064AAXX  07061 28952 32598 33206 10146 20080 40088 83900 333 20114;EQDQ01  00002PRCP99
0112289520999992000070709004+53210+063610FM-12+015699999V0203201N003010075019N0200001N1+01601+00711101031ADDGF106991061091008001001001MD1210171+9999REMSYN060AAXX  07091 28952 42598 63203 10160 20071 40103 52017 86900;
0143289520999992000070712004+53210+063610FM-12+015699999V0203601N002012200019N0200001N1+01711+00581101121ADDGF105991031021012501001011MA1999999099291MD1210081+9999REMSYN076AAXX  07121 28952 42698 53602 10171 20058 39929 40112 52008 83201 555 1/033;
0165289520999992000070715004+53210+063610FM-12+015699999V0200501N001019999999N0200001N1+01651+00701101161ADDAA199000091GF105991051001999999031001KA1999M+01741MD1210041+9999REMSYN070AAXX  07151 28952 32998 50501 10165 20070 40116 52004 85030 333 10174;EQDQ01  00002PRCP99
0165289520999992000070718004+53210+063610FM-12+015699999V0209999C000012200019N9999999N1+01181+00901101251ADDAA199000091GF101991011001999999041001KA1999M+01741MD1210061+9999REMSYN070AAXX  07181 28952 329// 10000 10118 20090 40125 52006 81040 333 10174;EQDQ01  00002PRCP99
0112289520999992000070721004+53210+063610FM-12+015699999V0209999C000012200019N9999999N1+01061+00841101261ADDGF102991001001999999001011MD1410001+9999REMSYN060AAXX  07211 28952 429// 20000 10106 20084 40126 54000 80001;
0143289520999992000070800004+53210+063610FM-12+015699999V0209999C000019999999N0200001N1+00991+00761101371ADDGF107991001001999999001091MA1999999099491MD1310101+9999REMSYN076AAXX  08001 28952 42998 70000 10099 20076 39949 40137 53010 80009 555 1/011;
0200289520999992000070803004+53210+063610FM-12+015699999V0209999C000010075019N0200001N1+01321+01021101351ADDAA199000091GF107991071091008001001001GJ104269IA1099IA2999+01009MD1410001+9999REMSYN092AAXX  08031 28952 32598 70000 10132 20102 40135 54000 87900 333 55071 555 20098 31010 7000/;EQDQ01  00002PRCP99
0165289520999992000070806004+53210+063610FM-12+015699999V0201101N004010075019N0200001N1+01561+00761101351ADDAA199000091GF108991081091008001999999KA1999N+00981MD1310011+9999REMSYN070AAXX  08061 28952 32598 81104 10156 20076 40135 53001 889// 333 20098;EQDQ01  00002PRCP99
0140289520999992000070809004+53210+063610FM-12+015699999V0200701N002010075019N0100001N1+01301+01021101331ADDAY181031AY221031GF108991081091008001999999MD1810031+9999MW1801REMSYN066AAXX  08091 28952 41597 80702 10130 20102 40133 58003 78082 889//;
0171289520999992000070812004+53210+063610FM-12+015699999V0200501N003010075019N0200001N1+01451+00931101241ADDAY181061AY221061GF108991081091008001999999MA1999999099391MD1710081+9999MW1021REMSYN082AAXX  08121 28952 41598 80503 10145 20093 39939 40124 57008 70282 889// 555 1/017;
0173289520999992000070815004+53210+063610FM-12+015699999V0200501N002010075019N0100001N1+01331+01171101071ADDAY181031AY221031GF108991081091008001999999KA1120M+01571MD1710171+9999MW1801REMSYN086AAXX  08151 28952 /1597 80502 10133 20117 40107 57017 78082 889// 333 10157 555 60022;
0180289520999992000070818004+53210+063610FM-12+015699999V0200501N002010075019N9999999N1+01301+01151101001ADDAA100002091AY181061AY221061GF108991081091008001999999KA1999M+01571MD1710071+9999MW1021REMSYN082AAXX  08181 28952 115// 80502 10130 20115 40100 57007 60020 70282 889// 333 10157;
0112289520999992000070821004+53210+063610FM-12+015699999V0200501N001010075019N9999999N1+01251+01121100891ADDGF108991081091008001999999MD1710111+9999REMSYN060AAXX  08211 28952 425// 80501 10125 20112 40089 57011 889//;
0143289520999992000070900004+53210+063610FM-12+015699999V0200501N001010075019N0200001N1+01241+01171100791ADDGF107991051051008001031001MA1999999098941MD1710101+9999REMSYN076AAXX  09001 28952 42598 70501 10124 20117 39894 40079 57010 85530 555 1/012;
0150289520999992000070903004+53210+063610FM-12+015699999V0200501N002010075019N0200001N1+01501+01301100701ADDGF107991071051008001001001MD1710081+9999REMSYN098AAXX  09031 28952 /2598 70502 10150 20130 40070 57008 87500 333 55000 555 20124 32012 69942 7002/;
0152289520999992000070906004+53210+063610FM-12+015699999V0200501N003010075019N0200001N1+01961+01421100611ADDAA100000591GF107991071091008001001001KA1999N+01241MD1710051+9999REMSYN076AAXX  09061 28952 12598 70503 10196 20142 40061 57005 69940 87900 333 20124;
0112289520999992000070909004+53210+063610FM-12+015699999V0200501N005010075019N0200001N1+02281+01251100461ADDGF107991071091008001001001MD1710131+9999REMSYN060AAXX  09091 28952 42598 70505 10228 20125 40046 57013 87900;
0143289520999992000070912004+53210+063610FM-12+015699999V0200501N005010075019N0200001N1+02301+01331100341ADDGF108991051091008001001011MA1999999098561MD1710121+9999REMSYN076AAXX  09121 28952 42598 80505 10230 20133 39856 40034 57012 85901 555 1/037;
0165289520999992000070915004+53210+063610FM-12+015699999V0200501N003012200019N0200001N1+02101+01371100341ADDAA199000091GF106991031091008001001011KA1999M+02401MD1710011+9999REMSYN070AAXX  09151 28952 32598 60503 10210 20137 40034 57001 83901 333 10240;EQDQ01  00002PRCP99
0165289520999992000070918004+53210+063610FM-12+015699999V0200501N002012200019N9999999N1+01641+01391100301ADDAA199000091GF103991001001999999001011KA1999M+02401MD1710061+9999REMSYN070AAXX  09181 28952 329// 30502 10164 20139 40030 57006 80001 333 10240;EQDQ01  00002PRCP99
0112289520999992000070921004+53210+063610FM-12+015699999V0209999C000012200019N9999999N1+01401+01231100251ADDGF102991021001999999041001MD1710071+9999REMSYN060AAXX  09211 28952 429// 20000 10140 20123 40025 57007 82040;
0143289520999992000071000004+53210+063610FM-12+015699999V0200901N002010075019N0200001N1+01541+01491100191ADDGF106991061051008001001001MA1999999098381MD1710041+9999REMSYN076AAXX  10001 28952 42598 60902 10154 20149 39838 40019 57004 86500 555 1/015;
0200289520999992000071003004+53210+063610FM-12+015699999V0200501N003010075019N0200001N1+01841+01531100201ADDAA199000091GF107991071091008001001001GJ105709IA1099IA2999+01209MD1310021+9999REMSYN092AAXX  10031 28952 32598 70503 10184 20153 40020 53002 87900 333 55095 555 20140 31012 7000/;EQDQ01  00002PRCP99
0165289520999992000071006004+53210+063610FM-12+015699999V0200501N003010075019N0200001N1+01981+01491100191ADDAA199000091GF107991071091008001001001KA1999N+01401MD1410001+9999REMSYN070AAXX  10061 28952 32598 70503 10198 20149 40019 54000 87900 333 20140;EQDQ01  00002PRCP99
0140289520999992000071009004+53210+063610FM-12+015699999V0200501N004010075019N0100001N1+02081+01491100191ADDAY181031AY221031GF108991081091008001999999MD1410001+9999MW1801REMSYN066AAXX  10091 28952 41597 80504 10208 20149 40019 54000 78082 889//;
0171289520999992000071012004+53210+063610FM-12+015699999V0200701N004010075019N0100001N1+01981+01491100191ADDAY181061AY221061GF108991081091008001999999MA1999999098401MD1410001+9999MW1801REMSYN082AAXX  10121 28952 41597 80704 10198 20149 39840 40019 54000 78082 889// 555 1/023;
0173289520999992000071015004+53210+063610FM-12+015699999V0200501N004010075019N0200001N1+01781+01451100201ADDAY181031AY221031GF108991081091008001999999KA1120M+02081MD1410001+9999MW1021REMSYN086AAXX  10151 28952 /1598 80504 10178 20145 40020 54000 70282 889// 333 10208 555 69952;
0180289520999992000071018004+53210+063610FM-12+015699999V0200201N002010075019N9999999N1+01741+01451100201ADDAA100000591AY181061AY221061GF108991081061008001999999KA1999M+02081MD1810021+9999MW1021REMSYN082AAXX  10181 28952 115// 80202 10174 20145 40020 58002 69950 70282 886// 333 10208;
0171289520999992000071100004+53210+063610FM-12+015699999V0203601N003010075019N0200001N1+01541+01341100251ADDAY181061AY221061GF107991071091008001001001MA1999999098431MD1310051+9999MW1021REMSYN082AAXX  11001 28952 41598 73603 10154 20134 39843 40025 53005 70282 87900 555 1/015;
0178289520999992000071103004+53210+063610FM-12+015699999V0203601N002010075019N0100001N1+01571+01391100361ADDAY181031AY221031GF107991071091008001001001MD1210121+9999MW1801REMSYN104AAXX  11031 28952 /1597 73602 10157 20139 40036 52012 78082 87900 333 55005 555 20152 31015 69942 7999/;
0180289520999992000071106004+53210+063610FM-12+015699999V0203601N004010750019N0200001N1+02001+01391100341ADDAA100000591AY181061AY221061GF106991021051008001001021KA1999N+01521MD1410001+9999MW1011REMSYN082AAXX  11061 28952 11598 63604 10200 20139 40034 54000 69940 70182 82502 333 20152;
0112289520999992000071109004+53210+063610FM-12+015699999V0203601N009010750019N0200001N1+02321+01231100321ADDGF106991031011012501001021MD1810011+9999REMSYN060AAXX  11091 28952 42698 63609 10232 20123 40032 58001 83102;
0143289520999992000071112004+53210+063610FM-12+015699999V0203601N003010075019N0200001N1+01901+01071100461ADDGF108991081091008001999999MA1999999098661MD1310121+9999REMSYN076AAXX  11121 28952 42598 83603 10190 20107 39866 40046 53012 889// 555 1/023;
0146289520999992000071115004+53210+063610FM-12+015699999V0203601N003010075019N0200001N1+01921+01341100521ADDAA199000021GF107991071091008001001001KA1999M+02321MD1210061+9999REMSYN070AAXX  11151 28952 32598 73603 10192 20134 40052 52006 87900 333 10232;
0165289520999992000071118004+53210+063610FM-12+015699999V0203601N002010075019N9999999N1+01751+01421100651ADDAA199000091GF106991061091008001001001KA1999M+02321MD1210121+9999REMSYN070AAXX  11181 28952 325// 63602 10175 20142 40065 52012 86900 333 10232;EQDQ01  00002PRCP99
0112289520999992000071121004+53210+063610FM-12+015699999V0203601N002010075019N9999999N1+01601+01371100671ADDGF107991071051008001001001MD1210011+9999REMSYN060AAXX  11211 28952 425// 73602 10160 20137 40067 52001 87500;
0143289520999992000071200004+53210+063610FM-12+015699999V0203601N001010075019N0200001N1+01581+01441100721ADDGF107991071051008001001001MA1999999098901MD1210051+9999REMSYN076AAXX  12001 28952 42598 73601 10158 20144 39890 40072 52005 87500 555 1/016;
0200289520999992000071203004+53210+063610FM-12+015699999V0203601N003010075019N0200001N1+01811+01431100801ADDAA199000091GF106991061051008001001001GJ102469IA1019IA2999+01609MD1210091+9999REMSYN092AAXX  12031 28952 32598 63603 10181 20143 40080 52009 86500 333 55041 555 20158 30016 7000/;EQDQ01  00002PRCP99
0165289520999992000071206004+53210+063610FM-12+015699999V0200201N007012200019N0200001N1+02181+00951100851ADDAA199000091GF101991011051008001001001KA1999N+01581MD1210071+9999REMSYN070AAXX  12061 28952 32598 10207 10218 20095 40085 52007 81500 333 20158;EQDQ01  00002PRCP99
0112289520999992000071209004+53210+063610FM-12+015699999V0200501N007010075019N0200001N1+02361+01061100851ADDGF106991061091008001001001MD1210021+9999REMSYN060AAXX  12091 28952 42598 60507 10236 20106 40085 52002 86900;
0143289520999992000071212004+53210+063610FM-12+015699999V0203601N003010075019N0200001N1+02301+01251100871ADDGF107991071091008001001001MA1999999099081MD1410001+9999REMSYN076AAXX  12121 28952 42598 73603 10230 20125 39908 40087 54000 87900 555 10035;
0165289520999992000071215004+53210+063610FM-12+015699999V0200201N004010075019N0200001N1+02161+01111100981ADDAA199000091GF107991071091008001001001KA1999M+02381MD1210101+9999REMSYN070AAXX  12151 28952 32598 70204 10216 20111 40098 52010 87900 333 10238;EQDQ01  00002PRCP99
0193289520999992000071218004+53210+063610FM-12+015699999V0203601N003010075019N9999999N1+01801+01471101031ADDAA199000091AY181061AY221061GF108991071091008001999999KA1999M+02381MD1210041+9999MW1021REMSYN076AAXX  12181 28952 315// 83603 10180 20147 40103 52004 70282 879// 333 10238;EQDQ01  00002PRCP99
0144289520999992000071303004+53210+063610FM-12+015699999V0200501N003019999999N0200001N1+01941+01461101231ADDGF106991001001999999001011MD1210151+9999REMSYN092AAXX  13031 28952 /2998 60503 10194 20146 40123 52015 80001 333 55099 555 20152 30015 7990/;
0152289520999992000071306004+53210+063610FM-12+015699999V0200501N004012200019N0200001N1+02501+01541101271ADDAA100000791GF102991001001999999001011KA1999N+01521MD1210071+9999REMSYN076AAXX  13061 28952 12998 20504 10250 20154 40127 52007 69900 80001 333 20152;
0112289520999992000071309004+53210+063610FM-12+015699999V0200701N004012200019N0200001N1+02721+01091101291ADDGF103991021021008001001021MD1210031+9999REMSYN060AAXX  13091 28952 42598 30704 10272 20109 40129 52003 82202;
0143289520999992000071312004+53210+063610FM-12+015699999V0200201N006012200019N0200001N1+02741+00941101231ADDGF102991011011012501001021MA1999999099461MD1810061+9999REMSYN076AAXX  13121 28952 42698 20206 10274 20094 39946 40123 58006 81102 555 1/044;
0165289520999992000071315004+53210+063610FM-12+015699999V0200201N004012200019N0200001N1+02501+01191101311ADDAA199000091GF102991001001999999001011KA1999M+02801MD1310071+9999REMSYN070AAXX  13151 28952 32998 20204 10250 20119 40131 53007 80001 333 10280;EQDQ01  00002PRCP99
0165289520999992000071318004+53210+063610FM-12+015699999V0200201N001012200019N9999999N1+01741+01291101481ADDAA199000091GF101991001001999999001011KA1999M+02801MD1210121+9999REMSYN070AAXX  13181 28952 329// 10201 10174 20129 40148 52012 80001 333 10280;EQDQ01  00002PRCP99
0122289520999992000071321004+53210+063610FM-12+015699999V0209999C000012200019N9999999N1+01521+01191101521ADDGA1001+999999999GF100991001001999999001001MD1210021+9999REMSYN054AAXX  13211 28952 429// 00000 10152 20119 40152 52002;
0153289520999992000071400004+53210+063610FM-12+015699999V0203601N001012200019N0200001N1+01321+01091101591ADDGA1001+999999999GF100991001001999999001001MA1999999099731MD1210061+9999REMSYN070AAXX  14001 28952 42998 03601 10132 20109 39973 40159 52006 555 1/012;
0200289520999992000071403004+53210+063610FM-12+015699999V0203601N001012200019N0200001N1+01881+01311101661ADDAA199000091GF101991001001999999001011GJ109129IA1019IA2999+01209MD1210101+9999REMSYN092AAXX  14031 28952 32998 13601 10188 20131 40166 52010 80001 333 55152 555 20130 30012 7000/;EQDQ01  00002PRCP99
0165289520999992000071406004+53210+063610FM-12+015699999V0203601N004019999999N0200001N1+02511+01151101651ADDAA199000091GF106991001001999999001011KA1999N+01301MD1210031+9999REMSYN070AAXX  14061 28952 32998 63604 10251 20115 40165 52003 80001 333 20130;EQDQ01  00002PRCP99
0112289520999992000071409004+53210+063610FM-12+015699999V0200501N005010120019N0200001N1+02771+01181101501ADDGF106991061021012501001001MD1810121+9999REMSYN060AAXX  14091 28952 42698 60505 10277 20118 40150 58012 86200;
0143289520999992000071412004+53210+063610FM-12+015699999V0200501N005012200019N0200001N1+02861+01191101481ADDGF103991031001012501021001MA1999999099721MD1710021+9999REMSYN076AAXX  14121 28952 42698 30505 10286 20119 39972 40148 57002 83020 555 1/041;
0165289520999992000071415004+53210+063610FM-12+015699999V0200201N003012200019N0200001N1+02661+01491101491ADDAA199000091GF102991021081008001001001KA1999M+02861MD1410001+9999REMSYN070AAXX  14151 28952 32598 20203 10266 20149 40149 54000 82800 333 10286;EQDQ01  00002PRCP99
0165289520999992000071418004+53210+063610FM-12+015699999V0203601N001012200019N9999999N1+01981+01591101531ADDAA199000091GF102991001001999999001011KA1999M+02861MD1410001+9999REMSYN070AAXX  14181 28952 329// 23601 10198 20159 40153 54000 80001 333 10286;EQDQ01  00002PRCP99
0122289520999992000071421004+53210+063610FM-12+015699999V0203601N003012200019N9999999N1+01701+01421101611ADDGA1001+999999999GF100991001001999999001001MD1310051+9999REMSYN054AAXX  14211 28952 429// 03603 10170 20142 40161 53005;
0153289520999992000071500004+53210+063610FM-12+015699999V0203601N001012200019N0200001N1+01381+01211101691ADDGA1001+999999999GF100991001001999999001001MA1999999099841MD1210071+9999REMSYN070AAXX  15001 28952 42998 03601 10138 20121 39984 40169 52007 555 1/013;
0210289520999992000071503004+53210+063610FM-12+015699999V0203601N004012200019N0200001N1+01801+01101101821ADDAA199000091GA1001+999999999GF100991001001999999001001GJ109129IA1019IA2999+01309MD1210151+9999REMSYN086AAXX  15031 28952 32998 03604 10180 20110 40182 52015 333 55152 555 20138 30013 7000/;EQDQ01  00002PRCP99
0175289520999992000071506004+53210+063610FM-12+015699999V0200501N005012200019N0200001N1+01961+00761101901ADDAA199000091GA1001+999999999GF100991001001999999001001KA1999N+01381MD1210081+9999REMSYN064AAXX  15061 28952 32998 00505 10196 20076 40190 52008 333 20138;EQDQ01  00002PRCP99
0122289520999992000071509004+53210+063610FM-12+015699999V0200501N008012200019N0200001N1+02241+00851101881ADDGA1001+999999999GF100991001001999999001001MD1210011+9999REMSYN054AAXX  15091 28952 42998 00508 10224 20085 40188 52001;
0153289520999992000071512004+53210+063610FM-12+015699999V0203601N006012200019N0200001N1+02341+00761101891ADDGA1001+999999999GF100991001001999999001001MA1999999100091MD1210011+9999REMSYN070AAXX  15121 28952 42998 03606 10234 20076 30009 40189 52001 555 1/037;
0175289520999992000071515004+53210+063610FM-12+015699999V0203601N003012200019N0200001N1+02191+00821101941ADDAA199000091GA1001+999999999GF100991001001999999001001KA1999M+02341MD1210051+9999REMSYN064AAXX  15151 28952 32998 03603 10219 20082 40194 52005 333 10234;EQDQ01  00002PRCP99
0175289520999992000071518004+53210+063610FM-12+015699999V0200501N002012200019N9999999N1+01581+00881102161ADDAA199000091GA1001+999999999GF100991001001999999001001KA1999M+02341MD1210161+9999REMSYN064AAXX  15181 28952 329// 00502 10158 20088 40216 52016 333 10234;EQDQ01  00002PRCP99
0153289520999992000071600004+53210+063610FM-12+015699999V0200501N001012200019N0200001N1+01041+00881102261ADDGA1001+999999999GF100991001001999999001001MA1999999100371MD1310101+9999REMSYN070AAXX  16001 28952 42998 00501 10104 20088 30037 40226 53010 555 1/010;
0210289520999992000071603004+53210+063610FM-12+015699999V0203601N001012200019N0200001N1+01541+01031102331ADDAA199000091GA1001+999999999GF100991001001999999001001GJ109309IA1019IA2999+01009MD1210101+9999REMSYN086AAXX  16031 28952 32998 03601 10154 20103 40233 52010 333 55155 555 20103 30010 7000/;EQDQ01  00002PRCP99
0165289520999992000071606004+53210+063610FM-12+015699999V0203401N004012200019N0200001N1+02191+00931102271ADDAA199000091GF103991021021012501001011KA1999N+01031MD1810011+9999REMSYN070AAXX  16061 28952 32698 33404 10219 20093 40227 58001 82201 333 20103;EQDQ01  00002PRCP99
0112289520999992000071609004+53210+063610FM-12+015699999V0203601N003012200019N0200001N1+02451+00711102181ADDGF103991021021012501001011MD1710081+9999REMSYN060AAXX  16091 28952 42698 33603 10245 20071 40218 57008 82201;
0143289520999992000071612004+53210+063610FM-12+015699999V0203401N003012200019N0200001N1+02511+00811102071ADDGF106991021021012501001011MA1999999100271MD1710111+9999REMSYN076AAXX  16121 28952 42698 63403 10251 20081 30027 40207 57011 82201 555 1/040;
0165289520999992000071615004+53210+063610FM-12+015699999V0203601N003019999999N0200001N1+02431+01021102011ADDAA199000091GF107991001001999999001091KA1999M+02541MD1710051+9999REMSYN070AAXX  16151 28952 32998 73603 10243 20102 40201 57005 80009 333 10254;EQDQ01  00002PRCP99
0165289520999992000071618004+53210+063610FM-12+015699999V0203601N001012200019N9999999N1+01901+01391102091ADDAA199000091GF103991031051008001001001KA1999M+02541MD1310031+9999REMSYN070AAXX  16181 28952 325// 33601 10190 20139 40209 53003 83500 333 10254;EQDQ01  00002PRCP99
0112289520999992000071621004+53210+063610FM-12+015699999V0209999C000012200019N9999999N1+01621+01291102061ADDGF102991021051008001001001MD1810031+9999REMSYN060AAXX  16211 28952 425// 20000 10162 20129 40206 58003 82500;
0143289520999992000071700004+53210+063610FM-12+015699999V0209999C000010075019N0200001N1+01481+01331102041ADDGF107991071051008001001001MA1999999100191MD1710031+9999REMSYN076AAXX  17001 28952 42598 70000 10148 20133 30019 40204 57003 87500 555 1/015;
0200289520999992000071703004+53210+063610FM-12+015699999V0209999C000010075019N0200001N1+01701+01401102031ADDAA199000091GF108991081091008001999999GJ107989IA1019IA2999+01409MD1410001+9999REMSYN092AAXX  17031 28952 32598 80000 10170 20140 40203 54000 889// 333 55133 555 20148 30014 7000/;EQDQ01  00002PRCP99
0142289520999992000071709004+53210+063610FM-12+015699999V0203201N001010075019N0200001N1+02501+00901101841ADDAA199000091GF107991071091008001001001MD1710081+9999REMSYN060AAXX  17091 28952 32598 73201 10250 20090 40184 57008 87900;EQDQ01  00002PRCP99
0191289520999992000071906004+53210+063610FM-12+015699999V0202701N002012200019N0200001N1+02681+01811101461ADDAA199000091GA1001+999999999GF100991001001999999001001KA1999M+99999MD1410001+9999REMSYN064AAXX  19061 28952 32998 02702 10268 20181 40146 54000 333 10174;EQDQ01  00002PRCP99Q02 +01742ATMX  
0112289520999992000071909004+53210+063610FM-12+015699999V0203601N001012200019N0200001N1+03011+01641101411ADDGF103991031021012501001001MD1810041+9999REMSYN060AAXX  19091 28952 42698 33601 10301 20164 40141 58004 83200;
0143289520999992000071912004+53210+063610FM-12+015699999V0203601N002010075019N0200001N1+02911+01641101441ADDGF106991061051008001001001MA1999999099691MD1310031+9999REMSYN076AAXX  19121 28952 42598 63602 10291 20164 39969 40144 53003 86500 555 1/038;
0193289520999992000071915004+53210+063610FM-12+015699999V0200501N001010075019N0200001N1+02281+01641101591ADDAA199000091AY191031AY221031GF107991051051008001001021KA1999M+03011MD1210101+9999MW1021REMSYN076AAXX  19151 28952 31598 70501 10228 20164 40159 52010 70292 85502 333 10301;EQDQ01  00002PRCP99
0193289520999992000071918004+53210+063610FM-12+015699999V0203601N001019999999N9999999N1+01901+01641101721ADDAA199000091AY191061AY221061GF106991001001999999001021KA1999M+03011MD1210111+9999MW1021REMSYN076AAXX  19181 28952 319// 63601 10190 20164 40172 52011 70292 80002 333 10301;EQDQ01  00002PRCP99
0134289520999992000071921004+53210+063610FM-12+015699999V0209999C000012200019N9999999N1+01801+01621101861ADDAY101031AY211031GF103991999999999999999999MD1210131+9999MW1001REMSYN060AAXX  19211 28952 429// 30000 10180 20162 40186 52013 70001;
0153289520999992000072000004+53210+063610FM-12+015699999V0209999C000012200019N0200001N1+01521+01431101931ADDGA1001+999999999GF100991001001999999001001MA1999999100081MD1210051+9999REMSYN070AAXX  20001 28952 42998 00000 10152 20143 30008 40193 52005 555 1/015;
0210289520999992000072003004+53210+063610FM-12+015699999V0203601N001012200019N0200001N1+01861+01521102071ADDAA199000091GA1001+999999999GF100991001001999999001001GJ106369IA1019IA2999+01509MD1210161+9999REMSYN086AAXX  20031 28952 32998 03601 10186 20152 40207 52016 333 55106 555 20174 30015 7000/;EQDQ01  00002PRCP99
0165289520999992000072006004+53210+063610FM-12+015699999V0200501N002010120019N0200001N1+02391+01261102031ADDAA199000091GF106991061021012501001001KA1999N+01521MD1410001+9999REMSYN070AAXX  20061 28952 32698 60502 10239 20126 40203 54000 86200 333 20152;EQDQ01  00002PRCP99
0112289520999992000072009004+53210+063610FM-12+015699999V0200501N004010120019N0200001N1+02541+01221102071ADDGF105991051021012501001001MD1310031+9999REMSYN060AAXX  20091 28952 42698 50504 10254 20122 40207 53003 85200;
0143289520999992000072012004+53210+063610FM-12+015699999V0200501N003012200019N0200001N1+02601+01211102051ADDGF102991021021012501001001MA1999999100261MD1810011+9999REMSYN076AAXX  20121 28952 42698 20503 10260 20121 30026 40205 58001 82200 555 1/043;
0175289520999992000072015004+53210+063610FM-12+015699999V0200501N003012200019N0200001N1+02411+01241102071ADDAA199000091GA1001+999999999GF100991001001999999001001KA1999M+02631MD1310011+9999REMSYN064AAXX  20151 28952 32998 00503 10241 20124 40207 53001 333 10263;EQDQ01  00002PRCP99
0175289520999992000072018004+53210+063610FM-12+015699999V0209999C000012200019N9999999N1+01851+01341102191ADDAA199000091GA1001+999999999GF100991001001999999001001KA1999M+02631MD1210081+9999REMSYN064AAXX  20181 28952 329// 00000 10185 20134 40219 52008 333 10263;EQDQ01  00002PRCP99
0097289520999992000072021004+53210+063610FM-12+015699999V0209999C000012200019N9999999N1+01591+99999999999ADDGF102991999999999999999999REMSYN059AAXX  20211 28952 429// 20000 10159 2012 40221 52001 80001;
0143289520999992000072100004+53210+063610FM-12+015699999V0209999C000012200019N0200001N1+01381+01181102251ADDGF102991001001999999001011MA1999999100391MD1210031+9999REMSYN076AAXX  21001 28952 42998 20000 10138 20118 30039 40225 52003 80001 555 1/013;
0200289520999992000072103004+53210+063610FM-12+015699999V0209999C000019999999N0200001N1+01681+01341102331ADDAA199000091GF107991001001999999001091GJ109129IA1019IA2999+01309MD1210091+9999REMSYN092AAXX  21031 28952 32998 70000 10168 20134 40233 52009 80009 333 55152 555 20138 30013 7000/;EQDQ01  00002PRCP99
0165289520999992000072106004+53210+063610FM-12+015699999V0209999C000010075019N0200001N1+02461+01261102251ADDAA199000091GF105991051021008001001001KA1999N+01381MD1810051+9999REMSYN070AAXX  21061 28952 32598 50000 10246 20126 40225 58005 85200 333 20138;EQDQ01  00002PRCP99
0112289520999992000072109004+53210+063610FM-12+015699999V0200501N004010075019N0200001N1+02561+01041102161ADDGF106991061021008001001001MD1710081+9999REMSYN060AAXX  21091 28952 42598 60504 10256 20104 40216 57008 86200;
0143289520999992000072112004+53210+063610FM-12+015699999V0200501N004010075019N0200001N1+02541+01151102121ADDGF107991071021008001001001MA1999999100321MD1710051+9999REMSYN076AAXX  21121 28952 42598 70504 10254 20115 30032 40212 57005 87200 555 1/039;
0175289520999992000072115004+53210+063610FM-12+015699999V0200501N003012200019N0200001N1+02321+01211102081ADDAA199000091GA1001+999999999GF100991001001999999001001KA1999M+02601MD1710051+9999REMSYN064AAXX  21151 28952 32998 00503 10232 20121 40208 57005 333 10260;EQDQ01  00002PRCP99
0175289520999992000072118004+53210+063610FM-12+015699999V0209999C000012200019N9999999N1+01761+01241102171ADDAA199000091GA1001+999999999GF100991001001999999001001KA1999M+02601MD1810061+9999REMSYN064AAXX  21181 28952 329// 00000 10176 20124 40217 58006 333 10260;EQDQ01  00002PRCP99
0122289520999992000072121004+53210+063610FM-12+015699999V0209999C000012200019N9999999N1+01501+01281102201ADDGA1001+999999999GF100991001001999999001001MD1210011+9999REMSYN054AAXX  21211 28952 429// 00000 10150 20128 40220 52001;
0143289520999992000072200004+53210+063610FM-12+015699999V0209999C000012200019N0200001N1+01261+01111102251ADDGF104991001001999999001091MA1999999100371MD1210031+9999REMSYN076AAXX  22001 28952 42998 40000 10126 20111 30037 40225 52003 80009 555 1/012;
0210289520999992000072203004+53210+063610FM-12+015699999V0209999C000012200019N0200001N1+01801+01241102231ADDAA199000091GA1001+999999999GF100991001001999999001001GJ108229IA1019IA2999+01209MD1210021+9999REMSYN086AAXX  22031 28952 32998 00000 10180 20124 40223 52002 333 55137 555 20123 30012 7000/;EQDQ01  00002PRCP99
0165289520999992000072206004+53210+063610FM-12+015699999V0203201N002010075019N0200001N1+02501+01321102171ADDAA199000091GF105991051021008001001001KA1999N+01231MD1810021+9999REMSYN070AAXX  22061 28952 32598 53202 10250 20132 40217 58002 85200 333 20123;EQDQ01  00002PRCP99
0140289520999992000072209004+53210+063610FM-12+015699999V0203601N004010075019N0200001N1+02241+01201102131ADDAY191031AY281031GF107991071091008001001001MD1710051+9999MW1171REMSYN066AAXX  22091 28952 41598 73604 10224 20120 40213 57005 71798 87900;
0165289520999992000072212004+53210+063610FM-12+015699999V0203201N002019999999N0200001N1+02361+01221102091ADDAY191061AY221061GF107991999999008001999999MA1999999100291MD1710031+9999MW1171REMSYN076AAXX  22121 28952 41598 73202 10236 20122 30029 40209 57003 71792 555 1/033;
0173289520999992000072215004+53210+063610FM-12+015699999V0203201N002012200019N0200001N1+02201+01391102081ADDAY191031AY211031GF101991011041008001001001KA1120M+02611MD1710021+9999MW1011REMSYN086AAXX  22151 28952 /1598 13202 10220 20139 40208 57002 70191 81400 333 10261 555 69902;
0190289520999992000072218004+53210+063610FM-12+015699999V0209999C000012200019N9999999N1+01741+01511102121ADDAA100000791AY191061AY211061GA1001+999999999GF100991001001999999001001KA1999M+02611MD1310011+9999MW1021REMSYN076AAXX  22181 28952 119// 00000 10174 20151 40212 53001 69900 70291 333 10261;
0122289520999992000072221004+53210+063610FM-12+015699999V0209999C000012200019N9999999N1+01501+01371102121ADDGA1001+999999999GF100991001001999999001001MD1810021+9999REMSYN054AAXX  22211 28952 429// 00000 10150 20137 40212 58002;
0153289520999992000072300004+53210+063610FM-12+015699999V0209999C000012200019N0200001N1+00991+00761102201ADDGA1001+999999999GF100991001001999999001001MA1999999100301MD1310041+9999REMSYN070AAXX  23001 28952 42998 00000 10099 20076 30030 40220 53004 555 1/011;
0210289520999992000072303004+53210+063610FM-12+015699999V0209999C000012200019N0200001N1+01401+01021102161ADDAA199000091GA1001+999999999GF100991001001999999001001GJ106129IA1019IA2999+01009MD1410001+9999REMSYN086AAXX  23031 28952 32998 00000 10140 20102 40216 54000 333 55102 555 20096 30010 7990/;EQDQ01  00002PRCP99
0165289520999992000072306004+53210+063610FM-12+015699999V0203201N002019999999N0200001N1+02041+00861101991ADDAA199000091GF106991021001999999041021KA1999N+00961MD1810131+9999REMSYN070AAXX  23061 28952 32998 63202 10204 20086 40199 58013 82042 333 20096;EQDQ01  00002PRCP99
0112289520999992000072309004+53210+063610FM-12+015699999V0203201N002012200019N0200001N1+02211+01031101871ADDGF105991031021008001001011MD1710101+9999REMSYN060AAXX  23091 28952 42598 53202 10221 20103 40187 57010 83201;
0171289520999992000072312004+53210+063610FM-12+015699999V0203201N002010075019N0040001N1+02321+01141101691ADDAY191061AY281061GF108991081091008001999999MA1999999099891MD1710181+9999MW1971REMSYN082AAXX  23121 28952 41596 83202 10232 20114 39989 40169 57018 79798 889// 555 1/033;
0173289520999992000072315004+53210+063610FM-12+015699999V0209999C000010075019N0200001N1+02081+01641101621ADDAY191031AY281031GF105991051091008001001001KA1120M+02401MD1710091+9999MW1021REMSYN086AAXX  23151 28952 /1598 50000 10208 20164 40162 57009 70298 85900 333 10240 555 60112;
0190289520999992000072318004+53210+063610FM-12+015699999V0209999C000012200019N9999999N1+01721+01381101641ADDAA100010991AY191061AY281061GA1001+999999999GF100991001001999999001001KA1999M+02401MD1410001+9999MW1011REMSYN076AAXX  23181 28952 119// 00000 10172 20138 40164 54000 60110 70198 333 10240;
0143289520999992000072400004+53210+063610FM-12+015699999V0209999C000012200019N0200001N1+01131+01021101671ADDGF103991001001999999001011MA1999999099791MD1310011+9999REMSYN076AAXX  24001 28952 42998 30000 10113 20102 39979 40167 53001 80001 555 10012;
0200289520999992000072403004+53210+063610FM-12+015699999V0203601N001010075019N0200001N1+01301+00971101681ADDAA199000091GF106991061061008001001001GJ107809IA1119IA2999+01109MD1210021+9999REMSYN092AAXX  24031 28952 32598 63601 10130 20097 40168 52002 86600 333 55130 555 20112 32011 7011/;EQDQ01  00002PRCP99
0193289520999992000072406004+53210+063610FM-12+015699999V0203601N002010075019N0040001N1+01931+01041101641ADDAA199000091AY111061AY211061GF108991061061008001999999KA1999N+01121MD1410001+9999MW1101REMSYN076AAXX  24061 28952 31596 83602 10193 20104 40164 54000 71011 866// 333 20112;EQDQ01  00002PRCP99
0140289520999992000072409004+53210+063610FM-12+015699999V0203201N003010075019N0100001N1+02171+01041101541ADDAY121031AY221031GF108991081091008001999999MD1810071+9999MW1101REMSYN066AAXX  24091 28952 41597 83203 10217 20104 40154 58007 71022 889//;
0143289520999992000072412004+53210+063610FM-12+015699999V0203401N003012200019N0200001N1+02261+00901101471ADDGF107991031091008001001011MA1999999099671MD1710071+9999REMSYN076AAXX  24121 28952 42598 73403 10226 20090 39967 40147 57007 83901 555 1/034;
0165289520999992000072415004+53210+063610FM-12+015699999V0209999C000019999999N0200001N1+02081+01191101441ADDAA199000091GF108991001001999999001091KA1999M+02271MD1710041+9999REMSYN070AAXX  24151 28952 32998 80000 10208 20119 40144 57004 80009 333 10227;EQDQ01  00002PRCP99
0165289520999992000072418004+53210+063610FM-12+015699999V0209999C000012200019N9999999N1+01631+01441101431ADDAA199000091GF102991021001999999031001KA1999M+02271MD1710031+9999REMSYN070AAXX  24181 28952 329// 20000 10163 20144 40143 57003 82030 333 10227;EQDQ01  00002PRCP99
0122289520999992000072421004+53210+063610FM-12+015699999V0209999C000012200019N9999999N1+01391+01241101451ADDGA1001+999999999GF100991001001999999001001MD1410001+9999REMSYN054AAXX  24211 28952 429// 00000 10139 20124 40145 54000;
0153289520999992000072500004+53210+063610FM-12+015699999V0202301N001012200019N0200001N1+01271+01061101451ADDGA1001+999999999GF100991001001999999001001MA1999999099591MD1810011+9999REMSYN070AAXX  25001 28952 42998 02301 10127 20106 39959 40145 58001 555 1/012;
0200289520999992000072503004+53210+063610FM-12+015699999V0202301N001019999999N0200001N1+01631+01211101441ADDAA199000091GF107991071001999999051001GJ106189IA1099IA2999+01109MD1310021+9999REMSYN092AAXX  25031 28952 32998 72301 10163 20121 40144 53002 87050 333 55103 555 20127 31011 7000/;EQDQ01  00002PRCP99
0203289520999992000072506004+53210+063610FM-12+015699999V0202301N002012200019N0040001N1+02241+01201101411ADDAA199000091AY111061AY211061GA1001+999999999GF100991001001999999001001KA1999N+01271MD1410001+9999MW1041REMSYN070AAXX  25061 28952 31996 02302 10224 20120 40141 54000 70411 333 20127;EQDQ01  00002PRCP99
0140289520999992000072509004+53210+063610FM-12+015699999V0202301N003012200019N0040001N1+02561+01181101271ADDAY101031AY201031GF103991031031008001001001MD1810111+9999MW1041REMSYN066AAXX  25091 28952 41596 32303 10256 20118 40127 58011 70400 83300;
0143289520999992000072512004+53210+063610FM-12+015699999V0202701N002010075019N0200001N1+02681+01251101171ADDGF106991061091008001001001MA1999999099401MD1710101+9999REMSYN076AAXX  25121 28952 42598 62702 10268 20125 39940 40117 57010 86900 555 1/039;
0165289520999992000072515004+53210+063610FM-12+015699999V0202301N001010075019N0200001N1+02561+01351101091ADDAA199000091GF107991071091008001001001KA1999M+02701MD1710081+9999REMSYN070AAXX  25151 28952 32598 72301 10256 20135 40109 57008 87900 333 10270;EQDQ01  00002PRCP99
0175289520999992000072518004+53210+063610FM-12+015699999V0209999C000012200019N9999999N1+02081+01561101131ADDAA199000091GA1001+999999999GF100991001001999999001001KA1999M+02701MD1410001+9999REMSYN064AAXX  25181 28952 329// 00000 10208 20156 40113 54000 333 10270;EQDQ01  00002PRCP99
0112289520999992000072521004+53210+063610FM-12+015699999V0209999C000012200019N9999999N1+01841+01621101141ADDGF102991021091008001001001MD1410001+9999REMSYN060AAXX  25211 28952 425// 20000 10184 20162 40114 54000 82900;
0153289520999992000072600004+53210+063610FM-12+015699999V0209999C000012200019N0200001N1+01941+01761101141ADDGA1001+999999999GF100991001001999999001001MA1999999099331MD1310011+9999REMSYN070AAXX  26001 28952 42998 00000 10194 20176 39933 40114 53001 555 1/019;
0210289520999992000072603004+53210+063610FM-12+015699999V0209999C000012200019N0200001N1+02081+01811101221ADDAA199000091GA1001+999999999GF100991001001999999001001GJ105949IA1019IA2999+01809MD1210081+9999REMSYN086AAXX  26031 28952 32998 00000 10208 20181 40122 52008 333 55099 555 20184 30018 7000/;EQDQ01  00002PRCP99
0165289520999992000072606004+53210+063610FM-12+015699999V0203201N001012200019N0200001N1+02671+01751101211ADDAA199000091GF102991021011012501001001KA1999N+01841MD1310031+9999REMSYN070AAXX  26061 28952 32698 23201 10267 20175 40121 53003 82100 333 20184;EQDQ01  00002PRCP99
0112289520999992000072609004+53210+063610FM-12+015699999V0202701N001012200019N0200001N1+02961+01591101191ADDGF102991021011012501001001MD1410001+9999REMSYN060AAXX  26091 28952 42698 22701 10296 20159 40119 54000 82100;
0143289520999992000072612004+53210+063610FM-12+015699999V0209999C000012200019N0200001N1+03111+01551101141ADDGF101991011011012501001001MA1999999099401MD1810041+9999REMSYN076AAXX  26121 28952 42698 10000 10311 20155 39940 40114 58004 81100 555 1/047;
0165289520999992000072615004+53210+063610FM-12+015699999V0209999C000019999999N0200001N1+02921+01941101131ADDAA199000091GF106991001001999999001021KA1999M+03131MD1710021+9999REMSYN070AAXX  26151 28952 32998 60000 10292 20194 40113 57002 80002 333 10313;EQDQ01  00002PRCP99
0165289520999992000072618004+53210+063610FM-12+015699999V0203201N003019999999N9999999N1+02421+01771101221ADDAA199000091GF106991001001999999001021KA1999M+03131MD1310061+9999REMSYN070AAXX  26181 28952 329// 63203 10242 20177 40122 53006 80002 333 10313;EQDQ01  00002PRCP99
0122289520999992000072621004+53210+063610FM-12+015699999V0203201N004012200019N9999999N1+02021+01801101291ADDGA1001+999999999GF100991001001999999001001MD1210041+9999REMSYN054AAXX  26211 28952 419// 03204 10202 20180 40129 52004;
0171289520999992000072700004+53210+063610FM-12+015699999V0209999C000012200019N0200001N1+02001+01451101241ADDAY181061AY211061GF102991001001999999001021MA1999999099431MD1810051+9999MW1021REMSYN082AAXX  27001 28952 41998 20000 10200 20145 39943 40124 58005 70281 80002 555 1/018;
0150289520999992000072703004+53210+063610FM-12+015699999V0209999C000012200019N0200001N1+02281+01591101231ADDGF103991001001999999001011MD1410001+9999REMSYN098AAXX  27031 28952 /2998 30000 10228 20159 40123 54000 80001 333 55132 555 20200 30018 69982 7998/;
0140289520999992000072709004+53210+063610FM-12+015699999V0209999C000010075019N0200001N1+02641+01771101121ADDAY191031AY281031GF108991081091008001999999MD1810081+9999MW1251REMSYN066AAXX  27091 28952 41598 80000 10264 20177 40112 58008 72598 889//;
0171289520999992000072712004+53210+063610FM-12+015699999V0201401N009010075019N0040001N1+02801+01521101021ADDAY191061AY281061GF108991081091008001999999MA1999999099261MD1710091+9999MW1971REMSYN082AAXX  27121 28952 41596 81409 10280 20152 39926 40102 57009 79798 889// 555 1/031;
0159289520999992000072715004+53210+063610FM-12+015699999V0201401N001010075019N0200001N1+02401+01951101071ADDAY191031AY281031GF107991071091008001001001MD1310031+9999MW1021REMSYN085AAXX  27151 28952 /1598 71401 10240 20195 40107 53003 70298 87900 333 1326 555 60092;
0190289520999992000072718004+53210+063610FM-12+015699999V0209999C000012200019N9999999N1+02201+01971101181ADDAA100008991AY191061AY281061GA1001+999999999GF100991001001999999001001KA1999M+03261MD1210091+9999MW1011REMSYN076AAXX  27181 28952 118// 00000 10220 20197 40118 52009 60090 70198 333 10326;
0122289520999992000072721004+53210+063610FM-12+015699999V0209999C000012200019N9999999N1+02021+01851101201ADDGA1001+999999999GF100991001001999999001001MD1210011+9999REMSYN054AAXX  27211 28952 429// 00000 10202 20185 40120 52001;
0153289520999992000072800004+53210+063610FM-12+015699999V0209999C000012200019N0200001N1+01881+01801101221ADDGA1001+999999999GF100991001001999999001001MA1999999099411MD1210021+9999REMSYN070AAXX  28001 28952 42998 00000 10188 20180 39941 40122 52002 555 1/017;
0210289520999992000072803004+53210+063610FM-12+015699999V0209999C000012200019N0200001N1+02221+01891101331ADDAA199000091GA1001+999999999GF100991001001999999001001GJ105829IA1019IA2999+01709MD1210121+9999REMSYN086AAXX  28031 28952 32998 00000 10222 20189 40133 52012 333 55097 555 20187 30017 7009/;EQDQ01  00002PRCP99
0175289520999992000072806004+53210+063610FM-12+015699999V0203601N001012200019N0200001N1+02571+02021101311ADDAA199000091GA1001+999999999GF100991001001999999001001KA1999N+01871MD1210011+9999REMSYN064AAXX  28061 28952 32998 03601 10257 20202 40131 52001 333 20187;EQDQ01  00002PRCP99
0122289520999992000072809004+53210+063610FM-12+015699999V0200901N002012200019N0200001N1+03061+01641101281ADDGA1001+999999999GF100991001001999999001001MD1810011+9999REMSYN054AAXX  28091 28952 42998 00902 10306 20164 40128 58001;
0143289520999992000072812004+53210+063610FM-12+015699999V0209999C000012200019N0200001N1+03181+01561101161ADDGF101991011021008001001001MA1999999099421MD1710111+9999REMSYN076AAXX  28121 28952 42598 10000 10318 20156 39942 40116 57011 81200 555 1/044;
0165289520999992000072815004+53210+063610FM-12+015699999V0200501N001019999999N0200001N1+03021+01921101201ADDAA199000091GF107991001001999999001021KA1999M+03221MD1310031+9999REMSYN070AAXX  28151 28952 32998 70501 10302 20192 40120 53003 80002 333 10322;EQDQ01  00002PRCP99
0165289520999992000072818004+53210+063610FM-12+015699999V0200501N002012200019N9999999N1+02461+01841101301ADDAA199000091GF102991001001999999001011KA1999M+03221MD1210071+9999REMSYN070AAXX  28181 28952 329// 20502 10246 20184 40130 52007 80001 333 10322;EQDQ01  00002PRCP99
0122289520999992000072821004+53210+063610FM-12+015699999V0200501N003012200019N9999999N1+02221+01771101301ADDGA1001+999999999GF100991001001999999001001MD1810021+9999REMSYN054AAXX  28211 28952 429// 00503 10222 20177 40130 58002;
0143289520999992000072900004+53210+063610FM-12+015699999V0200901N003012200019N0200001N1+02141+01791101331ADDGF102991011021008001001011MA1999999099531MD1310031+9999REMSYN076AAXX  29001 28952 42598 20903 10214 20179 39953 40133 53003 81201 555 1/020;
0172289520999992000072903004+53210+063610FM-12+015699999V0201401N002010075019N0200001N1+02501+01841101331ADDAY191031AY281031GF107991071091008001001001MD1210031+9999MW1291REMSYN098AAXX  29031 28952 /1598 71402 10250 20184 40133 52003 72998 87900 333 55140 555 20214 32019 7994/;
0112289520999992000072909004+53210+063610FM-12+015699999V0202701N002012200019N0200001N1+03281+01441101251ADDGF106991021091008001001011MD1810051+9999REMSYN060AAXX  29091 28952 42598 62702 10328 20144 40125 58005 82901;
0143289520999992000072912004+53210+063610FM-12+015699999V0200901N002012200019N0200001N1+03451+01691101101ADDGF102991021091008001001001MA1999999099371MD1710141+9999REMSYN076AAXX  29121 28952 42598 20902 10345 20169 39937 40110 57014 82900 555 1/043;
0165289520999992000072915004+53210+063610FM-12+015699999V0201101N003012200019N0200001N1+03001+01371101021ADDAA199000091GF102991021091008001001001KA1999M+03471MD1710101+9999REMSYN070AAXX  29151 28952 32598 21103 10300 20137 40102 57010 82900 333 10347;EQDQ01  00002PRCP99
0175289520999992000072918004+53210+063610FM-12+015699999V0201601N003012200019N9999999N1+02491+01571101091ADDAA199000091GA1001+999999999GF100991001001999999001001KA1999M+03471MD1310041+9999REMSYN064AAXX  29181 28952 329// 01603 10249 20157 40109 53004 333 10347;EQDQ01  00002PRCP99
0122289520999992000072921004+53210+063610FM-12+015699999V0202301N003012200019N9999999N1+02561+01541101081ADDGA1001+999999999GF100991001001999999001001MD1410001+9999REMSYN054AAXX  29211 28952 429// 02303 10256 20154 40108 54000;
0143289520999992000073000004+53210+063610FM-12+015699999V0202301N003010075019N0200001N1+02381+01501101091ADDGF107991071031008001001001MA1999999099311MD1410001+9999REMSYN076AAXX  30001 28952 42598 72303 10238 20150 39931 40109 54000 87300 555 1/022;
0178289520999992000073003004+53210+063610FM-12+015699999V0202001N003010075019N0200001N1+02261+01691101111ADDAY181031AY221031GF107991071091008001001001MD1410001+9999MW1021REMSYN104AAXX  30031 28952 /1598 72003 10226 20169 40111 54000 70282 87900 333 55081 555 20226 30022 69902 7990/;
0180289520999992000073006004+53210+063610FM-12+015699999V0202001N002019999999N0200001N1+02881+01861101061ADDAA100000791AY181061AY221061GF107991071001999999051001KA1999N+02261MD1410001+9999MW1021REMSYN082AAXX  30061 28952 11998 72002 10288 20186 40106 54000 69900 70282 87050 333 20226;
0140289520999992000073009004+53210+063610FM-12+015699999V0202301N004010075019N0100001N1+02641+01561101171ADDAY181031AY221031GF108991081091008001999999MD1310091+9999MW1801REMSYN066AAXX  30091 28952 41597 82304 10264 20156 40117 53009 78082 889//;
0171289520999992000073012004+53210+063610FM-12+015699999V0209999C000010075019N0200001N1+02651+01691101181ADDAY181061AY221061GF107991061091008001001021MA1999999099411MD1210011+9999MW1031REMSYN082AAXX  30121 28952 41598 70000 10265 20169 39941 40118 52001 70382 86902 555 1/032;
0145289520999992000073015004+53210+063610FM-12+015699999V0209999C000012200019N0200001N1+02581+01661101181ADDGF103991031051008001001001KA1120M+03001MD1410001+9999REMSYN080AAXX  30151 28952 /2598 30000 10258 20166 40118 54000 83500 333 10300 555 69902;
0180289520999992000073018004+53210+063610FM-12+015699999V0209999C000012200019N9999999N1+02001+01791101191ADDAA100000791AY111061AY211061GF102991021091008001001001KA1999M+03001MD1810031+9999MW1131REMSYN082AAXX  30181 28952 115// 20000 10200 20179 40119 58003 69900 71311 82900 333 10300;
0122289520999992000073021004+53210+063610FM-12+015699999V0209999C000012200019N9999999N1+02001+01821101191ADDGA1001+999999999GF100991001001999999001001MD1410001+9999REMSYN054AAXX  30211 28952 429// 00000 10200 20182 40119 54000;
0210289520999992000073103004+53210+063610FM-12+015699999V0203201N002012200019N0200001N1+02101+01731101361ADDAA199000091GA1001+999999999GF100991001001999999001001GJ102589IA1019IA2999+01709MD1210131+9999REMSYN086AAXX  31031 28952 32998 03202 10210 20173 40136 52013 333 55043 555 20184 30017 7990/;EQDQ01  00002PRCP99
0112289520999992000073109004+53210+063610FM-12+015699999V0203201N004010120019N0200001N1+02681+01411101301ADDGF105991051021012501001001MD1410001+9999REMSYN060AAXX  31091 28952 42698 53204 10268 20141 40130 54000 85200;
0143289520999992000073112004+53210+063610FM-12+015699999V0203201N005012200019N0200001N1+02671+01591101311ADDGF103991031021012501001001MA1999999099541MD1310011+9999REMSYN076AAXX  31121 28952 42698 33205 10267 20159 39954 40131 53001 83200 555 1/039;
0175289520999992000073115004+53210+063610FM-12+015699999V0203201N002012200019N0200001N1+02561+01541101351ADDAA199000091GA1001+999999999GF100991001001999999001001KA1999M+02771MD1210041+9999REMSYN064AAXX  31151 28952 32998 03202 10256 20154 40135 52004 333 10277;EQDQ01  00002PRCP99
0175289520999992000073118004+53210+063610FM-12+015699999V0203201N001012200019N9999999N1+02061+01581101471ADDAA199000091GA1001+999999999GF100991001001999999001001KA1999M+02771MD1210081+9999REMSYN064AAXX  31181 28952 329// 03201 10206 20158 40147 52008 333 10277;EQDQ01  00002PRCP99
0122289520999992000073121004+53210+063610FM-12+015699999V0209999C000012200019N9999999N1+01801+01441101521ADDGA1001+999999999GF100991001001999999001001MD1210041+9999REMSYN054AAXX  31211 28952 429// 00000 10180 20144 40152 52004;
0153289520999992000080100004+53210+063610FM-12+015699999V0209999C000012200019N0200001N1+01601+01401101571ADDGA1001+999999999GF100991001001999999001001MA1999999099741MD1210041+9999REMSYN070AAXX  01001 28952 42998 00000 10160 20140 39974 40157 52004 555 1/015;
0210289520999992000080103004+53210+063610FM-12+015699999V0209999C000012200019N0200001N1+01961+01561101641ADDAA199000091GA1001+999999999GF100991001001999999001001GJ108709IA1019IA2999+01509MD1210081+9999REMSYN086AAXX  01031 28952 32998 00000 10196 20156 40164 52008 333 55145 555 20159 30015 7000/;EQDQ01  00002PRCP99
0165289520999992000080106004+53210+063610FM-12+015699999V0202901N002012200019N0200001N1+02541+01451101511ADDAA199000091GF101991001001999999001011KA1999N+01591MD1810081+9999REMSYN070AAXX  01061 28952 32998 12902 10254 20145 40151 58008 80001 333 20159;EQDQ01  00002PRCP99
0153289520999992000080112004+53210+063610FM-12+015699999V0202701N003012200019N0200001N1+03221+01491101091ADDGA1001+999999999GF100991001001999999001001MA1999999099351MD1710171+9999REMSYN070AAXX  01121 28952 42998 02703 10322 20149 39935 40109 57017 555 1/044;
0175289520999992000080115004+53210+063610FM-12+015699999V0209999C000012200019N0200001N1+03011+01741101061ADDAA199000091GA1001+999999999GF100991001001999999001001KA1999M+03221MD1710041+9999REMSYN064AAXX  01151 28952 32998 00000 10301 20174 40106 57004 333 10322;EQDQ01  00002PRCP99
0165289520999992000080118004+53210+063610FM-12+015699999V0209999C000012200019N9999999N1+02551+01771101071ADDAA199000091GF102991001001999999001021KA1999M+03221MD1710011+9999REMSYN070AAXX  01181 28952 329// 20000 10255 20177 40107 57001 80002 333 10322;EQDQ01  00002PRCP99
0112289520999992000080121004+53210+063610FM-12+015699999V0209999C000012200019N9999999N1+02241+01671101131ADDGF101991001001999999001011MD1310031+9999REMSYN060AAXX  01211 28952 429// 10000 10224 20167 40113 53003 80001;
0143289520999992000080200004+53210+063610FM-12+015699999V0209999C000012200019N0200001N1+02041+01731101191ADDGF101991001001999999001011MA1999999099381MD1210051+9999REMSYN076AAXX  02001 28952 42998 10000 10204 20173 39938 40119 52005 80001 555 1/020;
0200289520999992000080203004+53210+063610FM-12+015699999V0203201N001012200019N0200001N1+02281+01641101231ADDAA199000091GF101991001001999999001011GJ108829IA1019IA2999+02009MD1210051+9999REMSYN092AAXX  02031 28952 32998 13201 10228 20164 40123 52005 80001 333 55147 555 20204 30020 7000/;EQDQ01  00002PRCP99
0165289520999992000080206004+53210+063610FM-12+015699999V0202901N003012200019N0200001N1+02581+01491101171ADDAA199000091GF102991021001999999031001KA1999N+02041MD1810031+9999REMSYN070AAXX  02061 28952 32998 22903 10258 20149 40117 58003 82030 333 20204;EQDQ01  00002PRCP99
0122289520999992000080209004+53210+063610FM-12+015699999V0203201N004012200019N0200001N1+02731+01611101111ADDGA1001+999999999GF100991001001999999001001MD1710051+9999REMSYN054AAXX  02091 28952 42998 03204 10273 20161 40111 57005;
0153289520999992000080212004+53210+063610FM-12+015699999V0203401N003012200019N0200001N1+02961+01591101091ADDGA1001+999999999GF100991001001999999001001MA1999999099341MD1710011+9999REMSYN070AAXX  02121 28952 42998 03403 10296 20159 39934 40109 57001 555 1/043;
0175289520999992000080215004+53210+063610FM-12+015699999V0209999C000012200019N0200001N1+02841+01581101101ADDAA199000091GA1001+999999999GF100991001001999999001001KA1999M+02961MD1410001+9999REMSYN064AAXX  02151 28952 32998 00000 10284 20158 40110 54000 333 10296;EQDQ01  00002PRCP99
0175289520999992000080218004+53210+063610FM-12+015699999V0209999C000012200019N9999999N1+02211+01671101121ADDAA199000091GA1001+999999999GF100991001001999999001001KA1999M+02961MD1810021+9999REMSYN064AAXX  02181 28952 329// 00000 10221 20167 40112 58002 333 10296;EQDQ01  00002PRCP99
0122289520999992000080221004+53210+063610FM-12+015699999V0209999C000012200019N9999999N1+02021+01591101111ADDGA1001+999999999GF100991001001999999001001MD1710021+9999REMSYN054AAXX  02211 28952 429// 00000 10202 20159 40111 57002;
0143289520999992000080300004+53210+063610FM-12+015699999V0201801N002012200019N0200001N1+02061+01611101011ADDGF102991021051008001001001MA1999999099211MD1710091+9999REMSYN076AAXX  03001 28952 42598 21802 10206 20161 39921 40101 57009 82500 555 1/020;
0200289520999992000080303004+53210+063610FM-12+015699999V0201801N001010075019N0200001N1+02281+01741100971ADDAA199000091GF106991061091008001001001GJ108049IA1019IA2999+01909MD1710021+9999REMSYN092AAXX  03031 28952 32598 61801 10228 20174 40097 57002 86900 333 55134 555 20198 30019 7000/;EQDQ01  00002PRCP99
0165289520999992000080306004+53210+063610FM-12+015699999V0202501N003012200019N0200001N1+03171+01631100821ADDAA199000091GF108991021091008001001011KA1999N+01981MD1710101+9999REMSYN070AAXX  03061 28952 32598 82503 10317 20163 40082 57010 82901 333 20198;EQDQ01  00002PRCP99
0112289520999992000080309004+53210+063610FM-12+015699999V0202901N005019999999N0200001N1+03741+01071100741ADDGF108991001001999999001011MD1710061+9999REMSYN060AAXX  03091 28952 42998 82905 10374 20107 40074 57006 80001;
0143289520999992000080312004+53210+063610FM-12+015699999V0202701N005012200019N0200001N1+03721+00981100691ADDGF102991021091008001001001MA1999999098981MD1710051+9999REMSYN076AAXX  03121 28952 42598 22705 10372 20098 39898 40069 57005 82900 555 1/054;
0173289520999992000080315004+53210+063610FM-12+015699999V0202301N001012200019N0200001N1+03301+00981100691ADDAY101031AY221031GF108991041091008001001011KA1120M+03751MD1710021+9999MW1291REMSYN086AAXX  03151 28952 /1598 82301 10330 20098 40069 57002 72902 84901 333 10375 555 69902;
0190289520999992000080318004+53210+063610FM-12+015699999V0209999C000012200019N9999999N1+02481+01621100711ADDAA100000791AY191061AY281061GA1001+999999999GF100991001001999999001001KA1999M+03751MD1710021+9999MW1011REMSYN076AAXX  03181 28952 119// 00000 10248 20162 40071 57002 69900 70198 333 10375;
0122289520999992000080321004+53210+063610FM-12+015699999V0209999C000012200019N9999999N1+02141+01441100701ADDGA1001+999999999GF100991001001999999001001MD1710091+9999REMSYN054AAXX  03211 28952 429// 00000 10214 20144 40070 57009;
0143289520999992000080400004+53210+063610FM-12+015699999V0202001N001012200019N0200001N1+02321+01341100661ADDGF102991021091008001001001MA1999999098871MD1710041+9999REMSYN076AAXX  04001 28952 42598 22001 10232 20134 39887 40066 57004 82900 555 1/021;
0200289520999992000080403004+53210+063610FM-12+015699999V0202301N001010075019N0200001N1+02421+01511100671ADDAA199000091GF107991071091008001001001GJ107089IA1019IA2999+02109MD1310031+9999REMSYN092AAXX  04031 28952 32598 72301 10242 20151 40067 53003 87900 333 55118 555 20212 30021 7990/;EQDQ01  00002PRCP99
0165289520999992000080406004+53210+063610FM-12+015699999V0209999C000010075019N0200001N1+02621+01351100691ADDAA199000091GF107991071091008001001001KA1999N+02121MD1210031+9999REMSYN070AAXX  04061 28952 32598 70000 10262 20135 40069 52003 87900 333 20212;EQDQ01  00002PRCP99
0112289520999992000080409004+53210+063610FM-12+015699999V0202701N004019999999N0200001N1+03511+01211100651ADDGF106991001001999999001091MD1410001+9999REMSYN060AAXX  04091 28952 42998 62704 10351 20121 40065 54000 80009;
0143289520999992000080412004+53210+063610FM-12+015699999V0202701N001010075019N0200001N1+03361+01351100651ADDGF106991061051008001001001MA1999999098931MD1410001+9999REMSYN076AAXX  04121 28952 42598 62701 10336 20135 39893 40065 54000 86500 555 1/042;
0165289520999992000080415004+53210+063610FM-12+015699999V0209999C000010075019N0200001N1+02961+01771100521ADDAA199000091GF106991051051008001001091KA1999M+03511MD1810151+9999REMSYN070AAXX  04151 28952 32598 60000 10296 20177 40052 58015 85509 333 10351;EQDQ01  00002PRCP99
0193289520999992000080418004+53210+063610FM-12+015699999V0209999C000010075019N9999999N1+02251+01681100591ADDAA199000091AY191061AY281061GF108991081091008001999999KA1999M+03511MD1310021+9999MW1171REMSYN076AAXX  04181 28952 315// 80000 10225 20168 40059 53002 71798 889// 333 10351;EQDQ01  00002PRCP99
0140289520999992000080421004+53210+063610FM-12+015699999V0201801N004010075019N9999999N1+02201+01661100361ADDAY191031AY281031GF108991081091008001999999MD1810221+9999MW1291REMSYN066AAXX  04211 28952 415// 81804 10220 20166 40036 58022 72998 889//;
0171289520999992000080500004+53210+063610FM-12+015699999V0202001N006010075019N0200001N1+02271+01541100291ADDAY191061AY281061GF107991071091008001001001MA1999999098511MD1710071+9999MW1021REMSYN082AAXX  05001 28952 41598 72006 10227 20154 39851 40029 57007 70298 87900 555 1/020;
0178289520999992000080503004+53210+063610FM-12+015699999V0202001N002010075019N0100001N1+02121+01781100291ADDAY181031AY221031GF108991081091008001999999MD1410001+9999MW1801REMSYN104AAXX  05031 28952 /1597 82002 10212 20178 40029 54000 78082 889// 333 55037 555 20212 31020 60022 7002/;
0180289520999992000080506004+53210+063610FM-12+015699999V0202001N002010075019N0200001N1+02241+01861100251ADDAA100002091AY181061AY221061GF106991061091008001001001KA1999N+02121MD1810061+9999MW1021REMSYN082AAXX  05061 28952 11598 62002 10224 20186 40025 58006 60020 70282 86900 333 20212;
0131289520999992000080509004+53210+063610FM-12+015699999V0202701N007019999999N0200001N1+02451+01441100311ADDGF105991999091008001001001MD1310091+9999REMSYN060AAXX  05091 28952 42598 52707 10245 20144 40031 53009 86900;EQDQ01+000062SCOTLC
0143289520999992000080512004+53210+063610FM-12+015699999V0202701N007012200019N0200001N1+02601+00931100361ADDGF102991021011012501001001MA1999999098611MD1210071+9999REMSYN076AAXX  05121 28952 42698 22707 10260 20093 39861 40036 52007 82100 555 1/038;
0145289520999992000080515004+53210+063610FM-12+015699999V0202701N002012200019N0200001N1+02401+01171100481ADDGF102991021051008001001001KA1120M+02601MD1210101+9999REMSYN080AAXX  05151 28952 /2598 22702 10240 20117 40048 52010 82500 333 10260 555 69902;
0152289520999992000080518004+53210+063610FM-12+015699999V0209999C000019999999N9999999N1+01821+01381100611ADDAA100000791GF105991051001999999031001KA1999M+02601MD1210091+9999REMSYN076AAXX  05181 28952 129// 50000 10182 20138 40061 52009 69900 85030 333 10260;
0122289520999992000080521004+53210+063610FM-12+015699999V0209999C000012200019N9999999N1+01761+01371100611ADDGA1001+999999999GF100991001001999999001001MD1410001+9999REMSYN054AAXX  05211 28952 429// 00000 10176 20137 40061 54000;
0153289520999992000080600004+53210+063610FM-12+015699999V0202701N001012200019N0200001N1+01601+01271100701ADDGA1001+999999999GF100991001001999999001001MA1999999098881MD1310081+9999REMSYN070AAXX  06001 28952 42998 02701 10160 20127 39888 40070 53008 555 1/015;
0210289520999992000080603004+53210+063610FM-12+015699999V0202701N003012200019N0200001N1+01841+01231100731ADDAA199000091GA1001+999999999GF100991001001999999001001GJ105109IA1019IA2999+01409MD1210041+9999REMSYN086AAXX  06031 28952 32998 02703 10184 20123 40073 52004 333 55085 555 20160 30014 7990/;EQDQ01  00002PRCP99
0165289520999992000080606004+53210+063610FM-12+015699999V0202501N004010120019N0200001N1+02171+01021100741ADDAA199000091GF105991051021012501001001KA1999N+01601MD1210021+9999REMSYN070AAXX  06061 28952 32698 52504 10217 20102 40074 52002 85200 333 20160;EQDQ01  00002PRCP99
0112289520999992000080609004+53210+063610FM-12+015699999V0202701N005010120019N0200001N1+02361+00891100761ADDGF106991051021012501001011MD1210031+9999REMSYN060AAXX  06091 28952 42698 62705 10236 20089 40076 52003 85201;
0143289520999992000080612004+53210+063610FM-12+015699999V0202701N004012200019N0200001N1+02481+00841100761ADDGF106991031021012501001011MA1999999098991MD1210021+9999REMSYN076AAXX  06121 28952 42698 62704 10248 20084 39899 40076 52002 83201 555 1/040;
0165289520999992000080615004+53210+063610FM-12+015699999V0202701N001019999999N0200001N1+02241+00991100811ADDAA199000091GF107991001001999999001011KA1999M+02501MD1210031+9999REMSYN070AAXX  06151 28952 32998 72701 10224 20099 40081 52003 80001 333 10250;EQDQ01  00002PRCP99
0165289520999992000080618004+53210+063610FM-12+015699999V0209999C000012200019N9999999N1+01631+01111100881ADDAA199000091GF101991001001999999001011KA1999M+02501MD1210041+9999REMSYN070AAXX  06181 28952 329// 10000 10163 20111 40088 52004 80001 333 10250;EQDQ01  00002PRCP99
0107289520999992000080621004+53210+063610FM-12+015699999V0209999C000012200019N9999999N1+01411+01111100851ADDGA1001+999999999GF100991001001999999001001REMSYN053AAXX  06211 28952 429// 00000 10141 20111 40085 5805;
0143289520999992000080700004+53210+063610FM-12+015699999V0201601N001010075019N0200001N1+01521+01001100711ADDGF107991071051008001999999MA1999999098871MD1710141+9999REMSYN076AAXX  07001 28952 42598 71601 10152 20100 39887 40071 57014 875// 555 1/015;
0207289520999992000080703004+53210+063610FM-12+015699999V0201801N001010075019N0040001N1+01481+01371100681ADDAA112002091AY181031AY221031GF108991081091008001999999IA1119IA2999+01309MD1710031+9999MW1801REMSYN104AAXX  07031 28952 /1596 81801 10148 20137 40068 57003 78082 889// 333 35144 555 20141 32013 60022 7002/;
0180289520999992000080706004+53210+063610FM-12+015699999V0202901N002010075019N0200001N1+01541+01471100651ADDAA100002091AY181061AY221061GF108991081091008001999999KA1999N+01411MD1710011+9999MW1251REMSYN082AAXX  07061 28952 11598 82902 10154 20147 40065 57001 60020 72582 889// 333 20141;
0140289520999992000080709004+53210+063610FM-12+015699999V0203201N002010075019N0100001N1+02101+01351100611ADDAY101031AY221031GF107991071091008001001001MD1710021+9999MW1801REMSYN066AAXX  07091 28952 41597 73202 10210 20135 40061 57002 78002 87900;
0171289520999992000080712004+53210+063610FM-12+015699999V0203201N003010075019N0200001N1+01981+01211100741ADDAY181061AY221061GF107991071091008001001001MA1999999098941MD1310131+9999MW1021REMSYN082AAXX  07121 28952 41598 73203 10198 20121 39894 40074 53013 70282 87900 555 1/029;
0145289520999992000080715004+53210+063610FM-12+015699999V0202701N002012200019N0200001N1+01901+01111100891ADDGF102991021091008001001001KA1120M+02101MD1210141+9999REMSYN080AAXX  07151 28952 /2598 22702 10190 20111 40089 52014 82900 333 10210 555 60052;
0162289520999992000080718004+53210+063610FM-12+015699999V0209999C000012200019N9999999N1+01451+01151101041ADDAA100005191GA1001+999999999GF100991001001999999001001KA1999M+02101MD1210121+9999REMSYN070AAXX  07181 28952 129// 00000 10145 20115 40104 52012 60050 333 10210;
0122289520999992000080721004+53210+063610FM-12+015699999V0209999C000012200019N9999999N1+01201+00971101141ADDGA1001+999999999GF100991001001999999001001MD1210081+9999REMSYN054AAXX  07211 28952 429// 00000 10120 20097 40114 52008;
0147289520999992000080800004+53210+063610FM-12+015699999V0209999C000012200019N0200001N1+01051+99999101201ADDGA1001+999999999GF100991001001999999001001MA1999999099331MD1210051+9999REMSYN064AAXX  08001 28952 42998 00000 10105 39933 40120 52005 555 1/011;
0210289520999992000080803004+53210+063610FM-12+015699999V0202701N002012200019N0200001N1+01401+01071101351ADDAA199000091GA1001+999999999GF100991001001999999001001GJ104149IA1099IA2999+01109MD1210171+9999REMSYN086AAXX  08031 28952 32998 02702 10140 20107 40135 52017 333 55069 555 20103 31011 7005/;EQDQ01  00002PRCP99
0165289520999992000080806004+53210+063610FM-12+015699999V0202701N002010120019N0200001N1+02041+00901101241ADDAA199000091GF106991061021012501001001KA1999N+01031MD1810071+9999REMSYN070AAXX  08061 28952 32698 62702 10204 20090 40124 58007 86200 333 20103;EQDQ01  00002PRCP99
0112289520999992000080809004+53210+063610FM-12+015699999V0202501N003010120019N0200001N1+02261+00551101131ADDGF107991061021012501001021MD1710101+9999REMSYN060AAXX  08091 28952 42698 72503 10226 20055 40113 57010 86202;
0143289520999992000080812004+53210+063610FM-12+015699999V0202501N004010750019N0200001N1+02191+00431101031ADDGF107991031021012501001091MA1999999099231MD1710101+9999REMSYN076AAXX  08121 28952 42698 72504 10219 20043 39923 40103 57010 83209 555 1/030;
0173289520999992000080815004+53210+063610FM-12+015699999V0202701N005010075019N0100001N1+01561+01071101061ADDAY181031AY221031GF107991071091008001001001KA1120M+02261MD1410001+9999MW1801REMSYN086AAXX  08151 28952 /1597 72705 10156 20107 40106 54000 78082 87900 333 10226 555 69992;
0180289520999992000080818004+53210+063610FM-12+015699999V0202701N002010075019N9999999N1+01541+01111101031ADDAA100001091AY181061AY221061GF108991081091008001999999KA1999M+02261MD1810041+9999MW1021REMSYN082AAXX  08181 28952 115// 82702 10154 20111 40103 58004 69990 70282 889// 333 10226;
0122289520999992000080821004+53210+063610FM-12+015699999V0202701N002012200019N9999999N1+01381+01021101181ADDGA1001+999999999GF100991001001999999001001MD1310141+9999REMSYN054AAXX  08211 28952 429// 02702 10138 20102 40118 53014;
0143289520999992000080900004+53210+063610FM-12+015699999V0209999C000010075019N0018001N1+01271+01071101291ADDGF107991071051008001001001MA1999999099431MD1210101+9999REMSYN076AAXX  09001 28952 42518 70000 10127 20107 39943 40129 52010 87500 555 1/012;
0150289520999992000080903004+53210+063610FM-12+015699999V0202701N002010075019N0200001N1+01461+01101101311ADDGF107991071091008001001001MD1210031+9999REMSYN098AAXX  09031 28952 /2598 72702 10146 20110 40131 52003 87900 333 55118 555 20127 31012 69902 7999/;
0152289520999992000080906004+53210+063610FM-12+015699999V0202701N003010075019N0200001N1+01721+01111101341ADDAA100000791GF107991071091008001001001KA1999N+01271MD1210051+9999REMSYN076AAXX  09061 28952 12598 72703 10172 20111 40134 52005 69900 87900 333 20127;
0112289520999992000080909004+53210+063610FM-12+015699999V0203201N005010075019N0200001N1+01991+01071101311ADDGF107991071091008001001001MD1810011+9999REMSYN060AAXX  09091 28952 42598 73205 10199 20107 40131 58001 87900;
0143289520999992000080912004+53210+063610FM-12+015699999V0203401N003010075019N0200001N1+02001+01131101341ADDGF106991061091008001001001MA1999999099531MD1310031+9999REMSYN076AAXX  09121 28952 42598 63403 10200 20113 39953 40134 53003 86900 555 1/026;
0165289520999992000080915004+53210+063610FM-12+015699999V0203201N002010300019N0200001N1+01911+01231101401ADDAA199000091GF105991021051008001031001KA1999M+02121MD1210051+9999REMSYN070AAXX  09151 28952 32598 53202 10191 20123 40140 52005 82530 333 10212;EQDQ01  00002PRCP99
0165289520999992000080918004+53210+063610FM-12+015699999V0209999C000012200019N9999999N1+01521+01231101521ADDAA199000091GF102991001001999999001021KA1999M+02121MD1210091+9999REMSYN070AAXX  09181 28952 329// 20000 10152 20123 40152 52009 80002 333 10212;EQDQ01  00002PRCP99
0122289520999992000080921004+53210+063610FM-12+015699999V0209999C000012200019N9999999N1+01331+01101101641ADDGA1001+999999999GF100991001001999999001001MD1210101+9999REMSYN054AAXX  09211 28952 429// 00000 10133 20110 40164 52010;
0153289520999992000081000004+53210+063610FM-12+015699999V0209999C000012200019N0200001N1+01191+01101101691ADDGA1001+999999999GF100991001001999999001001MA1999999099821MD1210051+9999REMSYN070AAXX  10001 28952 42998 00000 10119 20110 39982 40169 52005 555 1/011;
0210289520999992000081003004+53210+063610FM-12+015699999V0209999C000012200019N0200001N1+01451+01181101731ADDAA199000091GA1001+999999999GF100991001001999999001001GJ103789IA1019IA2999+01009MD1210061+9999REMSYN086AAXX  10031 28952 32998 00000 10145 20118 40173 52006 333 55063 555 20118 30010 7000/;EQDQ01  00002PRCP99
0165289520999992000081006004+53210+063610FM-12+015699999V0203201N003010075019N0200001N1+02081+01251101731ADDAA199000091GF106991061021008001001001KA1999N+01181MD1210031+9999REMSYN070AAXX  10061 28952 32598 63203 10208 20125 40173 52003 86200 333 20118;EQDQ01  00002PRCP99
0112289520999992000081009004+53210+063610FM-12+015699999V0209999C000010750019N0200001N1+02441+01021101701ADDGF105991031021008001001031MD1410001+9999REMSYN060AAXX  10091 28952 42598 50000 10244 20102 40170 54000 83203;
0162289520999992000081012004+53210+063610FM-12+015699999V0209999C000012200019N0200001N1+02581+00891101611ADDGF102991001001999999001011MA1999999099821MD1810091+9999REMSYN076AAXX  10121 28952 42698 20000 10258 20089 39982 40161 58009 80001 555 1/044;EQDQ01+012502SCOLCB
0165289520999992000081015004+53210+063610FM-12+015699999V0209999C000012200019N0200001N1+02311+01261101611ADDAA199000091GF103991001001999999001021KA1999M+02591MD1710011+9999REMSYN070AAXX  10151 28952 32998 30000 10231 20126 40161 57001 80002 333 10259;EQDQ01  00002PRCP99
0165289520999992000081018004+53210+063610FM-12+015699999V0209999C000010075019N9999999N1+01961+01141101621ADDAA199000091GF107991071091008001001001KA1999M+02591MD1710011+9999REMSYN070AAXX  10181 28952 325// 70000 10196 20114 40162 57001 87900 333 10259;EQDQ01  00002PRCP99
0122289520999992000081021004+53210+063610FM-12+015699999V0209999C000012200019N9999999N1+01741+01091101621ADDGA1001+999999999GF100991001001999999001001MD1710021+9999REMSYN054AAXX  10211 28952 429// 00000 10174 20109 40162 57002;
0153289520999992000081100004+53210+063610FM-12+015699999V0209999C000012200019N0200001N1+01501+01001101601ADDGA1001+999999999GF100991001001999999001001MA1999999099751MD1710031+9999REMSYN070AAXX  11001 28952 42998 00000 10150 20100 39975 40160 57003 555 1/015;
0200289520999992000081103004+53210+063610FM-12+015699999V0209999C000012200019N0200001N1+01921+01301101521ADDAA199000091GF102991021051008001001001GJ107689IA1019IA2999+01509MD1710051+9999REMSYN092AAXX  11031 28952 32598 20000 10192 20130 40152 57005 82500 333 55128 555 20149 30015 7000/;EQDQ01  00002PRCP99
0159289520999992000081106004+53210+063610FM-12+015699999V0202001N003012200019N0200001N1+02741+99999101401ADDAA199000091GF102991021051008001001001KA1999N+01491MD1710061+9999REMSYN064AAXX  11061 28952 32598 22003 10274 40140 57006 82500 333 20149;EQDQ01  00002PRCP99
0112289520999992000081109004+53210+063610FM-12+015699999V0202301N003012200019N0200001N1+03281+01021101211ADDGF107991041091008001001011MD1710171+9999REMSYN060AAXX  11091 28952 42598 72303 10328 20102 40121 57017 84901;
0171289520999992000081112004+53210+063610FM-12+015699999V0201801N005010075019N0200001N1+03021+00651101031ADDAY181061AY211061GF107991071091008001001001MA1999999099281MD1710191+9999MW1021REMSYN082AAXX  11121 28952 41598 71805 10302 20065 39928 40103 57019 70281 87900 555 1/036;
0173289520999992000081115004+53210+063610FM-12+015699999V0209999C000010075019N0200001N1+02441+01681101061ADDAY181031AY221031GF107991071091008001001001KA1120M+03201MD1410001+9999MW1021REMSYN086AAXX  11151 28952 /1598 70000 10244 20168 40106 54000 70282 87900 333 10320 555 60082;
0180289520999992000081118004+53210+063610FM-12+015699999V0209999C000012200019N9999999N1+01901+01621101101ADDAA100007991AY181061AY211061GF102991021001999999031001KA1999M+03201MD1410001+9999MW1011REMSYN082AAXX  11181 28952 119// 20000 10190 20162 40110 54000 60080 70181 82030 333 10320;
0140289520999992000081121004+53210+063610FM-12+015699999V0203201N003010075019N9999999N1+01801+01541101101ADDAY191031AY281031GF107991071091008001001001MD1410001+9999MW1951REMSYN066AAXX  11211 28952 415// 73203 10180 20154 40110 54000 79598 87900;
0171289520999992000081200004+53210+063610FM-12+015699999V0209999C000010075019N0200001N1+01701+01591101111ADDAY191061AY281061GF107991071091008001001001MA1999999099281MD1410001+9999MW1171REMSYN082AAXX  12001 28952 41598 70000 10170 20159 39928 40111 54000 71798 87900 555 1/018;
0144289520999992000081203004+53210+063610FM-12+015699999V0209999C000012200019N0200001N1+01901+01651101111ADDGF103991031091008001001001MD1310021+9999REMSYN092AAXX  12031 28952 /2598 30000 10190 20165 40111 53002 83900 333 55095 555 20168 32018 7007/;
0112289520999992000081209004+53210+063610FM-12+015699999V0209999C000010075019N0200001N1+02681+01571101091ADDGF106991061091008001001001MD1410001+9999REMSYN060AAXX  12091 28952 42598 60000 10268 20157 40109 54000 86900;
0171289520999992000081212004+53210+063610FM-12+015699999V0209999C000010075019N0200001N1+02601+01691100991ADDAY191061AY281061GF106991061091008001001001MA1999999099231MD1810091+9999MW1171REMSYN082AAXX  12121 28952 41598 60000 10260 20169 39923 40099 58009 71798 86900 555 1/032;
0173289520999992000081215004+53210+063610FM-12+015699999V0200201N001010075019N0200001N1+02201+01511101051ADDAY191031AY221031GF106991061091008001001001KA1120M+02701MD1310021+9999MW1291REMSYN086AAXX  12151 28952 /1598 60201 10220 20151 40105 53002 72992 86900 333 10270 555 60012;
0180289520999992000081218004+53210+063610FM-12+015699999V0203601N001010075019N9999999N1+01881+01491101131ADDAA100001091AY191061AY221061GF106991061091008001001001KA1999M+02701MD1210061+9999MW1131REMSYN082AAXX  12181 28952 115// 63601 10188 20149 40113 52006 60010 71392 86900 333 10270;
0112289520999992000081221004+53210+063610FM-12+015699999V0209999C000010075019N9999999N1+01751+01461101171ADDGF106991061091008001001001MD1210041+9999REMSYN060AAXX  12211 28952 425// 60000 10175 20146 40117 52004 86900;
0143289520999992000081300004+53210+063610FM-12+015699999V0209999C000012200019N0200001N1+01371+01261101231ADDGF102991021001999999031001MA1999999099381MD1210031+9999REMSYN076AAXX  13001 28952 42998 20000 10137 20126 39938 40123 52003 82030 555 1/014;
0200289520999992000081303004+53210+063610FM-12+015699999V0202901N001019999999N0200001N1+01621+01281101301ADDAA199000091GF106991001001999999001021GJ107389IA1099IA2999+01409MD1210091+9999REMSYN092AAXX  13031 28952 32998 62901 10162 20128 40130 52009 80002 333 55123 555 20137 31014 7001/;EQDQ01  00002PRCP99
0165289520999992000081306004+53210+063610FM-12+015699999V0203201N003012200019N0200001N1+02191+01111101331ADDAA199000091GF101991011021012501001001KA1999N+01371MD1210061+9999REMSYN070AAXX  13061 28952 32698 13203 10219 20111 40133 52006 81200 333 20137;EQDQ01  00002PRCP99
0112289520999992000081309004+53210+063610FM-12+015699999V0202901N003010075019N0200001N1+02361+00861101371ADDGF105991051091008001001001MD1210041+9999REMSYN060AAXX  13091 28952 42598 52903 10236 20086 40137 52004 85900;
0143289520999992000081312004+53210+063610FM-12+015699999V0203201N005010750019N0200001N1+02391+00531101411ADDGF105991021011012501001021MA1999999099611MD1210041+9999REMSYN076AAXX  13121 28952 42698 53205 10239 20053 39961 40141 52004 82102 555 1/033;
0165289520999992000081315004+53210+063610FM-12+015699999V0203201N003012200019N0200001N1+02101+00741101501ADDAA199000091GF103991021001999999031021KA1999M+02431MD1210081+9999REMSYN070AAXX  13151 28952 32998 33203 10210 20074 40150 52008 82032 333 10243;EQDQ01  00002PRCP99
0165289520999992000081318004+53210+063610FM-12+015699999V0209999C000012200019N9999999N1+01481+00981101661ADDAA199000091GF101991001001999999001021KA1999M+02431MD1210121+9999REMSYN070AAXX  13181 28952 329// 10000 10148 20098 40166 52012 80002 333 10243;EQDQ01  00002PRCP99
0122289520999992000081321004+53210+063610FM-12+015699999V0209999C000012200019N9999999N1+01261+00971101701ADDGA1001+999999999GF100991001001999999001001MD1210021+9999REMSYN054AAXX  13211 28952 429// 00000 10126 20097 40170 52002;
0153289520999992000081400004+53210+063610FM-12+015699999V0209999C000012200019N9999999N1+00991+00821101781ADDGA1001+999999999GF100991001001999999001001MA1999999099901MD1210071+9999REMSYN070AAXX  14001 28952 429// 00000 10099 20082 39990 40178 52007 555 1/008;
0210289520999992000081403004+53210+063610FM-12+015699999V0202701N001012200019N0200001N1+01361+00971101801ADDAA199000091GA1001+999999999GF100991001001999999001001GJ107869IA1019IA2999+00709MD1210031+9999REMSYN086AAXX  14031 28952 32998 02701 10136 20097 40180 52003 333 55131 555 20098 30007 7000/;EQDQ01  00002PRCP99
0165289520999992000081406004+53210+063610FM-12+015699999V0202301N002010120019N0200001N1+02151+00771101701ADDAA199000091GF105991051021012501001001KA1999N+00981MD1810051+9999REMSYN070AAXX  14061 28952 32698 52302 10215 20077 40170 58005 85200 333 20098;EQDQ01  00002PRCP99
0112289520999992000081409004+53210+063610FM-12+015699999V0202701N004012200019N0200001N1+02281+00401101711ADDGF103991031021012501001001MD1310031+9999REMSYN060AAXX  14091 28952 42698 32704 10228 20040 40171 53003 83200;
0143289520999992000081412004+53210+063610FM-12+015699999V0202701N003012200019N0200001N1+02421+00531101611ADDGF105991041021012501001011MA1999999099821MD1810091+9999REMSYN076AAXX  14121 28952 42698 52703 10242 20053 39982 40161 58009 84201 555 1/033;
0165289520999992000081415004+53210+063610FM-12+015699999V0209999C000012200019N0200001N1+02181+00781101591ADDAA199000091GF102991001001999999001011KA1999M+02441MD1710041+9999REMSYN070AAXX  14151 28952 32998 20000 10218 20078 40159 57004 80001 333 10244;EQDQ01  00002PRCP99
0165289520999992000081418004+53210+063610FM-12+015699999V0209999C000012200019N9999999N1+01501+00781101591ADDAA199000091GF102991001001999999001011KA1999M+02441MD1710041+9999REMSYN070AAXX  14181 28952 329// 20000 10150 20078 40159 57004 80001 333 10244;EQDQ01  00002PRCP99
0112289520999992000081421004+53210+063610FM-12+015699999V0209999C000019999999N9999999N1+01351+00741101511ADDGF106991001001999999001011MD1710091+9999REMSYN060AAXX  14211 28952 429// 60000 10135 20074 40151 57009 80001;
0143289520999992000081500004+53210+063610FM-12+015699999V0202301N001019999999N0200001N1+01161+00731101471ADDGF106991001001999999001011MA1999999099601MD1710051+9999REMSYN076AAXX  15001 28952 42998 62301 10116 20073 39960 40147 57005 80001 555 1/009;
0200289520999992000081503004+53210+063610FM-12+015699999V0201801N001012200019N0200001N1+01601+00741101351ADDAA199000091GF103991001001999999001011GJ107989IA1019IA2999+00909MD1710081+9999REMSYN092AAXX  15031 28952 32998 31801 10160 20074 40135 57008 80001 333 55133 555 20115 30009 7000/;EQDQ01  00002PRCP99
0175289520999992000081506004+53210+063610FM-12+015699999V0202001N003012200019N0200001N1+02341+00481101231ADDAA199000091GA1001+999999999GF100991001001999999001001KA1999N+01151MD1710091+9999REMSYN064AAXX  15061 28952 32998 02003 10234 20048 40123 57009 333 20115;EQDQ01  00002PRCP99
0112289520999992000081509004+53210+063610FM-12+015699999V0201801N001012200019N0200001N1+02681+00551101071ADDGF101991011021012501001001MD1710131+9999REMSYN060AAXX  15091 28952 42698 11801 10268 20055 40107 57013 81200;
0143289520999992000081512004+53210+063610FM-12+015699999V0201401N002012200019N0200001N1+02801+00701100881ADDGF102991021091008001001001MA1999999099131MD1710171+9999REMSYN076AAXX  15121 28952 42598 21402 10280 20070 39913 40088 57017 82900 555 1/043;
0165289520999992000081515004+53210+063610FM-12+015699999V0209999C000010075019N0200001N1+02381+01091100791ADDAA199000091GF105991051091008001001001KA1999M+02851MD1710111+9999REMSYN070AAXX  15151 28952 32598 50000 10238 20109 40079 57011 85900 333 10285;EQDQ01  00002PRCP99
0165289520999992000081518004+53210+063610FM-12+015699999V0209999C000010075019N9999999N1+01941+01321100701ADDAA199000091GF107991071091008001001001KA1999M+02851MD1710121+9999REMSYN070AAXX  15181 28952 325// 70000 10194 20132 40070 57012 87900 333 10285;EQDQ01  00002PRCP99
0112289520999992000081521004+53210+063610FM-12+015699999V0209999C000012200019N9999999N1+01641+01041100631ADDGF105991021091008001001011MD1710091+9999REMSYN060AAXX  15211 28952 425// 50000 10164 20104 40063 57009 82901;
0200289520999992000081603004+53210+063610FM-12+015699999V0203601N003019999999N0200001N1+01721+00731100521ADDAA199000091GF108991031001999999031011GJ107269IA1019IA2999+01209MD1710021+9999REMSYN092AAXX  16031 28952 32998 83603 10172 20073 40052 57002 83031 333 55121 555 20130 30012 7000/;EQDQ01  00002PRCP99
0165289520999992000081606004+53210+063610FM-12+015699999V0203601N002019999999N0200001N1+02491+00841100361ADDAA199000091GF106991001001999999001021KA1999N+01301MD1710121+9999REMSYN070AAXX  16061 28952 32998 63602 10249 20084 40036 57012 80002 333 20130;EQDQ01  00002PRCP99
0112289520999992000081609004+53210+063610FM-12+015699999V0201601N002010750019N0200001N1+02781+00211100211ADDGF107991031021008001001091MD1710131+9999REMSYN060AAXX  16091 28952 42598 71602 10278 20021 40021 57013 83209;
0171289520999992000081612004+53210+063610FM-12+015699999V0202001N004010075019N0100001N1+02131+01251100221ADDAY181061AY221061GF108991081091008001999999MA1999999098431MD1710031+9999MW1801REMSYN082AAXX  16121 28952 41597 82004 10213 20125 39843 40022 57003 78082 889// 555 1/026;
0173289520999992000081615004+53210+063610FM-12+015699999V0202301N002010075019N0100001N1+02041+00901100201ADDAY181031AY221031GF108991081091008001999999KA1120M+02951MD1710021+9999MW1801REMSYN086AAXX  16151 28952 /1597 82302 10204 20090 40020 57002 78082 889// 333 10295 555 69902;
0199289520999992000081618004+53210+063610FM-12+015699999V0201401N999990075019N9999999N1+01701+01121100261ADDAA100000791AY181061AY221061GF108991081091008001999999KA1999M+02951MD1310041+9999MW1801REMSYN082AAXX  16181 28952 115// 86402 10170 20112 40026 53004 69900 78082 889// 333 10295;EQDQ01+010201WOSPD 
0140289520999992000081621004+53210+063610FM-12+015699999V0203201N003010075019N9999999N1+01561+01311100261ADDAY181031AY221031GF108991081091008001999999MD1410001+9999MW1021REMSYN066AAXX  16211 28952 415// 83203 10156 20131 40026 54000 70282 889//;
0171289520999992000081700004+53210+063610FM-12+015699999V0209999C000010075019N0200001N1+01521+01301100311ADDAY161061AY221061GF108991081091008001999999MA1999999098481MD1310031+9999MW1021REMSYN082AAXX  17001 28952 41598 80000 10152 20130 39848 40031 53003 70262 889// 555 1/015;
0132289520999992000081703004+53210+063610FM-12+015699999V0203401N002010075019N0200001N1+01521+01261100281ADDGF106991051091008001001021MD1210071+9999REMSYN080AAXX  17031 28952 /2598 63402 10152 20126 40028 52007 85902 333 55085 555 20148;
0152289520999992000081706004+53210+063610FM-12+015699999V0203201N003019999999N0200001N1+01801+01191100371ADDAA100001091GF105991021001999999031021KA1999N+01481MD1210021+9999REMSYN076AAXX  17061 28952 12998 53203 10180 20119 40037 52002 60010 82032 333 20148;
0112289520999992000081709004+53210+063610FM-12+015699999V0202901N003010120019N0200001N1+02191+00881100341ADDGF105991051021012501001001MD1810011+9999REMSYN060AAXX  17091 28952 42698 52903 10219 20088 40034 58001 85200;
0165289520999992000081715004+53210+063610FM-12+015699999V0209999C000012200019N0200001N1+02061+01001100341ADDAA199000091GF103991031091008001001001KA1999M+02351MD1810071+9999REMSYN070AAXX  17151 28952 32598 30000 10206 20100 40034 58007 83900 333 10235;EQDQ01  00002PRCP99
0174289520999992000081718004+53210+063610FM-12+015699999V0202301N004010075019N9999999N1+01951+00951100341ADDAA199000021AY181061AY221061GF108991081091008001999999KA1999M+02351MD1710011+9999MW1801REMSYN076AAXX  17181 28952 315// 82304 10195 20095 40034 57001 78082 889// 333 10235;
0150289520999992000081721004+53210+063610FM-12+015699999V0202701N005012200019N9999999N1+01321+00801100641ADDAY181031AY211031GA1001+999999999GF100991001001999999001001MD1310251+9999MW1011REMSYN060AAXX  17211 28952 419// 02705 10132 20080 40064 53025 70181;
0200289520999992000081800004+53210+063610FM-12+015699999V0202701N002012200019N0200001N1+00911+99999100801ADDAY181061AY211061GA1001+999999999GF100991001001999999001001MA1999999098921MD1210131+9999MW1021REMSYN076AAXX  18001 28952 41998 02702 10091 21094 39892 40080 52013 70281 555 1/011;EQDQ01-000943ATOD  
0197289520999992000081803004+53210+063610FM-12+015699999V0202701N004012200019N0200001N1+01271+00681100971ADDAA112999929GA1001+999999999GF100991001001999999001001GJ106609IA1019IA2999+00909MD1210201+9999REMSYN092AAXX  18031 28952 /2998 02704 10127 20068 40097 52020 333 55110 555 20090 30009 69902 7990/;
0152289520999992000081806004+53210+063610FM-12+015699999V0202701N005010120019N0200001N1+01731+00381100981ADDAA100000791GF105991051021012501001001KA1999N+00901MD1210041+9999REMSYN076AAXX  18061 28952 32698 52705 10173 20038 40098 52004 69900 85200 333 20090;
0112289520999992000081809004+53210+063610FM-12+015699999V0202701N004012200019N0200001N1+01981+00401101031ADDGF102991021021012501001011MD1210061+9999REMSYN060AAXX  18091 28952 42698 22704 10198 20040 40103 52006 82201;
0165289520999992000081818004+53210+063610FM-12+015699999V02099999999999999999N9999999N1+01221+00741101261ADDAA199000091GF106991001001999999001011KA1999M+02171MD1210101+9999REMSYN070AAXX  18181 28952 329// 63701 10122 20074 40126 52010 80001 333 10217;EQDQ01  00002PRCP99
0112289520999992000081821004+53210+063610FM-12+015699999V0209999C000019999999N9999999N1+00991+00711101351ADDGF106991061001999999031001MD1210071+9999REMSYN060AAXX  18211 28952 429// 60000 10099 20071 40135 52007 86030;
0143289520999992000081900004+53210+063610FM-12+015699999V0209999C000010075019N9999999N1+00991+00671101351ADDGF107991071051008001001001MA1999999099471MD1410001+9999REMSYN076AAXX  19001 28952 425// 70000 10099 20067 39947 40135 54000 87500 555 1/009;
0200289520999992000081903004+53210+063610FM-12+015699999V0209999C000019999999N0200001N1+01321+00811101391ADDAA199000091GF105991031001999999031011GJ108229IA1019IA2999+00909MD1310061+9999REMSYN092AAXX  19031 28952 32998 50000 10132 20081 40139 53006 83031 333 55137 555 20098 30009 7000/;EQDQ01  00002PRCP99
0165289520999992000081906004+53210+063610FM-12+015699999V0202701N003012200019N0200001N1+01961+00481101351ADDAA199000091GF102991011011012501041001KA1999N+00981MD1410001+9999REMSYN070AAXX  19061 28952 32698 22703 10196 20048 40135 54000 81140 333 20098;EQDQ01  00002PRCP99
0112289520999992000081909004+53210+063610FM-12+015699999V0202301N002010075019N0200001N1+02201+00651101271ADDGF106991061031008001001001MD1810061+9999REMSYN060AAXX  19091 28952 42598 62302 10220 20065 40127 58006 86300;
0143289520999992000081912004+53210+063610FM-12+015699999V0202301N002012200019N0200001N1+02401+00891101061ADDGF103991031051008001001001MA1999999099281MD1710191+9999REMSYN076AAXX  19121 28952 42598 32302 10240 20089 39928 40106 57019 83500 555 1/041;
0165289520999992000081915004+53210+063610FM-12+015699999V0209999C000010075019N0200001N1+02101+01111101001ADDAA199000091GF107991071091008001001001KA1999M+02471MD1710081+9999REMSYN070AAXX  19151 28952 32598 70000 10210 20111 40100 57008 87900 333 10247;EQDQ01  00002PRCP99
0165289520999992000081918004+53210+063610FM-12+015699999V0209999C000012200019N9999999N1+01801+01321100971ADDAA199000091GF103991031091008001001001KA1999M+02471MD1710041+9999REMSYN070AAXX  19181 28952 325// 30000 10180 20132 40097 57004 83900 333 10247;EQDQ01  00002PRCP99
0106289520999992000081921004+53210+063610FM-12+015699999V0209999C000019999999N9999999N1+01501+01241100911ADDGF105991999999999999999999MD1710091+9999REMSYN054AAXX  19211 28952 429// 50000 10150 20124 40091 57009;
0143289520999992000082000004+53210+063610FM-12+015699999V0209999C000010075019N9999999N1+01461+01171100771ADDGF107991071051008001001001MA1999999098931MD1710141+9999REMSYN076AAXX  20001 28952 425// 70000 10146 20117 39893 40077 57014 87500 555 1/012;
0200289520999992000082003004+53210+063610FM-12+015699999V0209999C000010075019N0200001N1+01461+01261100731ADDAA199000091GF107991071091008001001001GJ106309IA1019IA2999+01209MD1710041+9999REMSYN092AAXX  20031 28952 32598 70000 10146 20126 40073 57004 87900 333 55105 555 20128 30012 7000/;EQDQ01  00002PRCP99
0174289520999992000082006004+53210+063610FM-12+015699999V0209999C000010075019N0200001N1+01561+01401100711ADDAA199000021AY181061AY221061GF108991081091008001999999KA1999N+01281MD1410001+9999MW1251REMSYN076AAXX  20061 28952 31598 80000 10156 20140 40071 54000 72582 889// 333 20128;
0112289520999992000082009004+53210+063610FM-12+015699999V0202901N003010075019N0200001N1+02121+01041100561ADDGF106991051091008001001091MD1810121+9999REMSYN060AAXX  20091 28952 42598 62903 10212 20104 40056 58012 85909;
0171289520999992000082012004+53210+063610FM-12+015699999V0203401N004010075019N0200001N1+01741+01201100531ADDAY191061AY281061GF107991071091008001001001MA1999999098721MD1710041+9999MW1291REMSYN082AAXX  20121 28952 41598 73404 10174 20120 39872 40053 57004 72998 87900 555 1/021;
0145289520999992000082015004+53210+063610FM-12+015699999V0203401N001010075019N0200001N1+01601+01221100591ADDGF106991051051008001031001KA1120M+02121MD1310051+9999REMSYN080AAXX  20151 28952 /2598 63401 10160 20122 40059 53005 85530 333 10212 555 60042;
0152289520999992000082018004+53210+063610FM-12+015699999V0203201N002019999999N9999999N1+01361+01021100721ADDAA100004191GF106991001001999999001091KA1999M+02121MD1210101+9999REMSYN076AAXX  20181 28952 129// 63202 10136 20102 40072 52010 60040 80009 333 10212;
0112289520999992000082021004+53210+063610FM-12+015699999V0209999C000019999999N9999999N1+01221+01031100721ADDGF105991001001999999001091MD1410001+9999REMSYN060AAXX  20211 28952 429// 50000 10122 20103 40072 54000 80009;
0143289520999992000082100004+53210+063610FM-12+015699999V0209999C000019999999N9999999N1+01091+00951100751ADDGF106991061001999999051001MA1999999098891MD1310021+9999REMSYN076AAXX  21001 28952 429// 60000 10109 20095 39889 40075 53002 86050 555 1/010;
0210289520999992000082103004+53210+063610FM-12+015699999V0209999C000012200019N0200001N1+01281+00931100771ADDAA199000091GA1001+999999999GF100991001001999999001001GJ101089IA1099IA2999+01009MD1210031+9999REMSYN086AAXX  21031 28952 32998 00000 10128 20093 40077 52003 333 55018 555 20109 31010 7004/;EQDQ01  00002PRCP99
0165289520999992000082106004+53210+063610FM-12+015699999V0202701N005012200019N0200001N1+01881+00741100681ADDAA199000091GF102991001001999999001021KA1999N+01091MD1810051+9999REMSYN070AAXX  21061 28952 32998 22705 10188 20074 40068 58005 80002 333 20109;EQDQ01  00002PRCP99
0112289520999992000082109004+53210+063610FM-12+015699999V0202501N003010075019N0200001N1+02011+00561100521ADDGF107991071091008001001001MD1710141+9999REMSYN060AAXX  21091 28952 42598 72503 10201 20056 40052 57014 87900;
0171289520999992000082112004+53210+063610FM-12+015699999V0209999C000012200019N0200001N1+01601+01071100491ADDAY191061AY211061GF103991031001999999041001MA1999999098681MD1710051+9999MW1011REMSYN082AAXX  21121 28952 41998 30000 10160 20107 39868 40049 57005 70191 83040 555 1/030;
0165289520999992000082115004+53210+063610FM-12+015699999V0202701N001012200019N0200001N1+01721+00821100531ADDAA199000091GF102991021051008001001001KA1999M+02101MD1310041+9999REMSYN070AAXX  21151 28952 32598 22701 10172 20082 40053 53004 82500 333 10210;EQDQ01  00002PRCP99
0165289520999992000082118004+53210+063610FM-12+015699999V0209999C000012200019N9999999N1+01191+00801100541ADDAA199000091GF101991011051008001001001KA1999M+02101MD1810021+9999REMSYN070AAXX  21181 28952 325// 10000 10119 20080 40054 58002 81500 333 10210;EQDQ01  00002PRCP99
0122289520999992000082121004+53210+063610FM-12+015699999V0209999C000012200019N9999999N1+01071+00851100611ADDGA1001+999999999GF100991001001999999001001MD1310051+9999REMSYN054AAXX  21211 28952 429// 00000 10107 20085 40061 53005;
0143289520999992000082200004+53210+063610FM-12+015699999V0202701N002012200019N9999999N1+00981+00811100651ADDGF103991021051008001031001MA1999999098781MD1210031+9999REMSYN076AAXX  22001 28952 425// 32702 10098 20081 39878 40065 52003 82530 555 1/009;
0200289520999992000082203004+53210+063610FM-12+015699999V0203201N003010075019N0200001N1+01221+00941100771ADDAA199000091GF107991071051008001001001GJ106609IA1019IA2999+00909MD1210141+9999REMSYN092AAXX  22031 28952 32598 73203 10122 20094 40077 52014 87500 333 55110 555 20097 30009 7000/;EQDQ01  00002PRCP99
0165289520999992000082206004+53210+063610FM-12+015699999V0203201N004012200019N0200001N1+01531+00581100791ADDAA199000091GF103991031021012501001001KA1999N+00971MD1210031+9999REMSYN070AAXX  22061 28952 32698 33204 10153 20058 40079 52003 83200 333 20097;EQDQ01  00002PRCP99
0131289520999992000082209004+53210+063610FM-12+015699999V0203201N006010075019N0200001N1+01721+00401999999ADDGF106991061091008001001001MD1210031+9999REMSYN060AAXX  22091 28952 42598 63206 10172 20040 40280 52003 86900;EQDQ01+102803APOSLP
0143289520999992000082212004+53210+063610FM-12+015699999V0202701N008010075019N0200001N1+01831+00271100821ADDGF107991071091008001001001MA1999999099011MD1210031+9999REMSYN076AAXX  22121 28952 42598 72708 10183 20027 39901 40082 52003 87900 555 1/026;
0165289520999992000082215004+53210+063610FM-12+015699999V0203201N003010300019N0200001N1+01641+00511100891ADDAA199000091GF106991021051008001011001KA1999M+01971MD1210061+9999REMSYN070AAXX  22151 28952 32598 63203 10164 20051 40089 52006 82510 333 10197;EQDQ01  00002PRCP99
0165289520999992000082218004+53210+063610FM-12+015699999V0202701N001012200019N9999999N1+01281+00681101031ADDAA199000091GF102991021001999999031001KA1999M+01971MD1210111+9999REMSYN070AAXX  22181 28952 329// 22701 10128 20068 40103 52011 82030 333 10197;EQDQ01  00002PRCP99
0122289520999992000082221004+53210+063610FM-12+015699999V0209999C000012200019N9999999N1+00991+00621101051ADDGA1001+999999999GF100991001001999999001001MD1410001+9999REMSYN054AAXX  22211 28952 429// 00000 10099 20062 40105 54000;
0143289520999992000082300004+53210+063610FM-12+015699999V0202001N001019999999N9999999N1+00751+00591101091ADDGF106991051001999999031011MA1999999099201MD1310021+9999REMSYN076AAXX  23001 28952 429// 62001 10075 20059 39920 40109 53002 85031 555 1/007;
0170289520999992000082303004+53210+063610FM-12+015699999V0209999C000010750019N0200001N1+01041+00731101081ADDAA199000091GF106991021021008001001021GJ104989MD1210021+9999REMSYN080AAXX  23031 28952 32598 60000 10104 20073 40108 52002 82202 333 55083 555 20069;EQDQ01  00002PRCP99
0165289520999992000082306004+53210+063610FM-12+015699999V0202001N001012200019N0200001N1+01861+00771101031ADDAA199000091GF102991021021012501001001KA1999N+00691MD1410001+9999REMSYN070AAXX  23061 28952 32698 22001 10186 20077 40103 54000 82200 333 20069;EQDQ01  00002PRCP99
0112289520999992000082309004+53210+063610FM-12+015699999V0201801N002010075019N0200001N1+02141+00561101021ADDGF106991061091008001001001MD1410001+9999REMSYN060AAXX  23091 28952 42598 61802 10214 20056 40102 54000 86900;
0137289520999992000082312004+53210+063610FM-12+015699999V0202701N001010075019N0200001N1+02061+00581999999ADDGF107991071091008001001001MA1999999099221MD1410001+9999REMSYN070AAXX  23121 28952 42598 72701 10206 20058 39922 54000 87900 555 1/027;
0165289520999992000082315004+53210+063610FM-12+015699999V0209999C000010075019N0200001N1+01901+00821101001ADDAA199000091GF107991071091008001001001KA1999M+02201MD1810031+9999REMSYN070AAXX  23151 28952 32598 70000 10190 20082 40100 58003 87900 333 10220;EQDQ01  00002PRCP99
0165289520999992000082318004+53210+063610FM-12+015699999V0209999C000012200019N9999999N1+01501+01041101101ADDAA199000091GF102991021091008001001001KA1999M+02201MD1310061+9999REMSYN070AAXX  23181 28952 325// 20000 10150 20104 40110 53006 82900 333 10220;EQDQ01  00002PRCP99
0122289520999992000082321004+53210+063610FM-12+015699999V0209999C000012200019N9999999N1+01251+01021101071ADDGA1001+999999999GF100991001001999999001001MD1810031+9999REMSYN054AAXX  23211 28952 429// 00000 10125 20102 40107 58003;
0143289520999992000082400004+53210+063610FM-12+015699999V0201801N001010075019N9999999N1+01301+01071100991ADDGF106991061051008001001001MA1999999099141MD1710081+9999REMSYN076AAXX  24001 28952 425// 61801 10130 20107 39914 40099 57008 86500 555 1/013;
0150289520999992000082403004+53210+063610FM-12+015699999V0201801N002010075019N0200001N1+01381+01271100811ADDGF107991071051008001001001MD1710171+9999REMSYN098AAXX  24031 28952 /2598 71802 10138 20127 40081 57017 87500 333 55082 555 20125 31010 60032 7003/;
0180289520999992000082406004+53210+063610FM-12+015699999V0201401N003010075019N0200001N1+01801+01281100781ADDAA100003091AY181061AY221061GF107991071091008001001001KA1999N+01251MD1410001+9999MW1021REMSYN082AAXX  24061 28952 11598 71403 10180 20128 40078 54000 60030 70282 87900 333 20125;
0112289520999992000082409004+53210+063610FM-12+015699999V0202001N006010120019N0200001N1+02651+01531100541ADDGF106991061021012501001001MD1810191+9999REMSYN060AAXX  24091 28952 42698 62006 10265 20153 40054 58019 86200;
0143289520999992000082412004+53210+063610FM-12+015699999V0201401N005010120019N0200001N1+02791+01551100371ADDGF107991061021012501001021MA1999999098631MD1710151+9999REMSYN076AAXX  24121 28952 42698 71405 10279 20155 39863 40037 57015 86202 555 1/031;
0165289520999992000082415004+53210+063610FM-12+015699999V0203201N002010750019N0200001N1+02381+01591100511ADDAA199000091GF106991021051008001001021KA1999M+02801MD1310111+9999REMSYN070AAXX  24151 28952 32598 63202 10238 20159 40051 53011 82502 333 10280;EQDQ01  00002PRCP99
0175289520999992000082418004+53210+063610FM-12+015699999V0209999C000012200019N9999999N1+01791+01531100751ADDAA199000091GA1001+999999999GF100991001001999999001001KA1999M+02801MD1210201+9999REMSYN064AAXX  24181 28952 329// 00000 10179 20153 40075 52020 333 10280;EQDQ01  00002PRCP99
0122289520999992000082421004+53210+063610FM-12+015699999V0209999C000012200019N9999999N1+01551+01371100781ADDGA1001+999999999GF100991001001999999001001MD1210021+9999REMSYN054AAXX  24211 28952 429// 00000 10155 20137 40078 52002;
0153289520999992000082500004+53210+063610FM-12+015699999V0209999C000012200019N9999999N1+01211+01111100801ADDGA1001+999999999GF100991001001999999001001MA1999999098951MD1810011+9999REMSYN070AAXX  25001 28952 429// 00000 10121 20111 39895 40080 58001 555 1/011;
0210289520999992000082503004+53210+063610FM-12+015699999V0209999C000012200019N0200001N1+01461+01281100791ADDAA199000091GA1001+999999999GF100991001001999999001001GJ105049IA1099IA2999+01109MD1410001+9999REMSYN086AAXX  25031 28952 32998 00000 10146 20128 40079 54000 333 55084 555 20121 31011 7000/;EQDQ01  00002PRCP99
0165289520999992000082506004+53210+063610FM-12+015699999V0201401N005012200019N0200001N1+02651+01171100461ADDAA199000091GF101991001001999999001011KA1999N+01211MD1810241+9999REMSYN070AAXX  25061 28952 32998 11405 10265 20117 40046 58024 80001 333 20121;EQDQ01  00002PRCP99
0112289520999992000082509004+53210+063610FM-12+015699999V0201801N008019999999N0200001N1+03061+01281100211ADDGF105991051001999999031001MD1710231+9999REMSYN060AAXX  25091 28952 22998 51808 10306 20128 40021 57023 85030;
0171289520999992000082512004+53210+063610FM-12+015699999V0202701N003010075019N0100001N1+02701+01241100261ADDAY111061AY211061GF108991081091008001999999MA1999999098511MD1310031+9999MW1951REMSYN082AAXX  25121 28952 41597 82703 10270 20124 39851 40026 53003 79511 889// 555 1/029;
0173289520999992000082515004+53210+063610FM-12+015699999V0209999C000010075019N0200001N1+01931+01701100571ADDAY191031AY281031GF107991071091008001001001KA1120M+03101MD1210261+9999MW1291REMSYN086AAXX  25151 28952 /1598 70000 10193 20170 40057 52026 72998 87900 333 10310 555 60062;
0152289520999992000082518004+53210+063610FM-12+015699999V0203201N002010075019N9999999N1+01711+01321100801ADDAA100006191GF106991061091008001001001KA1999M+03101MD1210211+9999REMSYN076AAXX  25181 28952 115// 63202 10171 20132 40080 52021 60060 86900 333 10310;
0112289520999992000082521004+53210+063610FM-12+015699999V0209999C000010075019N9999999N1+01541+01231101011ADDGF105991051051008001001001MD1210191+9999REMSYN060AAXX  25211 28952 425// 50000 10154 20123 40101 52019 85500;
0143289520999992000082600004+53210+063610FM-12+015699999V0203601N001010075019N9999999N1+01331+01091101091ADDGF105991051051008001001001MA1999999099241MD1210071+9999REMSYN076AAXX  26001 28952 425// 53601 10133 20109 39924 40109 52007 85500 555 1/013;
0200289520999992000082603004+53210+063610FM-12+015699999V0203201N001012200019N0200001N1+01321+00991101261ADDAA199000091GF102991001001999999001011GJ104689IA1119IA2999+01209MD1210161+9999REMSYN092AAXX  26031 28952 32998 23201 10132 20099 40126 52016 80001 333 55078 555 20132 32012 7006/;EQDQ01  00002PRCP99
0165289520999992000082606004+53210+063610FM-12+015699999V0203201N001012200019N0200001N1+01821+00931101341ADDAA199000091GF101991001001999999001011KA1999N+01321MD1210121+9999REMSYN070AAXX  26061 28952 32998 13201 10182 20093 40134 52012 80001 333 20132;EQDQ01  00002PRCP99
0112289520999992000082609004+53210+063610FM-12+015699999V0203201N003012200019N0200001N1+02141+00641101391ADDGF101991011011012501001001MD1210061+9999REMSYN060AAXX  26091 28952 42698 13203 10214 20064 40139 52006 81100;
0143289520999992000082612004+53210+063610FM-12+015699999V0203201N001012200019N0200001N1+02221+00621101471ADDGF101991011011012501001001MA1999999099671MD1210091+9999REMSYN076AAXX  26121 28952 42698 13201 10222 20062 39967 40147 52009 81100 555 1/033;
0175289520999992000082615004+53210+063610FM-12+015699999V0203201N001012200019N0200001N1+01901+00771101591ADDAA199000091GA1001+999999999GF100991001001999999001001KA1999M+02251MD1210091+9999REMSYN064AAXX  26151 28952 32998 03201 10190 20077 40159 52009 333 10225;EQDQ01  00002PRCP99
0175289520999992000082618004+53210+063610FM-12+015699999V0203601N001012200019N9999999N1+01301+00861101781ADDAA199000091GA1001+999999999GF100991001001999999001001KA1999M+02251MD1210151+9999REMSYN064AAXX  26181 28952 329// 03601 10130 20086 40178 52015 333 10225;EQDQ01  00002PRCP99
0122289520999992000082621004+53210+063610FM-12+015699999V0209999C000012200019N9999999N1+01101+00741101871ADDGA1001+999999999GF100991001001999999001001MD1210081+9999REMSYN054AAXX  26211 28952 429// 00000 10110 20074 40187 52008;
0153289520999992000082700004+53210+063610FM-12+015699999V0209999C000012200019N9999999N1+00851+00731102011ADDGA1001+999999999GF100991001001999999001001MA1999999100121MD1210131+9999REMSYN070AAXX  27001 28952 429// 00000 10085 20073 30012 40201 52013 555 1/008;
0210289520999992000082703004+53210+063610FM-12+015699999V0203601N001012200019N0200001N1+00991+00781102111ADDAA199000091GA1001+999999999GF100991001001999999001001GJ107809IA1099IA2999+00809MD1210111+9999REMSYN086AAXX  27031 28952 32998 03601 10099 20078 40211 52011 333 55130 555 20084 31008 7000/;EQDQ01  00002PRCP99
0165289520999992000082706004+53210+063610FM-12+015699999V0203401N002012200019N0200001N1+01781+00851102071ADDAA199000091GF102991021011012501001001KA1999N+00841MD1210011+9999REMSYN070AAXX  27061 28952 32698 23402 10178 20085 40207 52001 82100 333 20084;EQDQ01  00002PRCP99
0142289520999992000082709004+53210+063610FM-12+015699999V0203401N003010075019N0200001N1+01941+00621102071ADDAA199000091GF107991071091008001001001MD1410001+9999REMSYN060AAXX  27091 28952 32598 73403 10194 20062 40207 54000 87900;EQDQ01  00002PRCP99
0143289520999992000082712004+53210+063610FM-12+015699999V0203601N004010075019N0200001N1+02021+00511101991ADDGF106991061091008001001001MA1999999100171MD1810071+9999REMSYN076AAXX  27121 28952 42598 63604 10202 20051 30017 40199 58007 86900 555 1/032;
0175289520999992000082715004+53210+063610FM-12+015699999V0203601N002012200019N0200001N1+01651+00451102011ADDAA199000091GA1001+999999999GF100991001001999999001001KA1999M+02101MD1410001+9999REMSYN064AAXX  27151 28952 32998 03602 10165 20045 40201 54000 333 10210;EQDQ01  00002PRCP99
0175289520999992000082718004+53210+063610FM-12+015699999V0209999C000012200019N9999999N1+01151+00931102081ADDAA199000091GA1001+999999999GF100991001001999999001001KA1999M+02101MD1310031+9999REMSYN064AAXX  27181 28952 329// 00000 10115 20093 40208 53003 333 10210;EQDQ01  00002PRCP99
0122289520999992000082721004+53210+063610FM-12+015699999V0209999C000012200019N9999999N1+00851+00651102071ADDGA1001+999999999GF100991001001999999001001MD1810021+9999REMSYN054AAXX  27211 28952 429// 00000 10085 20065 40207 58002;
0153289520999992000082800004+53210+063610FM-12+015699999V0209999C000012200019N9999999N1+00711+00621102081ADDGA1001+999999999GF100991001001999999001001MA1999999100171MD1710011+9999REMSYN070AAXX  28001 28952 429// 00000 10071 20062 30017 40208 57001 555 1/006;
0210289520999992000082803004+53210+063610FM-12+015699999V0209999C000012200019N0200001N1+00831+00641102091ADDAA199000091GA1001+999999999GF100991001001999999001001GJ107329IA1019IA2999+00609MD1310031+9999REMSYN086AAXX  28031 28952 32998 00000 10083 20064 40209 53003 333 55122 555 20071 30006 7000/;EQDQ01  00002PRCP99
0165289520999992000082806004+53210+063610FM-12+015699999V0203601N003012200019N0200001N1+01841+00741101991ADDAA199000091GF101991011011012501001001KA1999N+00711MD1810041+9999REMSYN070AAXX  28061 28952 32698 13603 10184 20074 40199 58004 81100 333 20071;EQDQ01  00002PRCP99
0112289520999992000082809004+53210+063610FM-12+015699999V0203201N002010120019N0200001N1+02001+00401101851ADDGF107991061021012501001091MD1710141+9999REMSYN060AAXX  28091 28952 42698 73202 10200 20040 40185 57014 86209;
0143289520999992000082812004+53210+063610FM-12+015699999V0203601N002010120019N0200001N1+02141+00211101691ADDGF106991051021012501001011MA1999999099871MD1710151+9999REMSYN076AAXX  28121 28952 42698 63602 10214 20021 39987 40169 57015 85201 555 1/038;
0165289520999992000082815004+53210+063610FM-12+015699999V0209999C000012200019N0200001N1+01711+00581101681ADDAA199000091GF103991021001999999031011KA1999M+02141MD1710031+9999REMSYN070AAXX  28151 28952 32998 30000 10171 20058 40168 57003 82031 333 10214;EQDQ01  00002PRCP99
0165289520999992000082818004+53210+063610FM-12+015699999V0209999C000012200019N9999999N1+01191+00591101721ADDAA199000091GF101991001001999999001011KA1999M+02141MD1410001+9999REMSYN070AAXX  28181 28952 329// 10000 10119 20059 40172 54000 80001 333 10214;EQDQ01  00002PRCP99
0122289520999992000082821004+53210+063610FM-12+015699999V0209999C000012200019N9999999N1+01011+00551101681ADDGA1001+999999999GF100991001001999999001001MD1810041+9999REMSYN054AAXX  28211 28952 429// 00000 10101 20055 40168 58004;
0153289520999992000082900004+53210+063610FM-12+015699999V0209999C000012200019N9999999N1+00901+00621101661ADDGA1001+999999999GF100991001001999999001001MA1999999099771MD1710031+9999REMSYN070AAXX  29001 28952 429// 00000 10090 20062 39977 40166 57003 555 1/008;
0210289520999992000082903004+53210+063610FM-12+015699999V0209999C000012200019N0200001N1+01091+00741101591ADDAA199000091GA1001+999999999GF100991001001999999001001GJ107509IA1019IA2999+00809MD1710051+9999REMSYN086AAXX  29031 28952 32998 00000 10109 20074 40159 57005 333 55125 555 20090 30008 7000/;EQDQ01  00002PRCP99
0151289520999992000082906004+53210+063610FM-12+015699999V0203601N004010075019N0200001N1+01601+00901101521ADDAA199000091GF107991071091008001001001MD1710031+9999REMSYN069AAXX  29061 28952 32598 73604 10160 20090 40152 57003 87900 333 2090;EQDQ01  00002PRCP99
0112289520999992000082909004+53210+063610FM-12+015699999V0203601N006010075019N0200001N1+01781+00301101501ADDGF105991051091008001001001MD1710021+9999REMSYN060AAXX  29091 28952 42598 53606 10178 20030 40150 57002 85900;
0143289520999992000082912004+53210+063610FM-12+015699999V0203601N005012200019N0200001N1+01821+00191101501ADDGF102991021021008001001001MA1999999099671MD1410001+9999REMSYN076AAXX  29121 28952 42598 23605 10182 20019 39967 40150 54000 82200 555 1/030;
0175289520999992000082915004+53210+063610FM-12+015699999V0203201N001012200019N0200001N1+01491+00461101521ADDAA199000091GA1001+999999999GF100991001001999999001001KA1999M+01871MD1410001+9999REMSYN064AAXX  29151 28952 32998 03201 10149 20046 40152 54000 333 10187;EQDQ01  00002PRCP99
0175289520999992000082918004+53210+063610FM-12+015699999V0209999C000012200019N9999999N1+01491+00461101531ADDAA199000091GA1001+999999999GF100991001001999999001001KA1999M+01871MD1810011+9999REMSYN064AAXX  29181 28952 329// 00000 10149 20046 40153 58001 333 10187;EQDQ01  00002PRCP99
0112289520999992000082921004+53210+063610FM-12+015699999V0209999C000010075019N9999999N1+01041+00531101571ADDGF107991071051008001001001MD1210201+9999REMSYN060AAXX  29211 28952 425// 70000 10104 20053 40157 52020 87500;
0143289520999992000083000004+53210+063610FM-12+015699999V0209999C000010075019N9999999N1+01111+00741101681ADDGF107991071051008001999999MA1999999099801MD1210101+9999REMSYN076AAXX  30001 28952 425// 70000 10111 20074 39980 40168 52010 875// 555 1/011;
0200289520999992000083003004+53210+063610FM-12+015699999V0209999C000010075019N0200001N1+01201+00801101681ADDAA199000091GF107991071051008001999999GJ106909IA1019IA2999+01009MD1210011+9999REMSYN092AAXX  30031 28952 32598 70000 10120 20080 40168 52001 875// 333 55115 555 20103 30010 7000/;EQDQ01  00002PRCP99
0165289520999992000083006004+53210+063610FM-12+015699999V0209999C000010075019N0200001N1+01551+00511101791ADDAA199000091GF107991071051008001999999KA1999N+01031MD1210131+9999REMSYN070AAXX  30061 28952 32598 70000 10155 20051 40179 52013 875// 333 20103;EQDQ01  00002PRCP99
0112289520999992000083009004+53210+063610FM-12+015699999V0203201N003010120019N0200001N1+01901+00451101751ADDGF106991061081008001001001MD1810021+9999REMSYN060AAXX  30091 28952 42598 63203 10190 20045 40175 58002 86800;
0143289520999992000083012004+53210+063610FM-12+015699999V0203201N002010075019N0200001N1+01881+00531101741ADDGF106991061091008001001001MA1999999099911MD1710011+9999REMSYN076AAXX  30121 28952 42598 63202 10188 20053 39991 40174 57001 86900 555 1/034;
0165289520999992000083015004+53210+063610FM-12+015699999V0203601N003012200019N0200001N1+01541+00581101831ADDAA199000091GF102991021051008001001001KA1999M+01941MD1310071+9999REMSYN070AAXX  30151 28952 32598 23603 10154 20058 40183 53007 82500 333 10194;EQDQ01  00002PRCP99
0175289520999992000083018004+53210+063610FM-12+015699999V0209999C000012200019N9999999N1+00951+00581102011ADDAA199000091GA1001+999999999GF100991001001999999001001KA1999M+01941MD1210141+9999REMSYN064AAXX  30181 28952 329// 00000 10095 20058 40201 52014 333 10194;EQDQ01  00002PRCP99
0122289520999992000083021004+53210+063610FM-12+015699999V0209999C000012200019N9999999N1+00691+00441102121ADDGA1001+999999999GF100991001001999999001001MD1210091+9999REMSYN054AAXX  30211 28952 429// 00000 10069 20044 40212 52009;
0153289520999992000083100004+53210+063610FM-12+015699999V0209999C000012200019N9999999N1+00471+00331102251ADDGA1001+999999999GF100991001001999999001001MA1999999100321MD1210111+9999REMSYN070AAXX  31001 28952 429// 00000 10047 20033 30032 40225 52011 555 1/004;
0200289520999992000083103004+53210+063610FM-12+015699999V0209999C000012200019N0200001N1+00681+00471102351ADDAA199000091GF101991011001999999031001GJ103309IA1019IA2999+00309MD1210111+9999REMSYN092AAXX  31031 28952 32998 10000 10068 20047 40235 52011 81030 333 55055 555 20045 30003 7000/;EQDQ01  00002PRCP99
0165289520999992000083106004+53210+063610FM-12+015699999V0203601N003012200019N0200001N1+01641+00451102301ADDAA199000091GF102991021091008001001001KA1999N+00451MD1210021+9999REMSYN070AAXX  31061 28952 32598 23603 10164 20045 40230 52002 82900 333 20045;EQDQ01  00002PRCP99
0112289520999992000083109004+53210+063610FM-12+015699999V0203201N003010075019N0200001N1+01771+00361102311ADDGF107991071091008001001001MD1210011+9999REMSYN060AAXX  31091 28952 42598 73203 10177 20036 40231 52001 87900;
0143289520999992000083112004+53210+063610FM-12+015699999V0203601N001010075019N0200001N1+01881+00411102281ADDGF107991071091008001001001MA1999999100441MD1810021+9999REMSYN076AAXX  31121 28952 42598 73601 10188 20041 30044 40228 58002 87900 555 1/027;
0165289520999992000083115004+53210+063610FM-12+015699999V0209999C000012200019N0200001N1+01471+00671102291ADDAA199000091GF102991021091008001001001KA1999M+02001MD1710011+9999REMSYN070AAXX  31151 28952 32598 20000 10147 20067 40229 57001 82900 333 10200;EQDQ01  00002PRCP99
0175289520999992000083118004+53210+063610FM-12+015699999V0209999C000012200019N9999999N1+01011+00671102331ADDAA199000091GA1001+999999999GF100991001001999999001001KA1999M+02001MD1310011+9999REMSYN064AAXX  31181 28952 329// 00000 10101 20067 40233 53001 333 10200;EQDQ01  00002PRCP99
0106289520999992000083121004+53210+063610FM-12+015699999V0209999C000012200019N9999999N1+01011+00501102441ADDGF102991999999008001999999MD1210111+9999REMSYN054AAXX  31211 28952 425// 20000 10101 20050 40244 52011;
0143289520999992000090100004+53210+063610FM-12+015699999V0209999C000012200019N9999999N1+00891+00561102451ADDGF104991041091008001001001MA1999999100551MD1410001+9999REMSYN076AAXX  01001 28952 425// 40000 10089 20056 30055 40245 54000 84900 555 1/008;
0200289520999992000090103004+53210+063610FM-12+015699999V0209999C000010075019N0200001N1+01011+00591102591ADDAA199000091GF107991071091008001001001GJ105289IA1019IA2999+00809MD1310151+9999REMSYN092AAXX  01031 28952 32598 70000 10101 20059 40259 53015 87900 333 55088 555 20089 30008 7000/;EQDQ01  00002PRCP99
0165289520999992000090106004+53210+063610FM-12+015699999V0209999C000010075019N0200001N1+01721+00621102641ADDAA199000091GF107991071091008001001001KA1999N+00891MD1210081+9999REMSYN070AAXX  01061 28952 32598 70000 10172 20062 40264 52008 87900 333 20089;EQDQ01  00002PRCP99
0112289520999992000090109004+53210+063610FM-12+015699999V0209999C000010075019N0200001N1+02021+00431102551ADDGF107991071091008001001001MD1810061+9999REMSYN060AAXX  01091 28952 42598 70000 10202 20043 40255 58006 87900;
0143289520999992000090112004+53210+063610FM-12+015699999V0200901N002010075019N0200001N1+02161+00211102451ADDGF106991061091008001001001MA1999999100621MD1710101+9999REMSYN076AAXX  01121 28952 42598 60902 10216 20021 30062 40245 57010 86900 555 1/033;
0165289520999992000090115004+53210+063610FM-12+015699999V0209999C000012200019N0200001N1+01541+00881102451ADDAA199000091GF102991021011012501001001KA1999M+02161MD1710031+9999REMSYN070AAXX  01151 28952 32698 20000 10154 20088 40245 57003 82100 333 10216;EQDQ01  00002PRCP99
0175289520999992000090118004+53210+063610FM-12+015699999V0209999C000012200019N9999999N1+01151+00461102551ADDAA199000091GA1001+999999999GF100991001001999999001001KA1999M+02161MD1310071+9999REMSYN064AAXX  01181 28952 329// 00000 10115 20046 40255 53007 333 10216;EQDQ01  00002PRCP99
0122289520999992000090121004+53210+063610FM-12+015699999V0209999C000012200019N9999999N1+00841+00321102591ADDGA1001+999999999GF100991001001999999001001MD1210031+9999REMSYN054AAXX  01211 28952 429// 00000 10084 20032 40259 52003;
0153289520999992000090200004+53210+063610FM-12+015699999V0209999C000012200019N9999999N1+00581+00241102621ADDGA1001+999999999GF100991001001999999001001MA1999999100691MD1410001+9999REMSYN070AAXX  02001 28952 429// 00000 10058 20024 30069 40262 54000 555 1/004;
0210289520999992000090203004+53210+063610FM-12+015699999V0209999C000012200019N0200001N1+00891+00531102661ADDAA199000091GA1001+999999999GF100991001001999999001001GJ104029IA1019IA2999+00409MD1310061+9999REMSYN086AAXX  02031 28952 32998 00000 10089 20053 40266 53006 333 55067 555 20058 30004 7000/;EQDQ01  00002PRCP99
0175289520999992000090206004+53210+063610FM-12+015699999V0201601N003012200019N0200001N1+02081-00251102581ADDAA199000091GA1001+999999999GF100991001001999999001001KA1999N+00581MD1410001+9999REMSYN064AAXX  02061 28952 32998 01603 10208 21025 40258 54000 333 20058;EQDQ01  00002PRCP99
0112289520999992000090209004+53210+063610FM-12+015699999V0201401N003012200019N0200001N1+02341-00361102461ADDGF101991001001999999001011MD1810101+9999REMSYN060AAXX  02091 28952 42998 11403 10234 21036 40246 58010 80001;
0143289520999992000090212004+53210+063610FM-12+015699999V0201401N001012200019N0200001N1+02351-00121102381ADDGF102991001001999999001011MA1999999100571MD1710081+9999REMSYN076AAXX  02121 28952 42998 21401 10235 21012 30057 40238 57008 80001 555 1/035;
0165289520999992000090215004+53210+063610FM-12+015699999V0201601N001012200019N0200001N1+01741+00291102371ADDAA199000091GF102991001001999999001011KA1999M+02401MD1710051+9999REMSYN070AAXX  02151 28952 32998 21601 10174 20029 40237 57005 80001 333 10240;EQDQ01  00002PRCP99
0175289520999992000090218004+53210+063610FM-12+015699999V0200901N002012200019N9999999N1+01381+00131102411ADDAA199000091GA1001+999999999GF100991001001999999001001KA1999M+02401MD1310011+9999REMSYN064AAXX  02181 28952 329// 00902 10138 20013 40241 53001 333 10240;EQDQ01  00002PRCP99
0122289520999992000090221004+53210+063610FM-12+015699999V0200901N003012200019N9999999N1+01121+00411102431ADDGA1001+999999999GF100991001001999999001001MD1210011+9999REMSYN054AAXX  02211 28952 429// 00903 10112 20041 40243 52001;
0143289520999992000090300004+53210+063610FM-12+015699999V0200901N003012200019N9999999N1+01131+00131102411ADDGF103991001001999999001011MA1999999100521MD1810021+9999REMSYN076AAXX  03001 28952 429// 30903 10113 20013 30052 40241 58002 80001 555 1/010;
0200289520999992000090303004+53210+063610FM-12+015699999V0201101N003019999999N0200001N1+01411+00151102431ADDAA199000091GF106991001001999999001091GJ107269IA1019IA2999+01009MD1310031+9999REMSYN092AAXX  03031 28952 32998 61103 10141 20015 40243 53003 80009 333 55121 555 20112 30010 7000/;EQDQ01  00002PRCP99
0165289520999992000090306004+53210+063610FM-12+015699999V0201401N003019999999N0200001N1+02251+00151102371ADDAA199000091GF106991001001999999001011KA1999N+01121MD1210011+9999REMSYN070AAXX  03061 28952 32998 61403 10225 20015 40237 52001 80001 333 20112;EQDQ01  00002PRCP99
0112289520999992000090309004+53210+063610FM-12+015699999V0201401N005019999999N0200001N1+02521-00071102281ADDGF106991001001999999001011MD1810081+9999REMSYN060AAXX  03091 28952 42998 61405 10252 21007 40228 58008 80001;
0143289520999992000090312004+53210+063610FM-12+015699999V0201101N002019999999N0200001N1+02491-00331102181ADDGF106991001001999999001021MA1999999100381MD1710101+9999REMSYN076AAXX  03121 28952 42998 61102 10249 21033 30038 40218 57010 80002 555 1/032;
0165289520999992000090315004+53210+063610FM-12+015699999V0200901N002012200019N0200001N1+02021+00211102201ADDAA199000091GF103991001001999999001011KA1999M+02531MD1710021+9999REMSYN070AAXX  03151 28952 32998 30902 10202 20021 40220 57002 80001 333 10253;EQDQ01  00002PRCP99
0175289520999992000090318004+53210+063610FM-12+015699999V0200201N002012200019N9999999N1+01531+00171102201ADDAA199000091GA1001+999999999GF100991001001999999001001KA1999M+02531MD1710021+9999REMSYN064AAXX  03181 28952 329// 00202 10153 20017 40220 57002 333 10253;EQDQ01  00002PRCP99
0122289520999992000090321004+53210+063610FM-12+015699999V0200901N004012200019N9999999N1+01381+00151102191ADDGA1001+999999999GF100991001001999999001001MD1710031+9999REMSYN054AAXX  03211 28952 429// 00904 10138 20015 40219 57003;
0153289520999992000090400004+53210+063610FM-12+015699999V0200901N003012200019N9999999N1+01201+00271102211ADDGA1001+999999999GF100991001001999999001001MA1999999100321MD1310011+9999REMSYN070AAXX  04001 28952 429// 00903 10120 20027 30032 40221 53001 555 1/010;
0200289520999992000090403004+53210+063610FM-12+015699999V0200901N004019999999N0200001N1+01351+00381102221ADDAA199000091GF106991001001999999001011GJ106549IA1019IA2999+01009MD1210021+9999REMSYN092AAXX  04031 28952 32998 60904 10135 20038 40222 52002 80001 333 55109 555 20119 30010 7000/;EQDQ01  00002PRCP99
0165289520999992000090406004+53210+063610FM-12+015699999V0200901N003019999999N0200001N1+01921+00531102161ADDAA199000091GF108991001001999999001021KA1999N+01191MD1810021+9999REMSYN070AAXX  04061 28952 32998 80903 10192 20053 40216 58002 80002 333 20119;EQDQ01  00002PRCP99
0112289520999992000090409004+53210+063610FM-12+015699999V0200501N005019999999N0200001N1+02501+00061101991ADDGF106991001001999999001011MD1710121+9999REMSYN060AAXX  04091 28952 42998 60505 10250 20006 40199 57012 80001;
0143289520999992000090412004+53210+063610FM-12+015699999V0200701N004019999999N0200001N1+02471+00191101881ADDGF108991001001999999001021MA1999999100091MD1710111+9999REMSYN076AAXX  04121 28952 42998 80704 10247 20019 30009 40188 57011 80002 555 1/032;
0165289520999992000090418004+53210+063610FM-12+015699999V0203601N001019999999N9999999N1+01451+00501101811ADDAA199000091GF108991001001999999001021KA1999M+02551MD1710041+9999REMSYN070AAXX  04181 28952 329// 83601 10145 20050 40181 57004 80002 333 10255;EQDQ01  00002PRCP99
0122289520999992000090421004+53210+063610FM-12+015699999V0209999C000012200019N9999999N1+01301+00361101751ADDGA1001+999999999GF100991001001999999001001MD1710081+9999REMSYN054AAXX  04211 28952 429// 00000 10130 20036 40175 57008;
0143289520999992000090500004+53210+063610FM-12+015699999V0203601N001019999999N9999999N1+01061+00431101681ADDGF106991001001999999001021MA1999999099801MD1710081+9999REMSYN076AAXX  05001 28952 429// 63601 10106 20043 39980 40168 57008 80002 555 1/010;
0200289520999992000090503004+53210+063610FM-12+015699999V0203601N001019999999N0200001N1+01161+00401101691ADDAA199000091GF108991001001999999001021GJ104989IA1019IA2999+01009MD1310011+9999REMSYN092AAXX  05031 28952 32998 83601 10116 20040 40169 53001 80002 333 55083 555 20106 30010 7000/;EQDQ01  00002PRCP99
0165289520999992000090506004+53210+063610FM-12+015699999V0200201N005012200019N0200001N1+02251+00111101491ADDAA199000091GF102991001001999999001011KA1999N+01061MD1810121+9999REMSYN070AAXX  05061 28952 32998 20205 10225 20011 40149 58012 80001 333 20106;EQDQ01  00002PRCP99
0112289520999992000090509004+53210+063610FM-12+015699999V0200501N004012200019N0200001N1+02661-00071101281ADDGF101991001001999999001011MD1710181+9999REMSYN060AAXX  05091 28952 42998 10504 10266 21007 40128 57018 80001;
0143289520999992000090512004+53210+063610FM-12+015699999V0200201N002019999999N0200001N1+02861-00361101111ADDGF106991001001999999001021MA1999999099351MD1710161+9999REMSYN076AAXX  05121 28952 42998 60202 10286 21036 39935 40111 57016 80002 555 1/038;
0175289520999992000090515004+53210+063610FM-12+015699999V0203601N002012200019N0200001N1+02081+00341101111ADDAA199000091GA1001+999999999GF100991001001999999001001KA1999M+02861MD1710051+9999REMSYN064AAXX  05151 28952 32998 03602 10208 20034 40111 57005 333 10286;EQDQ01  00002PRCP99
0175289520999992000090518004+53210+063610FM-12+015699999V0209999C000012200019N9999999N1+01641+00251101151ADDAA199000091GA1001+999999999GF100991001001999999001001KA1999M+02861MD1310021+9999REMSYN064AAXX  05181 28952 329// 00000 10164 20025 40115 53002 333 10286;EQDQ01  00002PRCP99
0122289520999992000090521004+53210+063610FM-12+015699999V0209999C000012200019N9999999N1+01281+00401101141ADDGA1001+999999999GF100991001001999999001001MD1810041+9999REMSYN054AAXX  05211 28952 429// 00000 10128 20040 40114 58004;
0153289520999992000090600004+53210+063610FM-12+015699999V0209999C000012200019N9999999N1+00791+00481101151ADDGA1001+999999999GF100991001001999999001001MA1999999099251MD1710031+9999REMSYN070AAXX  06001 28952 429// 00000 10079 20048 39925 40115 57003 555 1/007;
0200289520999992000090603004+53210+063610FM-12+015699999V0209999C000012200019N0200001N1+00911+00411101151ADDAA199000091GF101991001001999999001011GJ107089IA1019IA2999+00609MD1310021+9999REMSYN092AAXX  06031 28952 32998 10000 10091 20041 40115 53002 80001 333 55118 555 20078 30006 7000/;EQDQ01  00002PRCP99
0165289520999992000090606004+53210+063610FM-12+015699999V0203401N001012200019N0200001N1+02121+00381101091ADDAA199000091GF102991001001999999001011KA1999N+00781MD1210011+9999REMSYN070AAXX  06061 28952 32998 23401 10212 20038 40109 52001 80001 333 20078;EQDQ01  00002PRCP99
0122289520999992000090609004+53210+063610FM-12+015699999V0203401N002012200019N0200001N1+02351+00431101001ADDGA1001+999999999GF100991001001999999001001MD1810011+9999REMSYN054AAXX  06091 28952 42998 03402 10235 20043 40100 58001;
0153289520999992000090612004+53210+063610FM-12+015699999V0203601N004012200019N0200001N1+02901+00211101011ADDGA1001+999999999GF100991001001999999001001MA1999999099251MD1710021+9999REMSYN070AAXX  06121 28952 42998 03604 10290 20021 39925 40101 57002 555 1/037;
0175289520999992000090615004+53210+063610FM-12+015699999V0209999C000012200019N0200001N1+02061+00271101131ADDAA199000091GA1001+999999999GF100991001001999999001001KA1999M+02901MD1310071+9999REMSYN064AAXX  06151 28952 32998 00000 10206 20027 40113 53007 333 10290;EQDQ01  00002PRCP99
0175289520999992000090618004+53210+063610FM-12+015699999V0209999C000012200019N9999999N1+01451+00131101171ADDAA199000091GA1001+999999999GF100991001001999999001001KA1999M+02901MD1410001+9999REMSYN064AAXX  06181 28952 329// 00000 10145 20013 40117 54000 333 10290;EQDQ01  00002PRCP99
0122289520999992000090621004+53210+063610FM-12+015699999V0209999C000012200019N9999999N1+01171+00361101191ADDGA1001+999999999GF100991001001999999001001MD1410001+9999REMSYN054AAXX  06211 28952 429// 00000 10117 20036 40119 54000;
0153289520999992000090700004+53210+063610FM-12+015699999V0209999C000012200019N9999999N1+00871+00251101271ADDGA1001+999999999GF100991001001999999001001MA1999999099391MD1310071+9999REMSYN070AAXX  07001 28952 429// 00000 10087 20025 39939 40127 53007 555 1/007;
0200289520999992000090703004+53210+063610FM-12+015699999V0203601N002012200019N0200001N1+00991+00431101411ADDAA199000091GF102991001001999999001011GJ107269IA1019IA2999+00709MD1210141+9999REMSYN092AAXX  07031 28952 32998 23602 10099 20043 40141 52014 80001 333 55121 555 20087 30007 7000/;EQDQ01  00002PRCP99
0137289520999992000090706004+53210+063610FM-12+015699999V0203601N002019999999N0200001N1+02161+00321101461ADDAA199000091GF105991999999999999999999REMSYN069AAXX  07061 28952 32998 53602 10216 20032 40146 5012 80002 333 20087;EQDQ01  00002PRCP99
0112289520999992000090709004+53210+063610FM-12+015699999V0200201N001012200019N0200001N1+02791+00191101431ADDGF103991001001999999001011MD1210011+9999REMSYN060AAXX  07091 28952 42998 30201 10279 20019 40143 52001 80001;
0153289520999992000090712004+53210+063610FM-12+015699999V0203201N001012200019N0200001N1+02941+00091101461ADDGA1001+999999999GF100991001001999999001001MA1999999099701MD1210041+9999REMSYN070AAXX  07121 28952 42998 03201 10294 20009 39970 40146 52004 555 1/040;
0175289520999992000090715004+53210+063610FM-12+015699999V0203201N001012200019N0200001N1+02181+00591101591ADDAA199000091GA1001+999999999GF100991001001999999001001KA1999M+02971MD1210071+9999REMSYN064AAXX  07151 28952 32998 03201 10218 20059 40159 52007 333 10297;EQDQ01  00002PRCP99
0175289520999992000090718004+53210+063610FM-12+015699999V0209999C000012200019N9999999N1+01371+00671101751ADDAA199000091GA1001+999999999GF100991001001999999001001KA1999M+02971MD1210111+9999REMSYN064AAXX  07181 28952 329// 00000 10137 20067 40175 52011 333 10297;EQDQ01  00002PRCP99
0122289520999992000090721004+53210+063610FM-12+015699999V0209999C000012200019N9999999N1+01111+00591101841ADDGA1001+999999999GF100991001001999999001001MD1210081+9999REMSYN054AAXX  07211 28952 429// 00000 10111 20059 40184 52008;
0153289520999992000090800004+53210+063610FM-12+015699999V0209999C000012200019N9999999N1+01081+00211101921ADDGA1001+999999999GF100991001001999999001001MA1999999100041MD1210081+9999REMSYN070AAXX  08001 28952 429// 00000 10108 20021 30004 40192 52008 555 1/010;
0200289520999992000090803004+53210+063610FM-12+015699999V0209999C000012200019N0200001N1+01341+00451101971ADDAA199000091GF102991001001999999001011GJ106429IA1019IA2999+00709MD1210061+9999REMSYN092AAXX  08031 28952 32998 20000 10134 20045 40197 52006 80001 333 55107 555 20094 30007 7000/;EQDQ01  00002PRCP99
0165289520999992000090806004+53210+063610FM-12+015699999V0202301N001012200019N0200001N1+02581+00111101961ADDAA199000091GF101991001001999999001011KA1999N+00941MD1210071+9999REMSYN070AAXX  08061 28952 32998 12301 10258 20011 40196 52007 80001 333 20094;EQDQ01  00002PRCP99
0112289520999992000090809004+53210+063610FM-12+015699999V0202301N002012200019N0200001N1+03061-00381101911ADDGF101991001001999999001011MD1810021+9999REMSYN060AAXX  08091 28952 42998 12302 10306 21038 40191 58002 80001;
0143289520999992000090812004+53210+063610FM-12+015699999V0202301N002019999999N0200001N1+03071-00501101751ADDGF105991001001999999001011MA1999999099991MD1710161+9999REMSYN076AAXX  08121 28952 42998 52302 10307 21050 39999 40175 57016 80001 555 1/038;
0165289520999992000090815004+53210+063610FM-12+015699999V0202301N001019999999N0200001N1+02211+00111101761ADDAA199000091GF106991001001999999001021KA1999M+03101MD1710051+9999REMSYN070AAXX  08151 28952 32998 62301 10221 20011 40176 57005 80002 333 10310;EQDQ01  00002PRCP99
0165289520999992000090818004+53210+063610FM-12+015699999V0209999C000012200019N9999999N1+01761+00091101731ADDAA199000091GF105991021051008001001011KA1999M+03101MD1710051+9999REMSYN070AAXX  08181 28952 325// 50000 10176 20009 40173 57005 82501 333 10310;EQDQ01  00002PRCP99
0122289520999992000090821004+53210+063610FM-12+015699999V0209999C000012200019N9999999N1+01451+00461101691ADDGA1001+999999999GF100991001001999999001001MD1710051+9999REMSYN054AAXX  08211 28952 429// 00000 10145 20046 40169 57005;
0153289520999992000090900004+53210+063610FM-12+015699999V0209999C000012200019N9999999N1+01421+00451101621ADDGA1001+999999999GF100991001001999999001001MA1999999099771MD1710071+9999REMSYN070AAXX  09001 28952 429// 00000 10142 20045 39977 40162 57007 555 1/011;
0200289520999992000090903004+53210+063610FM-12+015699999V0201801N003012200019N0200001N1+01621+00271101531ADDAA199000091GF101991001001999999001011GJ107149IA1019IA2999+01109MD1710081+9999REMSYN092AAXX  09031 28952 32998 11803 10162 20027 40153 57008 80001 333 55119 555 20142 30011 7000/;EQDQ01  00002PRCP99
0165289520999992000090906004+53210+063610FM-12+015699999V0202301N003019999999N0200001N1+02581+00001101371ADDAA199000091GF107991001001999999001021KA1999N+01421MD1710101+9999REMSYN070AAXX  09061 28952 32998 72303 10258 20000 40137 57010 80002 333 20142;EQDQ01  00002PRCP99
0131289520999992000090909004+53210+063610FM-12+015699999V0202001N005019999999N0200001N1+03201-00381999999ADDGF106991001001999999001021MD1710201+9999REMSYN060AAXX  09091 28952 42998 62005 10320 21038 49939 57020 80002;EQDQ01+099393APOSLP
0143289520999992000090912004+53210+063610FM-12+015699999V0202701N003010750019N0200001N1+03101-00601100961ADDGF108991021091008001001021MA1999999099221MD1710171+9999REMSYN076AAXX  09121 28952 42598 82703 10310 21060 39922 40096 57017 82902 555 1/033;
0165289520999992000090915004+53210+063610FM-12+015699999V0201801N003010075019N0200001N1+02581-00051100911ADDAA199000091GF106991061091008001001001KA1999M+03251MD1710081+9999REMSYN070AAXX  09151 28952 32598 61803 10258 21005 40091 57008 86900 333 10325;EQDQ01  00002PRCP99
0165289520999992000090918004+53210+063610FM-12+015699999V0203601N002019999999N9999999N1+01651+01072101011ADDAA199000091GF106991001001999999001091KA1999M+03251MD1310051+9999REMSYN070AAXX  09181 28952 329// 63602 10165 20107 40101 53005 80009 333 10325;EQDQ01  00002PRCP99
0122289520999992000090921004+53210+063610FM-12+015699999V0203601N001012200019N9999999N1+01241+00741101041ADDGA1001+999999999GF100991001001999999001001MD1410001+9999REMSYN054AAXX  09211 28952 429// 03601 10124 20074 40104 54000;
0153289520999992000091000004+53210+063610FM-12+015699999V0203601N001012200019N9999999N1+00931+00741101121ADDGA1001+999999999GF100991001001999999001001MA1999999099241MD1310051+9999REMSYN070AAXX  10001 28952 429// 03601 10093 20074 39924 40112 53005 555 1/008;
0188289520999992000091003004+53210+063610FM-12+015699999V0203601N003010075019N0200001N1+00931+00651101171ADDAA199000091GF108991081091008001001001GJ105949IA1019MD1210051+9999REMSYN092AAXX  10031 28952 32598 83603 10093 20065 40117 52005 88900 333 55099 555 20093 30080 7000/;EQDQ01  00002PRCP99
0165289520999992000091006004+53210+063610FM-12+015699999V0203401N002012200019N0200001N1+01351+00621101141ADDAA199000091GF101991001001999999001011KA1999N+00931MD1810011+9999REMSYN070AAXX  10061 28952 32998 13402 10135 20062 40114 58001 80001 333 20093;EQDQ01  00002PRCP99
0112289520999992000091009004+53210+063610FM-12+015699999V0203201N002012200019N0200001N1+01601+00671101021ADDGF102991021021008001001001MD1710081+9999REMSYN060AAXX  10091 28952 42598 23202 10160 20067 40102 57008 82200;
0143289520999992000091012004+53210+063610FM-12+015699999V0203201N003010750019N0200001N1+01661+00641101001ADDGF106991021051008001001021MA1999999099181MD1710021+9999REMSYN076AAXX  10121 28952 42598 63203 10166 20064 39918 40100 57002 82502 555 1/025;
0165289520999992000091015004+53210+063610FM-12+015699999V0209999C000010075019N0200001N1+01251+00811101051ADDAA199000091GF107991071051008001001021KA1999M+01851MD1310021+9999REMSYN070AAXX  10151 28952 32598 70000 10125 20081 40105 53002 87502 333 10185;EQDQ01  00002PRCP99
0165289520999992000091018004+53210+063610FM-12+015699999V0209999C000019999999N9999999N1+01031+00621101021ADDAA199000091GF108991001001999999001061KA1999M+01851MD1810041+9999REMSYN070AAXX  10181 28952 329// 80000 10103 20062 40102 58004 80006 333 10185;EQDQ01  00002PRCP99
0112289520999992000091021004+53210+063610FM-12+015699999V0209999C000019999999N9999999N1+01011+00591100921ADDGF108991081091999999999999MD1710101+9999REMSYN060AAXX  10211 28952 429// 80000 10101 20059 40092 57010 889//;
0143289520999992000091100004+53210+063610FM-12+015699999V0209999C000010075019N9999999N1+00961+00641100881ADDGF108991081091008001999999MA1999999099001MD1710061+9999REMSYN076AAXX  11001 28952 425// 80000 10096 20064 39900 40088 57006 889// 555 1/009;
0178289520999992000091103004+53210+063610FM-12+015699999V0209999C000010075019N0200001N1+01001+00801100821ADDAY181031AY221031GF108991081091008001999999MD1710041+9999MW1021REMSYN104AAXX  11031 28952 /1598 80000 10100 20080 40082 57004 70282 889// 333 55083 555 20094 31009 69902 7990/;
0180289520999992000091106004+53210+063610FM-12+015699999V0209999C000010075019N0200001N1+01111+00681100801ADDAA100000791AY181061AY221061GF108991081091008001999999KA1999N+00941MD1710021+9999MW1021REMSYN082AAXX  11061 28952 11598 80000 10111 20068 40080 57002 69900 70282 889// 333 20094;
0112289520999992000091109004+53210+063610FM-12+015699999V0209999C000010075019N0200001N1+01381+00621100661ADDGF108991081091008001999999MD1710151+9999REMSYN060AAXX  11091 28952 42598 80000 10138 20062 40066 57015 889//;
0143289520999992000091112004+53210+063610FM-12+015699999V0203201N002010075019N0200001N1+01601+00481100691ADDGF105991051091008001001001MA1999999098801MD1710011+9999REMSYN076AAXX  11121 28952 42598 53202 10160 20048 39880 40069 57001 85900 555 1/029;
0165289520999992000091115004+53210+063610FM-12+015699999V0203201N001010075019N0200001N1+01081+00511100651ADDAA199000091GF106991051051008001001011KA1999M+01601MD1710011+9999REMSYN070AAXX  11151 28952 32598 63201 10108 20051 40065 57001 85501 333 10160;EQDQ01  00002PRCP99
0165289520999992000091118004+53210+063610FM-12+015699999V0200501N001019999999N9999999N1+00971+00451100581ADDAA199000091GF108991081001999999011999KA1999M+01601MD1710081+9999REMSYN070AAXX  11181 28952 329// 80501 10097 20045 40058 57008 8801/ 333 10160;EQDQ01  00002PRCP99
0140289520999992000091121004+53210+063610FM-12+015699999V0209999C000010075019N9999999N1+00921+00641100381ADDAY181031AY221031GF108991081091008001999999MD1710201+9999MW1801REMSYN066AAXX  11211 28952 415// 80000 10092 20064 40038 57020 78082 889//;
0171289520999992000091200004+53210+063610FM-12+015699999V0203601N001010075019N9999999N1+00871+00771100361ADDAY181061AY281061GF108991081091008001999999MA1999999098491MD1710021+9999MW1801REMSYN082AAXX  12001 28952 415// 83601 10087 20077 39849 40036 57002 78088 889// 555 1/009;
0178289520999992000091203004+53210+063610FM-12+015699999V0203601N003010075019N0200001N1+00941+00811100421ADDAY181031AY221031GF108991081091008001999999MD1310061+9999MW1021REMSYN104AAXX  12031 28952 /1598 83603 10094 20081 40042 53006 70282 889// 333 55042 555 20086 32009 60162 7016/;
0180289520999992000091206004+53210+063610FM-12+015699999V0203601N001010075019N0200001N1+01101+01041100621ADDAA100016091AY181061AY221061GF108991081091008001999999KA1999N+00861MD1210201+9999MW1021REMSYN082AAXX  12061 28952 11598 83601 10110 20104 40062 52020 60160 70282 889// 333 20086;
0112289520999992000091209004+53210+063610FM-12+015699999V0203201N001010075019N0200001N1+01401+00561100741ADDGF107991071091008001001001MD1210141+9999REMSYN060AAXX  12091 28952 42598 73201 10140 20056 40074 52014 87900;
0143289520999992000091212004+53210+063610FM-12+015699999V0202701N001010075019N0200001N1+01621+00251100881ADDGF105991051091008001001001MA1999999099051MD1210161+9999REMSYN076AAXX  12121 28952 42598 52701 10162 20025 39905 40088 52016 85900 333 2/020;
0165289520999992000091215004+53210+063610FM-12+015699999V0209999C000010075019N0200001N1+01361+01051101041ADDAA199000091GF106991061091008001001001KA1999M+01651MD1210141+9999REMSYN070AAXX  12151 28952 32598 60000 10136 20105 40104 52014 86900 333 10165;EQDQ01  00002PRCP99
0175289520999992000091218004+53210+063610FM-12+015699999V0202001N001012200019N9999999N1+00931+00701101171ADDAA199000091GA1001+999999999GF100991001001999999001001KA1999M+01651MD1210101+9999REMSYN064AAXX  12181 28952 329// 02001 10093 20070 40117 52010 333 10165;EQDQ01  00002PRCP99
0140289520999992000091221004+53210+063610FM-12+015699999V0201801N001010075019N9999999N1+00441+00371100991ADDAY181031AY281031GF108991081091008001999999MD1710261+9999MW1801REMSYN066AAXX  27211 28952 415// 81801 10044 20037 40099 57026 78088 889//;
0153289520999992000091300004+53210+063610FM-12+015699999V0201801N001012200019N9999999N1+00691+00511101401ADDGA1001+999999999GF100991001001999999001001MA1999999099501MD1210091+9999REMSYN070AAXX  13001 28952 429// 01801 10069 20051 39950 40140 52009 555 1/006;
0181289520999992000091303004+53210+063610FM-12+015699999V0209999C000012200019N0200001N1+00951+00581101411ADDAA199000021GF108991021091008001001011GJ102589IA1099IA2999+00609MD1210031+9999REMSYN092AAXX  13031 28952 32598 80000 10095 20058 40141 52003 82901 333 55043 555 20069 31006 7000/;
0146289520999992000091306004+53210+063610FM-12+015699999V0202301N003010075019N0200001N1+01741+00591101371ADDAA199000021GF107991061091008001031001KA1999N+00691MD1210011+9999REMSYN070AAXX  13061 28952 32598 72303 10174 20059 40137 52001 86930 333 20069;
0171289520999992000091312004+53210+063610FM-12+015699999V0201801N003010075019N0100001N1+02061+00651101061ADDAY181061AY221061GF108991081091008001999999MA1999999099251MD1710201+9999MW1801REMSYN082AAXX  13121 28952 41597 81803 10206 20065 39925 40106 57020 78082 889// 555 1/018;
0173289520999992000091315004+53210+063610FM-12+015699999V0200901N002010075019N0200001N1+01561+01131100931ADDAY181031AY221031GF108991051091008001031001KA1120M+02291MD1710151+9999MW1021REMSYN086AAXX  13151 28952 /1598 80902 10156 20113 40093 57015 70282 85930 333 10229 555 69902;
0180289520999992000091318004+53210+063610FM-12+015699999V0201401N007010075019N9999999N1+01841+00711100541ADDAA100000791AY181061AY221061GF108991081091008001999999KA1999M+02291MD1710361+9999MW1021REMSYN082AAXX  13181 28952 115// 81407 10184 20071 40054 57036 69900 70282 889// 333 10229;
0140289520999992000091321004+53210+063610FM-12+015699999V0201601N002010075019N9999999N1+01481+01371100501ADDAY181031AY221031GF108991081091008001999999MD1710071+9999MW1801REMSYN066AAXX  13211 28952 415// 81602 10148 20137 40050 57007 78082 889//;
0171289520999992000091400004+53210+063610FM-12+015699999V0201801N004010075019N9999999N1+01561+01421100231ADDAY181061AY221061GF108991081091008001999999MA1999999098421MD1710251+9999MW1801REMSYN082AAXX  14001 28952 415// 81804 10156 20142 39842 40023 57025 78082 889// 555 1/015;
0178289520999992000091403004+53210+063610FM-12+015699999V0201801N005010075019N0200001N1+01511+01401100021ADDAY181031AY221031GF108991081091008001999999MD1710221+9999MW1021REMSYN104AAXX  14031 28952 /1598 81805 10151 20140 40002 57022 70282 889// 333 55081 555 20143 32014 60122 7012/;
0180289520999992000091406004+53210+063610FM-12+015699999V0201801N004010075019N0200001N1+01561+01471099911ADDAA100011991AY181061AY221061GF108991081091008001999999KA1999N+01431MD1710101+9999MW1251REMSYN082AAXX  14061 28952 11598 81804 10156 20147 49991 57010 60120 72582 889// 333 20143;
0140289520999992000091409004+53210+063610FM-12+015699999V0202301N008010075019N0200001N1+01661+00671099941ADDAY181031AY221031GF106991061091008001001001MD1310031+9999MW1021REMSYN066AAXX  14091 28952 41598 62308 10166 20067 49994 53003 70282 86900;
0171289520999992000091412004+53210+063610FM-12+015699999V0202701N006010075019N0200001N1+01451+00211100271ADDAY181061AY221061GF107991071091008001001001MA1999999098441MD1210311+9999MW1021REMSYN082AAXX  14121 28952 41598 72706 10145 20021 39844 40027 52031 70282 87900 555 1/014;
0145289520999992000091415004+53210+063610FM-12+015699999V0202301N004012200019N9999999N1+01231+00151100421ADDGF101991011011012501001001KA1120M+01661MD1210141+9999REMSYN080AAXX  14151 28952 /26// 12304 10123 20015 40042 52014 81100 333 10166 555 60022;
0162289520999992000091418004+53210+063610FM-12+015699999V0202301N007012200019N9999999N1+01071+00251100511ADDAA100002091GA1001+999999999GF100991001001999999001001KA1999M+01661MD1210081+9999REMSYN070AAXX  14181 28952 129// 02307 10107 20025 40051 52008 60020 333 10166;
0122289520999992000091421004+53210+063610FM-12+015699999V0202301N007012200019N9999999N1+00831+00171100531ADDGA1001+999999999GF100991001001999999001001MD1410001+9999REMSYN054AAXX  14211 28952 429// 02307 10083 20017 40053 54000;
0153289520999992000091500004+53210+063610FM-12+015699999V0202301N006012200019N9999999N1+00781+00291100591ADDGA1001+999999999GF100991001001999999001001MA1999999098711MD1310051+9999REMSYN070AAXX  15001 28952 429// 02306 10078 20029 39871 40059 53005 555 1/005;
0200289520999992000091503004+53210+063610FM-12+015699999V0202301N007012200019N0200001N1+00831+00301100661ADDAA199000091GF102991001001999999001011GJ102469IA1099IA2999+00509MD1210071+9999REMSYN092AAXX  15031 28952 32998 22307 10083 20030 40066 52007 80001 333 55041 555 20078 31005 7002/;EQDQ01  00002PRCP99
0165289520999992000091506004+53210+063610FM-12+015699999V0202301N010012200019N0200001N1+01251+00211100691ADDAA199000091GF103991031011012501001001KA1999N+00781MD1210061+9999REMSYN070AAXX  15061 28952 32698 32310 10125 20021 40069 52006 83100 333 20078;EQDQ01  00002PRCP99
0122289520999992000091509004+53210+063610FM-12+015699999V0202501N010010750019N0200001N1+01561+00111100701ADDGF105991031011012501001021MD1210021+9999REMSYN070AAXX  15091 28952 42698 52510 10156 20011 40070 52002 83102 333 91118;
0174289520999992000091512004+53210+063610FM-12+015699999V0202301N009012200019N0200001N1+01581-00471100771ADDGA1001+999999999GF100991001001999999001001MA1999999098931MD1210071+9999OA149901801REMSYN080AAXX  15121 28952 42998 02309 10158 21047 39893 40077 52007 333 91118 555 1/019;
0175289520999992000091515004+53210+063610FM-12+015699999V0202301N004012200019N9999999N1+01301-00071100921ADDAA199000091GA1001+999999999GF100991001001999999001001KA1999M+01651MD1210141+9999REMSYN064AAXX  15151 28952 329// 02304 10130 21007 40092 52014 333 10165;EQDQ01  00002PRCP99
0175289520999992000091518004+53210+063610FM-12+015699999V0202301N005012200019N9999999N1+01091+00131101081ADDAA199000091GA1001+999999999GF100991001001999999001001KA1999M+01651MD1210151+9999REMSYN064AAXX  15181 28952 329// 02305 10109 20013 40108 52015 333 10165;EQDQ01  00002PRCP99
0153289520999992000091600004+53210+063610FM-12+015699999V0202301N002012200019N9999999N1+00761+00231101331ADDGA1001+999999999GF100991001001999999001001MA1999999099431MD1210121+9999REMSYN070AAXX  16001 28952 429// 02302 10076 20023 39943 40133 52012 555 1/004;
0200289520999992000091603004+53210+063610FM-12+015699999V0209999C000012200019N0200001N1+00671+00341101481ADDAA199000091GF101991001001999999001011GJ107329IA1099IA2999+00309MD1210151+9999REMSYN092AAXX  16031 28952 32998 10000 10067 20034 40148 52015 80001 333 55122 555 20054 31003 7000/;EQDQ01  00002PRCP99
0165289520999992000091606004+53210+063610FM-12+015699999V0202701N003019999999N0200001N1+01191+00021101501ADDAA199000091GF105991001001999999001011KA1999N+00541MD1210051+9999REMSYN070AAXX  16061 28952 32998 52703 10119 20002 40150 52005 80001 333 20054;EQDQ01  00002PRCP99
0112289520999992000091609004+53210+063610FM-12+015699999V0202501N002019999999N0200001N1+01521-00251101521ADDGF106991001001999999001021MD1210041+9999REMSYN060AAXX  16091 28952 42998 62502 10152 21025 40152 52004 80002;
0143289520999992000091612004+53210+063610FM-12+015699999V0202501N003010075019N0200001N1+01551-00271101521ADDGF107991061051008001001021MA1999999099671MD1410001+9999REMSYN076AAXX  16121 28952 42598 72503 10155 21027 39967 40152 54000 86502 555 1/022;
0165289520999992000091615004+53210+063610FM-12+015699999V0209999C000010075019N9999999N1+01281+00561101561ADDAA199000091GF107991071051008001999999KA1999M+01551MD1310031+9999REMSYN070AAXX  16151 28952 325// 70000 10128 20056 40156 53003 875// 333 10155;EQDQ01  00002PRCP99
0165289520999992000091618004+53210+063610FM-12+015699999V0209999C000010075019N9999999N1+01171+00251101531ADDAA199000091GF107991071051008001001001KA1999M+01551MD1810041+9999REMSYN070AAXX  16181 28952 325// 70000 10117 20025 40153 58004 87500 333 10155;EQDQ01  00002PRCP99
0112289520999992000091621004+53210+063610FM-12+015699999V0209999C000010075019N9999999N1+01011+00231101571ADDGF107991071051008001001001MD1310031+9999REMSYN060AAXX  16211 28952 425// 70000 10101 20023 40157 53003 87500;
0143289520999992000091700004+53210+063610FM-12+015699999V0202301N003010075019N9999999N1+01051+00451101381ADDGF107991071051008001001001MA1999999099511MD1810181+9999REMSYN076AAXX  17001 28952 425// 72303 10105 20045 39951 40138 58018 87500 555 1/008;
0178289520999992000091703004+53210+063610FM-12+015699999V0201401N006010075019N0200001N1+01171+00921101261ADDAY181031AY221031GF108991081091008001999999MD1710121+9999MW1251REMSYN104AAXX  17031 28952 /1598 81406 10117 20092 40126 57012 72582 889// 333 55095 555 20101 31008 69902 7990/;
0180289520999992000091706004+53210+063610FM-12+015699999V0201401N008010075019N0200001N1+01461+00891101011ADDAA100000791AY181061AY221061GF108991081091008001999999KA1999N+01011MD1710221+9999MW1021REMSYN082AAXX  17061 28952 11598 81408 10146 20089 40101 57022 69900 70282 889// 333 20101;
0140289520999992000091709004+53210+063610FM-12+015699999V0201401N004010075019N0200001N1+01981+00881100711ADDAY181031AY221031GF106991061091008001001001MD1710271+9999MW1021REMSYN066AAXX  17091 28952 41598 61404 10198 20088 40071 57027 70282 86900;
0171289520999992000091712004+53210+063610FM-12+015699999V0202301N003012200019N0200001N1+01801+01191100631ADDAY181061AY221061GF105991031051008001001011MA1999999098821MD1710081+9999MW1011REMSYN082AAXX  17121 28952 41598 52303 10180 20119 39882 40063 57008 70182 83501 555 1/022;
0145289520999992000091715004+53210+063610FM-12+015699999V0202301N003019999999N9999999N1+01501+00401100661ADDGF106991001001999999001091KA1120M+02141MD1410001+9999REMSYN080AAXX  17151 28952 /29// 62303 10150 20040 40066 54000 80009 333 10214 555 69902;
0152289520999992000091718004+53210+063610FM-12+015699999V0202301N007010075019N9999999N1+00951+00041100921ADDAA100000791GF107991071051008001999999KA1999M+02141MD1310221+9999REMSYN076AAXX  17181 28952 125// 72307 10095 20004 40092 53022 69900 875// 333 10214;
0112289520999992000091721004+53210+063610FM-12+015699999V0202301N002012200019N9999999N1+00611-00081100981ADDGF102991021001999999031001MD1210041+9999REMSYN060AAXX  17211 28952 429// 22302 10061 21008 40098 52004 82030;
0153289520999992000091800004+53210+063610FM-12+015699999V0202001N002012200019N9999999N1+00371+00111100911ADDGA1001+999999999GF100991001001999999001001MA1999999098991MD1810091+9999REMSYN070AAXX  18001 28952 429// 02002 10037 20011 39899 40091 58009 555 1/003;
0200289520999992000091803004+53210+063610FM-12+015699999V0202301N002012200019N0200001N1+00501+00121100751ADDAA199000091GF102991021051008001001011GJ101989IA1099IA2999+00309MD1710141+9999REMSYN092AAXX  18031 28952 32598 22302 10050 20012 40075 57014 82501 333 55033 555 20036 31003 7990/;EQDQ01  00002PRCP99
0165289520999992000091806004+53210+063610FM-12+015699999V0202301N005010750019N0200001N1+01101+00131100561ADDAA199000091GF105991021021012501001021KA1999N+00361MD1710141+9999REMSYN070AAXX  18061 28952 32698 52305 10110 20013 40056 57014 82202 333 20036;EQDQ01  00002PRCP99
0140289520999992000091809004+53210+063610FM-12+015699999V0202301N007010075019N0200001N1+00911+00251100451ADDAY181031AY221031GF108991081091008001999999MD1710131+9999MW1251REMSYN066AAXX  18091 28952 41598 82307 10091 20025 40045 57013 72582 889//;
0171289520999992000091812004+53210+063610FM-12+015699999V0202501N004010075019N0200001N1+00891+00561100351ADDAY181061AY221061GF107991071091008001001001MA1999999098481MD1710101+9999MW1251REMSYN082AAXX  18121 28952 41598 72504 10089 20056 39848 40035 57010 72582 87900 555 1/014;
0145289520999992000091815004+53210+063610FM-12+015699999V0202701N004012200019N9999999N1+00691+00441100341ADDGF102991021091008001001001KA1120M+01131MD1710021+9999REMSYN080AAXX  18151 28952 /25// 22704 10069 20044 40034 57002 82900 333 10113 555 60032;
0152289520999992000091818004+53210+063610FM-12+015699999V0202701N004010075019N9999999N1+00651+00341100421ADDAA100003091GF107991071051008001001001KA1999M+01131MD1310081+9999REMSYN076AAXX  18181 28952 125// 72704 10065 20034 40042 53008 60030 87500 333 10113;
0112289520999992000091821004+53210+063610FM-12+015699999V0202701N004010075019N9999999N1+00651+00291100461ADDGF108991081091008001999999MD1210041+9999REMSYN060AAXX  18211 28952 425// 82704 10065 20029 40046 52004 889//;
0143289520999992000091900004+53210+063610FM-12+015699999V0202701N005010075019N9999999N1+00521+00171100591ADDGF108991081091008001999999MA1999999098701MD1210121+9999REMSYN076AAXX  19001 28952 425// 82705 10052 20017 39870 40059 52012 889// 555 1/005;
0178289520999992000091903004+53210+063610FM-12+015699999V0203201N004010075019N0100001N1+00561+00161100791ADDAY181031AY221031GF108991081091008001999999MD1210191+9999MW1801REMSYN104AAXX  19031 28952 /1597 83204 10056 20016 40079 52019 78082 889// 333 55054 555 20050 32004 69902 7003/;
0180289520999992000091906004+53210+063610FM-12+015699999V0203201N005010075019N0200001N1+00511+00211100961ADDAA100000791AY181061AY221061GF108991081091008001999999KA1999N+00501MD1210271+9999MW1021REMSYN082AAXX  19061 28952 11598 83205 10051 20021 40096 52027 69900 70282 889// 333 20050;
0143289520999992000091912004+53210+063610FM-12+015699999V0202901N005010075019N0200001N1+00771+00001101431ADDGF108991081091008001999999MA1999999099531MD1210171+9999REMSYN076AAXX  19121 28952 42598 82905 10077 20000 39953 40143 52017 889// 555 1/008;
0155289520999992000091915004+53210+063610FM-12+015699999V0209999C000012200019N9999999N1+00511+00041101721ADDGA1001+999999999GF100991001001999999001001KA1120M+00801MD1210271+9999REMSYN074AAXX  19151 28952 /29// 00000 10051 20004 40172 52027 333 10080 555 69902;
0162289520999992000091918004+53210+063610FM-12+015699999V0209999C000012200019N9999999N1+00261+00051101841ADDAA100000791GA1001+999999999GF100991001001999999001001KA1999M+00801MD1210101+9999REMSYN070AAXX  19181 28952 129// 00000 10026 20005 40184 52010 69900 333 10080;
0112289520999992000091921004+53210+063610FM-12+015699999V0209999C000012200019N9999999N1+00331+00231101951ADDGF102991021091008001001001MD1210111+9999REMSYN060AAXX  19211 28952 425// 20000 10033 20023 40195 52011 82900;
0143289520999992000092000004+53210+063610FM-12+015699999V0209999C000010075019N9999999N1+00391+00081102001ADDGF107991071091008001001001MA1999999100061MD1210051+9999REMSYN076AAXX  20001 28952 425// 70000 10039 20008 30006 40200 52005 87900 555 1/003;
0200289520999992000092003004+53210+063610FM-12+015699999V0209999C000010075019N0200001N1+00511+00101102181ADDAA199000091GF107991071091008001001001GJ100129IA1099IA2999+01009MD1210191+9999REMSYN092AAXX  20031 28952 32598 70000 10051 20010 40218 52019 87900 333 55002 555 20010 31010 7990/;EQDQ01  00002PRCP99
0175289520999992000092006004+53210+063610FM-12+015699999V0202901N006012200019N0200001N1+01191+00191102191ADDAA199000091GA1001+999999999GF100991001001999999001001KA1999N+00101MD1210051+9999REMSYN064AAXX  20061 28952 32998 02906 10119 20019 40219 52005 333 20010;EQDQ01  00002PRCP99
0112289520999992000092009004+53210+063610FM-12+015699999V0202501N005012200019N0200001N1+01441+00021102051ADDGF102991011011012501001011MD1810111+9999REMSYN060AAXX  20091 28952 42698 22505 10144 20002 40205 58011 81101;
0143289520999992000092012004+53210+063610FM-12+015699999V0202301N003012200019N0200001N1+01481-00051101961ADDGF102991001001999999001011MA1999999100111MD1710081+9999REMSYN076AAXX  20121 28952 42998 22303 10148 21005 30011 40196 57008 80001 555 1/021;
0175289520999992000092015004+53210+063610FM-12+015699999V0202701N002012200019N9999999N1+01071+00291101961ADDAA199000091GA1001+999999999GF100991001001999999001001KA1999M+01521MD1710031+9999REMSYN064AAXX  20151 28952 329// 02702 10107 20029 40196 57003 333 10152;EQDQ01  00002PRCP99
0175289520999992000092018004+53210+063610FM-12+015699999V0209999C000012200019N9999999N1+00791+00271101951ADDAA199000091GA1001+999999999GF100991001001999999001001KA1999M+01521MD1710041+9999REMSYN064AAXX  20181 28952 329// 00000 10079 20027 40195 57004 333 10152;EQDQ01  00002PRCP99
0122289520999992000092021004+53210+063610FM-12+015699999V0209999C000012200019N9999999N1+00561+00191101891ADDGA1001+999999999GF100991001001999999001001MD1710071+9999REMSYN054AAXX  20211 28952 429// 00000 10056 20019 40189 57007;
0153289520999992000092100004+53210+063610FM-12+015699999V0202301N002012200019N9999999N1+00461+00151101871ADDGA1001+999999999GF100991001001999999001001MA1999999099951MD1710021+9999REMSYN070AAXX  21001 28952 429// 02302 10046 20015 39995 40187 57002 555 1/003;
0210289520999992000092103004+53210+063610FM-12+015699999V0202001N003012200019N0200001N1+00351+00201101821ADDAA199000091GA1001+999999999GF100991001001999999001001GJ105349IA1019IA2999+00209MD1710071+9999REMSYN086AAXX  21031 28952 32998 02003 10035 20020 40182 57007 333 55089 555 20029 30002 7000/;EQDQ01  00002PRCP99
0165289520999992000092106004+53210+063610FM-12+015699999V0202301N004012200019N0200001N1+01151+00411101701ADDAA199000091GF102991001001999999001011KA1999N+00291MD1710061+9999REMSYN070AAXX  21061 28952 32998 22304 10115 20041 40170 57006 80001 333 20029;EQDQ01  00002PRCP99
0112289520999992000092109004+53210+063610FM-12+015699999V0202301N004010750019N0200001N1+01561+00401101551ADDGF107991031011012501001091MD1710121+9999REMSYN060AAXX  21091 28952 42698 72304 10156 20040 40155 57012 83109;
0143289520999992000092112004+53210+063610FM-12+015699999V0202701N002010075019N0200001N1+01531+00321101541ADDGF107991061091008001001091MA1999999099691MD1710011+9999REMSYN076AAXX  21121 28952 42598 72702 10153 20032 39969 40154 57001 86909 555 1/017;
0165289520999992000092115004+53210+063610FM-12+015699999V0209999C000010075019N9999999N1+01151+00621101631ADDAA199000091GF107991071051008001999999KA1999M+01561MD1310061+9999REMSYN070AAXX  21151 28952 325// 70000 10115 20062 40163 53006 875// 333 10156;EQDQ01  00002PRCP99
0174289520999992000092118004+53210+063610FM-12+015699999V0202301N004010075019N9999999N1+00931+00671101751ADDAA199000021AY181061AY221061GF108991081091008001999999KA1999M+01561MD1210111+9999MW1801REMSYN076AAXX  21181 28952 315// 82304 10093 20067 40175 52011 78082 889// 333 10156;
0140289520999992000092121004+53210+063610FM-12+015699999V0203601N006010075019N9999999N1+00351+00271101931ADDAY181031AY221031GF108991081091008001999999MD1210131+9999MW1801REMSYN066AAXX  21211 28952 415// 83606 10035 20027 40193 52013 78082 889//;
0171289520999992000092200004+53210+063610FM-12+015699999V0200201N006010075019N9999999N1+00171+00121102151ADDAY181061AY281061GF108991081091008001999999MA1999999100201MD1210211+9999MW1801REMSYN082AAXX  22001 28952 415// 80206 10017 20012 30020 40215 52021 78088 889// 555 1/001;
0178289520999992000092203004+53210+063610FM-12+015699999V0200501N003010075019N0200001N1+00071-00071102281ADDAY181031AY221031GF108991081091008001999999MD1210121+9999MW1021REMSYN104AAXX  22031 28952 /1598 80503 10007 21007 40228 52012 70282 889// 333 55053 555 20007 32001 60032 7003/;
0180289520999992000092206004+53210+063610FM-12+015699999V0200501N003010075019N0200001N1+00321-00091102411ADDAA100003091AY181061AY221061GF108991081091008001999999KA1999N+00071MD1210141+9999MW1021REMSYN082AAXX  22061 28952 11598 80503 10032 21009 40241 52014 60030 70282 889// 333 20007;
0112289520999992000092209004+53210+063610FM-12+015699999V0202901N001010075019N0200001N1+00471-00301102481ADDGF107991071051008001001001MD1210091+9999REMSYN060AAXX  22091 28952 42598 72901 10047 21030 40248 52009 87500;
0143289520999992000092212004+53210+063610FM-12+015699999V0202901N002010075019N0200001N1+00531-00781102481ADDGF106991051051008001001011MA1999999100551MD1410001+9999REMSYN076AAXX  22121 28952 42598 62902 10053 21078 30055 40248 54000 85501 555 1/009;
0165289520999992000092215004+53210+063610FM-12+015699999V0209999C000010750019N9999999N1+00121-00301102561ADDAA199000091GF105991021051008001001091KA1999M+00581MD1310051+9999REMSYN070AAXX  22151 28952 325// 50000 10012 21030 40256 53005 82509 333 10058;EQDQ01  00002PRCP99
0175289520999992000092218004+53210+063610FM-12+015699999V0209999C000012200019N9999999N1-00021-00581102531ADDAA199000091GA1001+999999999GF100991001001999999001001KA1999M+00581MD1810041+9999REMSYN064AAXX  22181 28952 329// 00000 11002 21058 40253 58004 333 10058;EQDQ01  00002PRCP99
0122289520999992000092221004+53210+063610FM-12+015699999V0209999C000012200019N9999999N1-00091-00551102481ADDGA1001+999999999GF100991001001999999001001MD1710051+9999REMSYN054AAXX  22211 28952 429// 00000 11009 21055 40248 57005;
0143289520999992000092300004+53210+063610FM-12+015699999V0200901N002010075019N9999999N1+00021-00571102421ADDGF108991081091008001999999MA1999999100451MD1710061+9999REMSYN076AAXX  23001 28952 425// 80902 10002 21057 30045 40242 57006 889// 555 1/000;
0200289520999992000092303004+53210+063610FM-12+015699999V0200701N003010075019N0200001N1+00091-00551102291ADDAA199000091GF107991071091008001001001GJ100009IA1099IA2999-00309MD1710121+9999REMSYN092AAXX  23031 28952 32598 70703 10009 21055 40229 57012 87900 333 55000 555 21010 31103 7000/;EQDQ01  00002PRCP99
0174289520999992000092306004+53210+063610FM-12+015699999V0201101N004010075019N0100001N1+00281-00301102221ADDAA199000021AY181061AY221061GF108991081091008001999999KA1999N-00101MD1710061+9999MW1851REMSYN076AAXX  23061 28952 31597 81104 10028 21030 40222 57006 78582 889// 333 21010;
0140289520999992000092309004+53210+063610FM-12+015699999V0200701N003019999999N0040001N1+00321-00291102171ADDAY181031AY221031GF108991081001008001071999MD1710041+9999MW1711REMSYN066AAXX  23091 28952 41596 80703 10032 21029 40217 57004 77182 8807/;
0171289520999992000092312004+53210+063610FM-12+015699999V0200901N003019999999N0200001N1+00311-00041102041ADDAY171061AY221061GF108991081001999999071999MA1999999100101MD1710131+9999MW1021REMSYN082AAXX  23121 28952 41998 80903 10031 21004 30010 40204 57013 70272 8807/ 555 1/006;
0155289520999992000092315004+53210+063610FM-12+015699999V0200901N001012200019N9999999N1+00071-00071101981ADDGA1001+999999999GF100991001001999999001001KA1120M+00341MD1710071+9999REMSYN074AAXX  23151 28952 /29// 00901 10007 21007 40198 57007 333 10034 555 69902;
0162289520999992000092318004+53210+063610FM-12+015699999V0209999C000012200019N9999999N1-00161-00251101981ADDAA100000791GA1001+999999999GF100991001001999999001001KA1999M+00341MD1710031+9999REMSYN070AAXX  23181 28952 129// 00000 11016 21025 40198 57003 69900 333 10034;
0122289520999992000092321004+53210+063610FM-12+015699999V0209999C000012200019N9999999N1-00251-00311101911ADDGA1001+999999999GF100991001001999999001001MD1710071+9999REMSYN054AAXX  23211 28952 429// 00000 11025 21031 40191 57007;
0143289520999992000092400004+53210+063610FM-12+015699999V0200501N001019999999N9999999N1-00231-00291101891ADDGF106991061001999999031001MA1999999099911MD1710021+9999REMSYN076AAXX  24001 28952 429// 60501 11023 21029 39991 40189 57002 86030 555 1/103;
0200289520999992000092403004+53210+063610FM-12+015699999V0200201N001010075019N0200001N1-00061-00211101861ADDAA199000091GF108991081091008001999999GJ100009IA1099IA2999-00509MD1710011+9999REMSYN092AAXX  24031 28952 32598 80201 11006 21021 40186 57001 889// 333 55000 555 21036 31105 7990/;EQDQ01  00002PRCP99
0193289520999992000092406004+53210+063610FM-12+015699999V0203601N005010075019N0200001N1+00291+00051101881ADDAA199000091AY181061AY221061GF108991081091008001999999KA1999N-00361MD1310041+9999MW1021REMSYN076AAXX  24061 28952 31598 83605 10029 20005 40188 53004 70282 889// 333 21036;EQDQ01  00002PRCP99
0112289520999992000092409004+53210+063610FM-12+015699999V0203601N005010075019N0200001N1+00531-00291101861ADDGF107991071091008001001001MD1410001+9999REMSYN060AAXX  24091 28952 42598 73605 10053 21029 40186 54000 87900;
0143289520999992000092412004+53210+063610FM-12+015699999V0203401N007010075019N0200001N1+00571-00531101891ADDGF105991051091008001001001MA1999999099971MD1310031+9999REMSYN076AAXX  24121 28952 42598 53407 10057 21053 39997 40189 53003 85900 555 1/110;
0145289520999992000092415004+53210+063610FM-12+015699999V0203601N007010075019N9999999N1+00261-00371102031ADDGF107991071091008001001001KA1120M+00701MD1210121+9999REMSYN080AAXX  24151 28952 /25// 73607 10026 21037 40203 52012 87900 333 10070 555 69902;
0152289520999992000092418004+53210+063610FM-12+015699999V0203601N005010075019N9999999N1+00221-00311102051ADDAA112000791GF106991061091008001001001KA1999M+00701MD1210011+9999REMSYN076AAXX  24181 28952 125// 63605 10022 21031 40205 52001 69902 86900 333 10070;
0112289520999992000092421004+53210+063610FM-12+015699999V0203401N003010075019N9999999N1+00071-00291102141ADDGF106991061091008001001001MD1210091+9999REMSYN060AAXX  24211 28952 425// 63403 10007 21029 40214 52009 86900;
0143289520999992000092500004+53210+063610FM-12+015699999V0203401N005010075019N9999999N1+00061-00111102141ADDGF108991081091008001999999MA1999999100191MD1210011+9999REMSYN076AAXX  25001 28952 425// 83405 10006 21011 30019 40214 52001 889// 555 1/000;
0176289520999992000092503004+53210+063610FM-12+015699999V0203201N003010075019N0200001N1+00041-00261102191ADDAA124999999GF108991081091008001999999IA1019IA2999+00009KA1120N+00041MD1210041+9999REMSYN082AAXX  25031 28952 32598 83203 10004 21026 40219 52004 889// 333 20004 30000 7990/;
0165289520999992000092506004+53210+063610FM-12+015699999V0203601N002010075019N0200001N1+00321-00361102241ADDAA199000091GF107991071091008001001001KA1999N+00041MD1210061+9999REMSYN070AAXX  25061 28952 32598 73602 10032 21036 40224 52006 87900 333 20004;EQDQ01  00002PRCP99
0112289520999992000092509004+53210+063610FM-12+015699999V0203201N004010075019N0200001N1+00391-00651102241ADDGF108991081091008001999999MD1410001+9999REMSYN060AAXX  25091 28952 42598 83204 10039 21065 40224 54000 889//;
0143289520999992000092512004+53210+063610FM-12+015699999V0203201N002012200019N0200001N1+00531-00691102101ADDGF103991021021008001001021MA1999999100181MD1810111+9999REMSYN076AAXX  25121 28952 42598 33202 10053 21069 30018 40210 58011 82202 555 1/011;
0175289520999992000092515004+53210+063610FM-12+015699999V0209999C000012200019N9999999N1+00061-00441102131ADDAA199000091GA1001+999999999GF100991001001999999001001KA1999M+00651MD1710011+9999REMSYN064AAXX  25151 28952 329// 00000 10006 21044 40213 57001 333 10065;EQDQ01  00002PRCP99
0175289520999992000092518004+53210+063610FM-12+015699999V0209999C000012200019N9999999N1+00021-00571102051ADDAA199000091GA1001+999999999GF100991001001999999001001KA1999M+00651MD1710081+9999REMSYN064AAXX  25181 28952 329// 00000 10002 21057 40205 57008 333 10065;EQDQ01  00002PRCP99
0122289520999992000092521004+53210+063610FM-12+015699999V0203201N003012200019N9999999N1+00121-00371101901ADDGA1001+999999999GF100991001001999999001001MD1710141+9999REMSYN054AAXX  25211 28952 429// 03203 10012 21037 40190 57014;
0143289520999992000092600004+53210+063610FM-12+015699999V0209999C000012200019N9999999N1+00061-00231101781ADDGF103991031051008001001001MA1999999099831MD1710121+9999REMSYN076AAXX  26001 28952 425// 30000 10006 21023 39983 40178 57012 83500 555 1/000;
0200289520999992000092603004+53210+063610FM-12+015699999V0201801N002010075019N0200001N1+00261-00041101721ADDAA199000091GF107991071091008001001001GJ102889IA1019IA2999-00109MD1710051+9999REMSYN092AAXX  26031 28952 32598 71802 10026 21004 40172 57005 87900 333 55048 555 21005 30101 7000/;EQDQ01  00002PRCP99
0165289520999992000092606004+53210+063610FM-12+015699999V0202001N004010075019N0200001N1+00691+00121101601ADDAA199000091GF107991051051008001001091KA1999N-00051MD1710081+9999REMSYN070AAXX  26061 28952 32598 72004 10069 20012 40160 57008 85509 333 21005;EQDQ01  00002PRCP99
0112289520999992000092609004+53210+063610FM-12+015699999V0202001N007010075019N0200001N1+01351+00041101421ADDGF107991051051008001001091MD1710141+9999REMSYN060AAXX  26091 28952 42598 72007 10135 20004 40142 57014 85509;
0143289520999992000092612004+53210+063610FM-12+015699999V0202301N008010075019N0200001N1+01401+00091101311ADDGF107991071051008001001001MA1999999099451MD1710111+9999REMSYN076AAXX  26121 28952 42598 72308 10140 20009 39945 40131 57011 87500 555 1/015;
0175289520999992000092615004+53210+063610FM-12+015699999V0202301N004012200019N9999999N1+00911+00131101371ADDAA199000091GA1001+999999999GF100991001001999999001001KA1999M+01401MD1310041+9999REMSYN064AAXX  26151 28952 329// 02304 10091 20013 40137 53004 333 10140;EQDQ01  00002PRCP99
0175289520999992000092618004+53210+063610FM-12+015699999V0202501N004012200019N9999999N1+00521-00101101371ADDAA199000091GA1001+999999999GF100991001001999999001001KA1999M+01401MD1410001+9999REMSYN064AAXX  26181 28952 329// 02504 10052 21010 40137 54000 333 10140;EQDQ01  00002PRCP99
0112289520999992000092621004+53210+063610FM-12+015699999V0202301N003010075019N9999999N1+00521-00041101341ADDGF107991071091008001001001MD1810061+9999REMSYN060AAXX  26211 28952 425// 72303 10052 21004 40134 58006 87900;
0143289520999992000092700004+53210+063610FM-12+015699999V0201801N005012200019N9999999N1+00611+00111101131ADDGF102991021091008001001001MA1999999099231MD1710201+9999REMSYN076AAXX  27001 28952 425// 21805 10061 20011 39923 40113 57020 82900 555 1/005;
0178289520999992000092703004+53210+063610FM-12+015699999V0202301N005010075019N0200001N1+00611+00371101231ADDAY171031AY211031GF107991071051008001999999MD1310091+9999MW1021REMSYN104AAXX  27031 28952 /1598 72305 10061 20037 40123 53009 70271 875// 333 50038 555 20052 31005 69952 7995/;
0180289520999992000092706004+53210+063610FM-12+015699999V0201801N005010075019N0100001N1+00731+00231101211ADDAA100000591AY181061AY221061GF108991081091008001999999KA1999N+00521MD1810011+9999MW1801REMSYN082AAXX  27061 28952 11597 81805 10073 20023 40121 58001 69950 78082 889// 333 20052;
0140289520999992000092709004+53210+063610FM-12+015699999V0202001N005010075019N0100001N1+00671+00391101131ADDAY181031AY221031GF108991081091008001999999MD1710071+9999MW1801REMSYN066AAXX  27091 28952 41597 82005 10067 20039 40113 57007 78082 889//;
0171289520999992000092712004+53210+063610FM-12+015699999V0202001N004010075019N0200001N1+00741+00361100911ADDAY181061AY221061GF108991081091008001999999MA1999999099021MD1710221+9999MW1021REMSYN082AAXX  27121 28952 41598 82004 10074 20036 39902 40091 57022 70282 889// 555 1/008;
0173289520999992000092715004+53210+063610FM-12+015699999V0201801N004010075019N9999999N1+00711+00171100821ADDAY121031AY221031GF108991081091008001999999KA1120M+00801MD1710091+9999MW1251REMSYN086AAXX  27151 28952 /15// 81804 10071 20017 40082 57009 72522 889// 333 10080 555 69942;
0180289520999992000092718004+53210+063610FM-12+015699999V0201801N004010075019N9999999N1+00571+00331100661ADDAA100000591AY181061AY221061GF108991081091008001999999KA1999M+00801MD1710171+9999MW1801REMSYN082AAXX  27181 28952 115// 81804 10057 20033 40066 57017 69940 78082 889// 333 10080;
0171289520999992000092800004+53210+063610FM-12+015699999V0201801N002010075019N9999999N1+00411+00411100101ADDAY181061AY281061GF108991081091008001999999MA1999999098201MD1710301+9999MW1801REMSYN082AAXX  28001 28952 415// 81802 10041 20041 39820 40010 57030 78088 889// 555 1/004;
0178289520999992000092803004+53210+063610FM-12+015699999V0202301N004010075019N0200001N1+00361+00231100011ADDAY181031AY221031GF108991081091008001999999MD1710091+9999MW1251REMSYN104AAXX  28031 28952 /1598 82304 10036 20023 40001 57009 72582 889// 333 55000 555 20035 32004 60052 7005/;
0199289520999992000092806004+53210+063610FM-12+015699999V0202701N006010075019N0100001N1+00291-00011100191ADDAA100005191AY181061AY221061GF108991081091008001999999KA1999N+99999MD1310171+9999MW1801REMSYN082AAXX  28061 28952 11597 82706 10029 21001 40019 53017 60050 78082 889// 333 20035;EQDQ01 +00352ATMN  
0140289520999992000092809004+53210+063610FM-12+015699999V0202501N008010075019N0200001N1+00291-00011100371ADDAY181031AY221031GF108991081091008001999999MD1210181+9999MW1021REMSYN066AAXX  28091 28952 41598 82508 10029 21001 40037 52018 70282 889//;
0171289520999992000092812004+53210+063610FM-12+015699999V0202701N007010075019N0040001N1+00201+00071100651ADDAY181061AY221061GF108991081091008001999999MA1999999098731MD1210271+9999MW1851REMSYN082AAXX  28121 28952 41596 82707 10020 20007 39873 40065 52027 78582 889// 555 1/003;
0173289520999992000092815004+53210+063610FM-12+015699999V0202701N006010075019N9999999N1+00291+00051100911ADDAY181031AY221031GF108991081091008001999999KA1120M+00301MD1210261+9999MW1261REMSYN086AAXX  28151 28952 /15// 82706 10029 20005 40091 52026 72682 889// 333 10030 555 60062;
0180289520999992000092818004+53210+063610FM-12+015699999V0202701N003010075019N9999999N1+00271+00031101041ADDAA100006191AY181061AY221061GF107991071091008001001001KA1999M+00301MD1210131+9999MW1021REMSYN082AAXX  28181 28952 115// 72703 10027 20003 40104 52013 60060 70282 87900 333 10030;
0112289520999992000092821004+53210+063610FM-12+015699999V0202701N003010075019N9999999N1+00271+00061101191ADDGF108991081091008001999999MD1210141+9999REMSYN060AAXX  28211 28952 425// 82703 10027 20006 40119 52014 889//;
0171289520999992000092900004+53210+063610FM-12+015699999V0202701N004010075019N9999999N1+00221+00121101381ADDAY181061AY221061GF108991081091008001999999MA1999999099441MD1210181+9999MW1801REMSYN082AAXX  29001 28952 415// 82704 10022 20012 39944 40138 52018 78082 889// 555 1/002;
0178289520999992000092903004+53210+063610FM-12+015699999V0202701N002010075019N0200001N1+00211+00051101601ADDAY181031AY221031GF107991071051008001001001MD1210221+9999MW1021REMSYN104AAXX  29031 28952 /1598 72702 10021 20005 40160 52022 70282 87500 333 55000 555 20021 32002 69902 7006/;
0180289520999992000092906004+53210+063610FM-12+015699999V0203201N002010075019N0200001N1+00451+00031101761ADDAA100000791AY181061AY221061GF107991071091008001001001KA1999N+00211MD1210181+9999MW1021REMSYN082AAXX  29061 28952 11598 73202 10045 20003 40176 52018 69900 70282 87900 333 20021;
0112289520999992000092909004+53210+063610FM-12+015699999V0202701N005010075019N0200001N1+00771-00331101801ADDGF107991071091008001001001MD1210051+9999REMSYN060AAXX  29091 28952 42598 72705 10077 21033 40180 52005 87900;
0143289520999992000092912004+53210+063610FM-12+015699999V0202701N004010075019N0200001N1+00811-00381101841ADDGF107991071091008001001001MA1999999099931MD1210041+9999REMSYN076AAXX  29121 28952 42598 72704 10081 21038 39993 40184 52004 87900 555 1/010;
0165289520999992000092915004+53210+063610FM-12+015699999V0202701N004010075019N9999999N1+00581-00221101931ADDAA199000091GF107991071091008001001001KA1999M+00901MD1210081+9999REMSYN070AAXX  29151 28952 325// 72704 10058 21022 40193 52008 87900 333 10090;EQDQ01  00002PRCP99
0135289520999992000092918004+53210+063610FM-12+015699999V0202701N002010075019N9999999N1+00371-00131101991ADDGF108991081091008001999999KA1999M+00901MD1210041+9999REMSYN070AAXX  29181 28952 425// 82702 10037 21013 40199 52004 889// 333 10090;
0122289520999992000092921004+53210+063610FM-12+015699999V0202301N001012200019N9999999N1+00251-00111101991ADDGA1001+999999999GF100991001001999999001001MD1410001+9999REMSYN054AAXX  29211 28952 429// 02301 10025 21011 40199 54000;
0143289520999992000093000004+53210+063610FM-12+015699999V0202301N001010075019N9999999N1+00291-00041101941ADDGF106991061091008001001001MA1999999100001MD1810051+9999REMSYN076AAXX  30001 28952 425// 62301 10029 21004 30000 40194 58005 86900 555 1/002;
0178289520999992000093003004+53210+063610FM-12+015699999V0202301N004010075019N0200001N1+00411+00151101871ADDAY181031AY221031GF108991081091008001999999MD1710071+9999MW1021REMSYN104AAXX  30031 28952 /1598 82304 10041 20015 40187 57007 70282 889// 333 55028 555 20025 31002 69902 7990/;
0180289520999992000093006004+53210+063610FM-12+015699999V0202501N003010075019N0200001N1+00791+00271101831ADDAA100000791AY181061AY221061GF108991081091008001999999KA1999N+00251MD1710011+9999MW1021REMSYN082AAXX  30061 28952 11598 82503 10079 20027 40183 57001 69900 70282 889// 333 20025;
0140289520999992000093009004+53210+063610FM-12+015699999V0202701N003010075019N0100001N1+00751+00431101791ADDAY181031AY221031GF108991081091008001999999MD1710041+9999MW1801REMSYN066AAXX  30091 28952 41597 82703 10075 20043 40179 57004 78082 889//;
0171289520999992000093012004+53210+063610FM-12+015699999V0202701N003010075019N0100001N1+00691+00461101771ADDAY181061AY221061GF108991081091008001999999MA1999999099861MD1710021+9999MW1801REMSYN082AAXX  30121 28952 41597 82703 10069 20046 39986 40177 57002 78082 889// 555 1/008;
0173289520999992000093015004+53210+063610FM-12+015699999V0202701N002010075019N9999999N1+00711+00531101761ADDAY181031AY221031GF108991081091008001999999KA1120M+00951MD1710011+9999MW1021REMSYN086AAXX  30151 28952 /15// 82702 10071 20053 40176 57001 70282 889// 333 10095 555 60032;
0180289520999992000093018004+53210+063610FM-12+015699999V0209999C000010075019N9999999N1+00651+00471101751ADDAA100003091AY181061AY221061GF108991081091008001999999KA1999M+00951MD1710011+9999MW1021REMSYN082AAXX  30181 28952 115// 80000 10065 20047 40175 57001 60030 70282 889// 333 10095;
0112289520999992000093021004+53210+063610FM-12+015699999V0209999C000010075019N9999999N1+00611+00501101751ADDGF108991081091008001999999MD1410001+9999REMSYN060AAXX  30211 28952 425// 80000 10061 20050 40175 54000 889//;
0143289520999992000100100004+53210+063610FM-12+015699999V0209999C000010075019N9999999N1+00531+00461101761ADDGF108991081091008001999999MA1999999099841MD1410001+9999REMSYN076AAXX  01001 28952 425// 80000 10053 20046 39984 40176 54000 889// 555 1/005;
0200289520999992000100103004+53210+063610FM-12+015699999V0209999C000010075019N0200001N1+00511+00371101801ADDAA199000091GF107991071051008001001001GJ100009IA1119IA2999+00409MD1310041+9999REMSYN092AAXX  01031 28952 32598 70000 10051 20037 40180 53004 87500 333 55000 555 20049 32004 7003/;EQDQ01  00002PRCP99
0165289520999992000100106004+53210+063610FM-12+015699999V0202701N002010075019N0200001N1+00741+00451101831ADDAA199000091GF107991071051008001001001KA1999N+00491MD1210041+9999REMSYN070AAXX  01061 28952 32598 72702 10074 20045 40183 52004 87500 333 20049;EQDQ01  00002PRCP99
0112289520999992000100109004+53210+063610FM-12+015699999V0202701N001010075019N0200001N1+00941+00411101811ADDGF108991081091008001999999MD1410001+9999REMSYN060AAXX  01091 28952 42598 82701 10094 20041 40181 54000 889//;
0143289520999992000100112004+53210+063610FM-12+015699999V0203601N001010075019N0200001N1+00951+00411101811ADDGF108991081091008001999999MA1999999099921MD1410001+9999REMSYN076AAXX  01121 28952 42598 83601 10095 20041 39992 40181 54000 889// 555 1/010;
0181289520999992000100115004+53210+063610FM-12+015699999V0209999C000010075019N9999999N1+00761+00181999999ADDAA199000091GF108991081091008001999999KA1999M+00951MD1410001+9999REMSYN070AAXX  01151 28952 325// 80000 10076 20018 40080 54000 889// 333 10095;EQDQ01+100803APOSLPQ02  00002PRCP99
0165289520999992000100118004+53210+063610FM-12+015699999V0209999C000010075019N9999999N1+00691+00361101941ADDAA199000091GF108991081091008001999999KA1999M+00951MD1310111+9999REMSYN070AAXX  01181 28952 325// 80000 10069 20036 40194 53011 889// 333 10095;EQDQ01  00002PRCP99
0112289520999992000100121004+53210+063610FM-12+015699999V0202301N004010075019N9999999N1+00611+00371102111ADDGF108991081091008001999999MD1210161+9999REMSYN060AAXX  01211 28952 425// 82304 10061 20037 40211 52016 889//;
0143289520999992000100200004+53210+063610FM-12+015699999V0209999C000010075019N9999999N1+00501+00151102191ADDGF107991071091008001001001MA1999999100261MD1210071+9999REMSYN076AAXX  02001 28952 425// 70000 10050 20015 30026 40219 52007 87900 555 1/005;
0200289520999992000100203004+53210+063610FM-12+015699999V0200901N003010075019N0200001N1+00411+00151102361ADDAA199000091GF107991071051008001999999GJ100129IA1099IA2999+00409MD1210151+9999REMSYN092AAXX  02031 28952 32598 70903 10041 20015 40236 52015 875// 333 55002 555 20041 31004 7000/;EQDQ01  00002PRCP99
0165289520999992000100206004+53210+063610FM-12+015699999V0200901N004019999999N0200001N1+00691-00041102311ADDAA199000091GF107991071001999999051001KA1999N+00411MD1210081+9999REMSYN070AAXX  02061 28952 32998 70904 10069 21004 40231 52008 87050 333 20041;EQDQ01  00002PRCP99
0112289520999992000100209004+53210+063610FM-12+015699999V0200901N004012200019N0200001N1+00931-00301102321ADDGF107991031021008001001011MD1210031+9999REMSYN060AAXX  02091 28952 42598 70904 10093 21030 40232 52003 83201;
0143289520999992000100212004+53210+063610FM-12+015699999V0200501N005019999999N0200001N1+00811-00361102311ADDGF107991001001999999001091MA1999999100391MD1810031+9999REMSYN076AAXX  02121 28952 42998 70505 10081 21036 30039 40231 58003 80009 555 1/012;
0165289520999992000100215004+53210+063610FM-12+015699999V0200501N003019999999N9999999N1+00321-00191102421ADDAA199000091GF105991001001999999001091KA1999M+00991MD1310081+9999REMSYN070AAXX  02151 28952 329// 50503 10032 21019 40242 53008 80009 333 10099;EQDQ01  00002PRCP99
0165289520999992000100218004+53210+063610FM-12+015699999V0200701N005012200019N9999999N1+00221-00241102481ADDAA199000091GF102991021001999999031011KA1999M+00991MD1210051+9999REMSYN070AAXX  02181 28952 329// 20705 10022 21024 40248 52005 82031 333 10099;EQDQ01  00002PRCP99
0122289520999992000100221004+53210+063610FM-12+015699999V0200701N003012200019N9999999N1+00061-00341102531ADDGA1001+999999999GF100991001001999999001001MD1210051+9999REMSYN054AAXX  02211 28952 429// 00703 10006 21034 40253 52005;
0143289520999992000100300004+53210+063610FM-12+015699999V0200501N003010075019N9999999N1-00021-00231102611ADDGF106991061051008001001001MA1999999100641MD1210071+9999REMSYN076AAXX  03001 28952 425// 60503 11002 21023 30064 40261 52007 86500 555 1/101;
0178289520999992000100303004+53210+063610FM-12+015699999V0200501N003010075019N0100001N1+00151-00131102701ADDAY181031AY221031GF107991071091008001001001MD1210091+9999MW1871REMSYN104AAXX  03031 28952 /1597 70503 10015 21013 40270 52009 78782 87900 333 55052 555 21003 31001 69902 7990/;
0180289520999992000100306004+53210+063610FM-12+015699999V0200501N004010075019N0040001N1+00151+00011102811ADDAA100000791AY181061AY221061GF108991081091008001999999KA1999N-00031MD1210101+9999MW1851REMSYN082AAXX  03061 28952 11596 80504 10015 20001 40281 52010 69900 78582 889// 333 21003;
0140289520999992000100309004+53210+063610FM-12+015699999V0200501N005010075019N0200001N1+00351-00321102841ADDAY181031AY221031GF107991071051008001999999MD1210041+9999MW1021REMSYN066AAXX  03091 28952 41598 70505 10035 21032 40284 52004 70282 875//;
0171289520999992000100312004+53210+063610FM-12+015699999V0200201N003010075019N0200001N1+00421-00481102881ADDAY181061AY221061GF107991071051008001001001MA1999999100921MD1210041+9999MW1021REMSYN082AAXX  03121 28952 41598 70203 10042 21048 30092 40288 52004 70282 87500 555 1/005;
0145289520999992000100315004+53210+063610FM-12+015699999V0200201N001010075019N9999999N1+00291-00361102951ADDGF105991051051008001001001KA1120M+00421MD1210071+9999REMSYN080AAXX  03151 28952 /25// 50201 10029 21036 40295 52007 85500 333 10042 555 69902;
0162289520999992000100318004+53210+063610FM-12+015699999V0209999C000012200019N9999999N1+00011-00361103001ADDAA100000791GA1001+999999999GF100991001001999999001001KA1999M+00421MD1210031+9999REMSYN070AAXX  03181 28952 129// 00000 10001 21036 40300 52003 69900 333 10042;
0122289520999992000100321004+53210+063610FM-12+015699999V0209999C000012200019N9999999N1-00131-00421103001ADDGA1001+999999999GF100991001001999999001001MD1410001+9999REMSYN054AAXX  03211 28952 429// 00000 11013 21042 40300 54000;
0143289520999992000100400004+53210+063610FM-12+015699999V0203601N001010075019N9999999N1-00251-00451102971ADDGF106991061051008001001001MA1999999100971MD1810051+9999REMSYN076AAXX  04001 28952 425// 63601 11025 21045 30097 40297 58005 86500 555 1/003;
0200289520999992000100403004+53210+063610FM-12+015699999V0200201N002010075019N0200001N1-00061-00481102861ADDAA199000091GF107991071051008001001001GJ100009IA1099IA2999+00409MD1710091+9999REMSYN092AAXX  04031 28952 32598 70202 11006 21048 40286 57009 87500 333 55000 555 21026 31004 7990/;EQDQ01  00002PRCP99
0165289520999992000100406004+53210+063610FM-12+015699999V0200901N001010075019N0200001N1+00181-00531102741ADDAA199000091GF107991071051008001001001KA1999N-00261MD1710111+9999REMSYN070AAXX  04061 28952 32598 70901 10018 21053 40274 57011 87500 333 21026;EQDQ01  00002PRCP99
0112289520999992000100409004+53210+063610FM-12+015699999V0209999C000010075019N0200001N1+00411-00541102541ADDGF107991071051008001001001MD1710181+9999REMSYN060AAXX  04091 28952 42598 70000 10041 21054 40254 57018 87500;
0143289520999992000100412004+53210+063610FM-12+015699999V0209999C000010075019N0200001N1+00491-00421102331ADDGF107991071051008001001001MA1999999100401MD1710191+9999REMSYN076AAXX  04121 28952 42598 70000 10049 21042 30040 40233 57019 87500 555 1/010;
0173289520999992000100415004+53210+063610FM-12+015699999V0201401N001010075019N9999999N1+00121-00051102281ADDAY171031AY221031GF107991071051008001999999KA1120M+00551MD1710081+9999MW1711REMSYN086AAXX  04151 28952 /15// 71401 10012 21005 40228 57008 77172 875// 333 10055 555 69902;
0180289520999992000100418004+53210+063610FM-12+015699999V0201401N002010075019N9999999N1-00041-00041102261ADDAA100000791AY171061AY221061GF108991081061008001999999KA1999M+00551MD1710031+9999MW1711REMSYN082AAXX  04181 28952 115// 81402 11004 21004 40226 57003 69900 77172 886// 333 10055;
0140289520999992000100421004+53210+063610FM-12+015699999V0201401N003010075019N9999999N1-00081-00151102321ADDAY171031AY271031GF108991081061008001999999MD1310061+9999MW1711REMSYN066AAXX  04211 28952 415// 81403 11008 21015 40232 53006 77177 886//;
0171289520999992000100500004+53210+063610FM-12+015699999V0209999C000010075019N9999999N1-00101-00121102431ADDAY171061AY221061GF108991081001008001021999MA1999999100461MD1210111+9999MW1021REMSYN082AAXX  05001 28952 415// 80000 11010 21012 30046 40243 52011 70272 8802/ 555 1/102;
0150289520999992000100503004+53210+063610FM-12+015699999V0203601N003019999999N0200001N1-00201-00231102561ADDGF105991051001999999071001MD1210111+9999REMSYN098AAXX  05031 28952 /2998 53603 11020 21023 40256 52011 85070 333 55022 555 21020 47003 60072 7007/;
0180289520999992000100506004+53210+063610FM-12+015699999V0200201N002019999999N0200001N1+00001-00061102751ADDAA100007191AY171061AY221061GF108991081001999999021999KA1999N-00201MD1210201+9999MW1021REMSYN082AAXX  05061 28952 11998 80202 11000 21006 40275 52020 60070 70272 8802/ 333 21020;
0112289520999992000100509004+53210+063610FM-12+015699999V0200201N003010075019N0200001N1+00271-00251102861ADDGF107991071051008001001001MD1210131+9999REMSYN060AAXX  05091 28952 42598 70203 10027 21025 40286 52013 87500;
0143289520999992000100512004+53210+063610FM-12+015699999V0200201N003010075019N0200001N1+00291-00511103031ADDGF107991071051008001001001MA1999999101071MD1210171+9999REMSYN076AAXX  05121 28952 42598 70203 10029 21051 30107 40303 52017 87500 555 1/003;
0145289520999992000100515004+53210+063610FM-12+015699999V0200501N003010075019N9999999N1+00131-00541103241ADDGF107991071051008001999999KA1120M+00321MD1210191+9999REMSYN080AAXX  05151 28952 /25// 70503 10013 21054 40324 52019 875// 333 10032 555 69902;
0152289520999992000100518004+53210+063610FM-12+015699999V0200501N003010075019N9999999N1+00041-00541999999ADDAA100000791GF107991071051008001999999KA1999M+00321MD1210111+9999REMSYN076AAXX  05181 28952 125// 70503 10004 21054 43136 52011 69900 875// 333 10032;
0112289520999992000100521004+53210+063610FM-12+015699999V0200501N003019999999N9999999N1-00041-00571103441ADDGF108991081001999999021999MD1210081+9999REMSYN060AAXX  05211 28952 429// 80503 11004 21057 40344 52008 8802/;
0143289520999992000100600004+53210+063610FM-12+015699999V0203601N002019999999N9999999N1-00101-00571103481ADDGF108991081001999999021999MA1999999101491MD1210041+9999REMSYN076AAXX  06001 28952 429// 83602 11010 21057 30149 40348 52004 8802/ 555 1/102;
0221289520999992000100603004+53210+063610FM-12+015699999V0200201N002019999999N0200001N1-00111-00611103701ADDAA199000091AJ199992999999999GF107991071001999999071001GJ100069IA1259MD1210151+9999REMSYN092AAXX  06031 28952 32998 70202 11011 21061 40370 52015 87070 333 41998 55001 555 21012 7990/;EQDQ01  00002PRCP99Q02  09972SNDP  
0165289520999992000100606004+53210+063610FM-12+015699999V0203601N002010075019N0200001N1+00001-00771103731ADDAA199000091GF107991071051008001999999KA1999N-00121MD1210101+9999REMSYN070AAXX  06061 28952 32598 73602 10000 21077 40373 52010 875// 333 21012;EQDQ01  00002PRCP99
0112289520999992000100609004+53210+063610FM-12+015699999V0200201N004010075019N0200001N1+00081-00871103721ADDGF107991071051008001999999MD1410001+9999REMSYN060AAXX  06091 28952 42598 70204 10008 21087 40372 54000 875//;
0143289520999992000100612004+53210+063610FM-12+015699999V0203201N004010075019N0200001N1+00021-00871103791ADDGF107991071051008001999999MA1999999101791MD1310051+9999REMSYN076AAXX  06121 28952 42598 73204 10002 21087 30179 40379 53005 875// 555 1/001;
0165289520999992000100615004+53210+063610FM-12+015699999V0209999C000010075019N9999999N1-00061-00761103811ADDAA199000091GF107991071051008001999999KA1999M+00081MD1210021+9999REMSYN070AAXX  06151 28952 325// 70000 11006 21076 40381 52002 875// 333 10008;EQDQ01  00002PRCP99
0165289520999992000100618004+53210+063610FM-12+015699999V0203201N002010075019N9999999N1-00061-00671103821ADDAA199000091GF107991071051008001999999KA1999M+00081MD1210011+9999REMSYN070AAXX  06181 28952 325// 73202 11006 21067 40382 52001 875// 333 10008;EQDQ01  00002PRCP99
0112289520999992000100621004+53210+063610FM-12+015699999V0202701N003010075019N9999999N1-00081-00701103711ADDGF107991071051008001999999MD1810101+9999REMSYN060AAXX  06211 28952 425// 72703 11008 21070 40371 58010 875//;
0143289520999992000100700004+53210+063610FM-12+015699999V0202701N004010075019N9999999N1-00031-00591103621ADDGF107991071051008001999999MA1999999101631MD1710091+9999REMSYN076AAXX  07001 28952 425// 72704 11003 21059 30163 40362 57009 875// 555 1/102;
0221289520999992000100703004+53210+063610FM-12+015699999V0202701N003010075019N0200001N1-00021-00431103581ADDAA199000091AJ199992999999999GF107991071051008001999999GJ100009IA1259MD1710041+9999REMSYN092AAXX  07031 28952 32598 72703 11002 21043 40358 57004 875// 333 41998 55000 555 21008 7000/;EQDQ01  00002PRCP99Q02  09972SNDP  
0165289520999992000100706004+53210+063610FM-12+015699999V0203201N004010075019N0200001N1+00141-00241103581ADDAA199000091GF108991081091008001999999KA1999N-00081MD1310011+9999REMSYN070AAXX  07061 28952 32598 83204 10014 21024 40358 53001 889// 333 21008;EQDQ01  00002PRCP99
0112289520999992000100709004+53210+063610FM-12+015699999V0203201N004010300019N0200001N1+00471-00101103541ADDGF107991021021012501031001MD1810011+9999REMSYN060AAXX  07091 28952 42698 73204 10047 21010 40354 58001 82230;
0143289520999992000100712004+53210+063610FM-12+015699999V0203601N002010075019N0200001N1+00671-00061103541ADDGF107991071091008001001001MA1999999101601MD1310011+9999REMSYN076AAXX  07121 28952 42598 73602 10067 21006 30160 40354 53001 87900 555 1/008;
0165289520999992000100715004+53210+063610FM-12+015699999V0203601N002010075019N9999999N1+00451+00001103651ADDAA199000091GF107991071091008001001001KA1999M+00701MD1210101+9999REMSYN070AAXX  07151 28952 325// 73602 10045 20000 40365 52010 87900 333 10070;EQDQ01  00002PRCP99
0122289520999992000100721004+53210+063610FM-12+015699999V0209999C000012200019N9999999N1-00151-00241103851ADDGA1001+999999999GF100991001001999999001001MD1210041+9999REMSYN054AAXX  07211 28952 429// 00000 11015 21024 40385 52004;
0143289520999992000100800004+53210+063610FM-12+015699999V0209999C000012200019N9999999N1-00331-00401103871ADDGF101991011001999999031001MA1999999101851MD1410001+9999REMSYN076AAXX  08001 28952 429// 10000 11033 21040 30185 40387 54000 81030 555 1/104;
0200289520999992000100803004+53210+063610FM-12+015699999V0209999C000019999999N0200001N1-00121-00211103881ADDAA199000091GF105991051001999999031001GJ100969IA1119IA2999-00509MD1310031+9999REMSYN092AAXX  08031 28952 32998 50000 11012 21021 40388 53003 85030 333 55016 555 21032 32105 7000/;EQDQ01  00002PRCP99
0175289520999992000100806004+53210+063610FM-12+015699999V0209999C000012200019N0200001N1+00301-00151103891ADDAA199000091GA1001+999999999GF100991001001999999001001KA1999N-00321MD1210041+9999REMSYN064AAXX  08061 28952 32998 00000 10030 21015 40389 52004 333 21032;EQDQ01  00002PRCP99
0112289520999992000100809004+53210+063610FM-12+015699999V0202501N004010120019N0200001N1+00801-00051103701ADDGF106991061021012501001001MD1810171+9999REMSYN060AAXX  08091 28952 42698 62504 10080 21005 40370 58017 86200;
0153289520999992000100812004+53210+063610FM-12+015699999V0202501N003012200019N0200001N1+00911-00221103531ADDGA1001+999999999GF100991001001999999001001MA1999999101611MD1710141+9999REMSYN070AAXX  08121 28952 42998 02503 10091 21022 30161 40353 57014 555 1/011;
0175289520999992000100815004+53210+063610FM-12+015699999V0202301N002012200019N9999999N1+00281-00081103461ADDAA199000091GA1001+999999999GF100991001001999999001001KA1999M+00901MD1710111+9999REMSYN064AAXX  08151 28952 329// 02302 10028 21008 40346 57011 333 10090;EQDQ01  00002PRCP99
0181289520999992000100818004+53210+063610FM-12+015699999V0209999C000010075019N9999999N1+00301-00081999999ADDAA199000091GF106991061091008001001001KA1999M+00901MD1710101+9999REMSYN070AAXX  08181 28952 325// 60000 10030 21008 40236 57010 86900 333 10090;EQDQ01+102363APOSLPQ02  00002PRCP99
0112289520999992000100821004+53210+063610FM-12+015699999V0202301N002010075019N9999999N1+00121-00111103251ADDGF106991061091008001001001MD1710131+9999REMSYN060AAXX  08211 28952 425// 62302 10012 21011 40325 57013 86900;
0143289520999992000100900004+53210+063610FM-12+015699999V0202301N003010075019N9999999N1+00121-00111103141ADDGF108991081091008001999999MA1999999101171MD1710101+9999REMSYN076AAXX  09001 28952 425// 82303 10012 21011 30117 40314 57010 889// 555 1/001;
0200289520999992000100903004+53210+063610FM-12+015699999V0201801N003010075019N0200001N1+00181-00041103021ADDAA199000091GF108991081091008001999999GJ105109IA1019IA2999+00109MD1710121+9999REMSYN092AAXX  09031 28952 32598 81803 10018 21004 40302 57012 889// 333 55085 555 20012 30001 7000/;EQDQ01  00002PRCP99
0165289520999992000100906004+53210+063610FM-12+015699999V0202001N002010075019N0200001N1+00411+00011103001ADDAA199000091GF108991081091008001999999KA1999N+00121MD1710011+9999REMSYN070AAXX  09061 28952 32598 82002 10041 20001 40300 57001 889// 333 20012;EQDQ01  00002PRCP99
0112289520999992000100909004+53210+063610FM-12+015699999V0201801N002010075019N0200001N1+00951-00091102841ADDGF107991071091008001001001MD1710111+9999REMSYN060AAXX  09091 28952 42598 71802 10095 21009 40284 57011 87900;
0143289520999992000100912004+53210+063610FM-12+015699999V0209999C000010075019N0200001N1+01031+00151102791ADDGF107991071051008001001001MA1999999100891MD1710041+9999REMSYN076AAXX  09121 28952 42598 70000 10103 20015 30089 40279 57004 87500 555 1/012;
0165289520999992000100915004+53210+063610FM-12+015699999V0209999C000010075019N9999999N1+00671+00391102801ADDAA199000091GF108991081091008001999999KA1999M+01121MD1710021+9999REMSYN070AAXX  09151 28952 325// 80000 10067 20039 40280 57002 889// 333 10112;EQDQ01  00002PRCP99
0165289520999992000100918004+53210+063610FM-12+015699999V0209999C000019999999N9999999N1+00611+00421102801ADDAA199000091GF108991081091999999999999KA1999M+01121MD1710011+9999REMSYN070AAXX  09181 28952 329// 80000 10061 20042 40280 57001 889// 333 10112;EQDQ01  00002PRCP99
0112289520999992000100921004+53210+063610FM-12+015699999V0209999C000010075019N9999999N1+00571+00451102801ADDGF108991081091008001999999MD1410001+9999REMSYN060AAXX  09211 28952 425// 80000 10057 20045 40280 54000 889//;
0143289520999992000101000004+53210+063610FM-12+015699999V0209999C000010075019N9999999N1+00531+00461102811ADDGF108991081091008001999999MA1999999100871MD1310011+9999REMSYN076AAXX  10001 28952 425// 80000 10053 20046 30087 40281 53001 889// 555 1/005;
0200289520999992000101003004+53210+063610FM-12+015699999V0209999C000010075019N0200001N1+00491+00351102801ADDAA199000091GF108991081091008001999999GJ100789IA1019IA2999+00509MD1810011+9999REMSYN092AAXX  10031 28952 32598 80000 10049 20035 40280 58001 889// 333 55013 555 20048 30005 7000/;EQDQ01  00002PRCP99
0165289520999992000101006004+53210+063610FM-12+015699999V0209999C000010075019N0200001N1+00651+00091102871ADDAA199000091GF108991081091008001999999KA1999N+00491MD1310081+9999REMSYN070AAXX  10061 28952 32598 80000 10065 20009 40287 53008 889// 333 20049;EQDQ01  00002PRCP99
0112289520999992000101009004+53210+063610FM-12+015699999V0200701N003010075019N0200001N1+00891+00021102871ADDGF107991071051008001999999MD1210021+9999REMSYN060AAXX  10091 28952 42598 70703 10089 20002 40287 52002 875//;
0143289520999992000101012004+53210+063610FM-12+015699999V0200901N002010075019N0200001N1+00801+00171102891ADDGF107991071051008001999999MA1999999100961MD1410001+9999REMSYN076AAXX  10121 28952 42598 70902 10080 20017 30096 40289 54000 875// 555 1/010;
0165289520999992000101015004+53210+063610FM-12+015699999V0209999C000010075019N9999999N1+00601+00211102951ADDAA199000091GF107991071051008001999999KA1999M+00901MD1310051+9999REMSYN070AAXX  10151 28952 325// 70000 10060 20021 40295 53005 875// 333 10090;EQDQ01  00002PRCP99
0165289520999992000101018004+53210+063610FM-12+015699999V0209999C000010075019N9999999N1+00571+00171102951ADDAA199000091GF107991071051008001999999KA1999M+00901MD1410001+9999REMSYN070AAXX  10181 28952 325// 70000 10057 20017 40295 54000 875// 333 10090;EQDQ01  00002PRCP99
0112289520999992000101021004+53210+063610FM-12+015699999V0209999C000010075019N9999999N1+00561+00241102951ADDGF107991071051008001999999MD1410001+9999REMSYN060AAXX  10211 28952 425// 70000 10056 20024 40295 54000 875//;
0143289520999992000101100004+53210+063610FM-12+015699999V0209999C000010075019N9999999N1+00451+00091102951ADDGF107991071051008001999999MA1999999101011MD1410001+9999REMSYN076AAXX  11001 28952 425// 70000 10045 20009 30101 40295 54000 875// 555 1/004;
0176289520999992000101103004+53210+063610FM-12+015699999V0209999C000010075019N0200001N1+00361-00021102961ADDAA199000091GF107991071051008001999999GJ100009MD1810011+9999REMSYN086AAXX  11031 28952 32598 70000 10036 21002 40296 58001 875// 333 55000 555 20036 7000/;EQDQ01  00002PRCP99
0165289520999992000101106004+53210+063610FM-12+015699999V0200701N002010075019N0200001N1+00721-00301103001ADDAA199000091GF107991071051008001001001KA1999N+00361MD1310071+9999REMSYN070AAXX  11061 28952 32598 70702 10072 21030 40300 53007 87500 333 20036;EQDQ01  00002PRCP99
0112289520999992000101109004+53210+063610FM-12+015699999V0200501N002010075019N0200001N1+00971-00221102891ADDGF107991071091008001001001MD1810091+9999REMSYN060AAXX  11091 28952 42598 70502 10097 21022 40289 58009 87900;
0143289520999992000101112004+53210+063610FM-12+015699999V0200201N005010075019N0200001N1+00921-00251102871ADDGF107991071091008001001001MA1999999100961MD1710021+9999REMSYN076AAXX  11121 28952 42598 70205 10092 21025 30096 40287 57002 87900 555 1/009;
0165289520999992000101115004+53210+063610FM-12+015699999V0200501N002019999999N9999999N1+00551-00401102911ADDAA199000091GF107991001001999999001021KA1999M+00991MD1310011+9999REMSYN070AAXX  11151 28952 329// 70502 10055 21040 40291 53001 80002 333 10099;EQDQ01  00002PRCP99
0165289520999992000101118004+53210+063610FM-12+015699999V0200201N004019999999N9999999N1+00281-00411102931ADDAA199000091GF107991001001999999001091KA1999M+00991MD1410001+9999REMSYN070AAXX  11181 28952 329// 70204 10028 21041 40293 54000 80009 333 10099;EQDQ01  00002PRCP99
0112289520999992000101121004+53210+063610FM-12+015699999V0203601N002019999999N9999999N1+00061-00401102901ADDGF107991001001999999001091MD1810041+9999REMSYN060AAXX  11211 28952 429// 73602 10006 21040 40290 58004 80009;
0143289520999992000101200004+53210+063610FM-12+015699999V0203601N001019999999N9999999N1-00241-00401102921ADDGF107991001001999999001021MA1999999100921MD1710011+9999REMSYN076AAXX  12001 28952 429// 73601 11024 21040 30092 40292 57001 80002 555 1/103;
0176289520999992000101203004+53210+063610FM-12+015699999V0203601N002019999999N0200001N1-00341-00451102941ADDAA199000091GF107991001001999999001021GJ101149MD1310011+9999REMSYN086AAXX  12031 28952 32998 73602 11034 21045 40294 53001 80002 333 55019 555 21034 7000/;EQDQ01  00002PRCP99
0165289520999992000101206004+53210+063610FM-12+015699999V0203601N005019999999N0200001N1+00121-00171102821ADDAA199000091GF108991001001999999001021KA1999N-00341MD1810081+9999REMSYN070AAXX  12061 28952 32998 83605 10012 21017 40282 58008 80002 333 21034;EQDQ01  00002PRCP99
0112289520999992000101209004+53210+063610FM-12+015699999V0203601N003010075019N0200001N1+00551-00401102631ADDGF107991071051008001001001MD1710151+9999REMSYN060AAXX  12091 28952 42598 73603 10055 21040 40263 57015 87500;
0143289520999992000101212004+53210+063610FM-12+015699999V0203401N003010075019N0200001N1+00611-00431102581ADDGF107991071051008001001001MA1999999100651MD1710051+9999REMSYN076AAXX  12121 28952 42598 73403 10061 21043 30065 40258 57005 87500 555 1/007;
0165289520999992000101215004+53210+063610FM-12+015699999V0203401N001010075019N9999999N1+00391-00171102581ADDAA199000091GF107991071051008001001001KA1999M+00651MD1710021+9999REMSYN070AAXX  12151 28952 325// 73401 10039 21017 40258 57002 87500 333 10065;EQDQ01  00002PRCP99
0165289520999992000101218004+53210+063610FM-12+015699999V0203601N003019999999N9999999N1+00241-00291102581ADDAA199000091GF108991001001999999001021KA1999M+00651MD1710011+9999REMSYN070AAXX  12181 28952 329// 83603 10024 21029 40258 57001 80002 333 10065;EQDQ01  00002PRCP99
0140289520999992000101221004+53210+063610FM-12+015699999V0203601N004010075019N9999999N1+00221+00121102531ADDAY181031AY221031GF108991081091008001999999MD1710051+9999MW1801REMSYN066AAXX  12211 28952 415// 83604 10022 20012 40253 57005 78082 889//;
0171289520999992000101300004+53210+063610FM-12+015699999V0203601N003010075019N9999999N1+00191+00061102481ADDAY181061AY221061GF108991081091008001999999MA1999999100521MD1710051+9999MW1021REMSYN082AAXX  13001 28952 415// 83603 10019 20006 30052 40248 57005 70282 889// 555 1/001;
0144289520999992000101303004+53210+063610FM-12+015699999V0203401N001010075019N0200001N1+00191+00001102451ADDGF108991081091008001999999MD1710031+9999REMSYN092AAXX  13031 28952 /2598 83401 10019 21000 40245 57003 889// 333 55062 555 20019 69952 7995/;
0180289520999992000101306004+53210+063610FM-12+015699999V0203601N002010075019N0100001N1+00181+00071102451ADDAA100000591AY181061AY221061GF108991081091008001999999KA1999N+00191MD1410001+9999MW1801REMSYN082AAXX  13061 28952 11597 83602 10018 20007 40245 54000 69950 78082 889// 333 20019;
0140289520999992000101309004+53210+063610FM-12+015699999V0203601N004010075019N0100001N1+00221+00091102281ADDAY181031AY281031GF108991081091008001999999MD1810171+9999MW1801REMSYN066AAXX  13091 28952 41597 83604 10022 20009 40228 58017 78088 889//;
0171289520999992000101312004+53210+063610FM-12+015699999V0203601N005010075019N0040001N1+00121+00011102271ADDAY181061AY281061GF108991081091008001999999MA1999999100311MD1710011+9999MW1851REMSYN082AAXX  13121 28952 41596 83605 10012 20001 30031 40227 57001 78588 889// 555 1/003;
0173289520999992000101315004+53210+063610FM-12+015699999V0203601N003010075019N9999999N1+00061-00051102261ADDAY181031AY281031GF108991081091008001999999KA1120M+00251MD1710011+9999MW1851REMSYN086AAXX  13151 28952 /15// 83603 10006 21005 40226 57001 78588 889// 333 10025 555 60022;
0180289520999992000101318004+53210+063610FM-12+015699999V0203601N004010075019N9999999N1+00081-00091102191ADDAA100002091AY181061AY281061GF108991081091008001999999KA1999M+00251MD1710061+9999MW1851REMSYN082AAXX  13181 28952 115// 83604 10008 21009 40219 57006 60020 78588 889// 333 10025;
0140289520999992000101321004+53210+063610FM-12+015699999V0203601N003010075019N9999999N1+00061-00081102161ADDAY181031AY221031GF108991081091008001999999MD1710031+9999MW1021REMSYN066AAXX  13211 28952 415// 83603 10006 21008 40216 57003 70282 889//;
0171289520999992000101400004+53210+063610FM-12+015699999V0203601N004010075019N9999999N1+00071-00041102181ADDAY181061AY221061GF108991081091008001999999MA1999999100231MD1310021+9999MW1021REMSYN082AAXX  14001 28952 415// 83604 10007 21004 30023 40218 53002 70282 889// 555 1/001;
0220289520999992000101403004+53210+063610FM-12+015699999V0203401N003010075019N0040001N1-00041-00191102181ADDAA112002091AJ100089199999999AY181031AY221031GF108991081091008001999999GJ100009IA1239MD1810011+9999MW1851REMSYN104AAXX  14031 28952 /1596 83403 11004 21019 40218 58001 78582 889// 333 47008 55000 555 21005 60022 7004/;
0180289520999992000101406004+53210+063610FM-12+015699999V0203601N005010075019N0100001N1-00031-00211102221ADDAA100002091AY181061AY221061GF108991081091008001999999KA1999N-00051MD1310031+9999MW1851REMSYN082AAXX  14061 28952 11597 83605 11003 21021 40222 53003 60020 78582 889// 333 21005;
0118289520999992000101409004+53210+063610FM-12+015699999V0203401N005019999999N0200001N1+00021-00151102221ADDGF108991999999008001999999MD1410001+9999MW1891REMSYN060AAXX  14091 28952 41598 83405 10002 21015 40222 54000 789//;
0171289520999992000101412004+53210+063610FM-12+015699999V0203401N004010075019N0200001N1+00211-00011102241ADDAY181061AY221061GF108991081091008001999999MA1999999100281MD1310031+9999MW1021REMSYN082AAXX  14121 28952 41598 83404 10021 21001 30028 40224 53003 70282 889// 555 1/004;
0173289520999992000101415004+53210+063610FM-12+015699999V0203401N004010075019N9999999N1+00071-00011102241ADDAY181031AY221031GF108991081091008001999999KA1120M+00211MD1410001+9999MW1851REMSYN086AAXX  14151 28952 /15// 83404 10007 21001 40224 54000 78582 889// 333 10021 555 60012;
0180289520999992000101418004+53210+063610FM-12+015699999V0203401N003010075019N9999999N1-00021-00081102271ADDAA100001091AY181061AY221061GF108991081091008001999999KA1999M+00211MD1310021+9999MW1851REMSYN082AAXX  14181 28952 115// 83403 11002 21008 40227 53002 60010 78582 889// 333 10021;
0140289520999992000101421004+53210+063610FM-12+015699999V0203201N002010075019N9999999N1-00041-00101102271ADDAY181031AY281031GF108991081091008001999999MD1410001+9999MW1851REMSYN066AAXX  14211 28952 415// 83202 11004 21010 40227 54000 78588 889//;
0171289520999992000101500004+53210+063610FM-12+015699999V0203401N002010075019N9999999N1-00041-00101102241ADDAY181061AY221061GF108991081091008001999999MA1999999100271MD1810031+9999MW1261REMSYN082AAXX  15001 28952 415// 83402 11004 21010 30027 40224 58003 72682 889// 555 1/000;
0220289520999992000101503004+53210+063610FM-12+015699999V0203401N004010075019N0100001N1-00021-00081102251ADDAA112000991AJ100109199999999AY181031AY221031GF108991081091008001999999GJ100009IA1239MD1310011+9999MW1851REMSYN104AAXX  15031 28952 /1597 83404 11002 21008 40225 53001 78582 889// 333 47010 55000 555 21004 69992 7002/;
0180289520999992000101506004+53210+063610FM-12+015699999V0203601N004010075019N0040001N1+00061-00051102241ADDAA100001091AY181061AY221061GF108991081091008001999999KA1999N-00041MD1410001+9999MW1851REMSYN082AAXX  15061 28952 11596 83604 10006 21005 40224 54000 69990 78582 889// 333 21004;
0140289520999992000101509004+53210+063610FM-12+015699999V0203401N005010075019N0040001N1+00161-00061102241ADDAY181031AY281031GF108991081091008001999999MD1410001+9999MW1851REMSYN066AAXX  15091 28952 41596 83405 10016 21006 40224 54000 78588 889//;
0148289520999992000101512004+53210+063610FM-12+015699999V0203401N004019999999N0100001N1+00041-00071102291ADDGF108991999999008001999999MA1999999100321MD1310041+9999REMSYN081AAXX  15121 28952 41597 83404 10004 21007 30032 40229 53004 8588 889// 555 1/002;
0173289520999992000101515004+53210+063610FM-12+015699999V0203401N004010075019N9999999N1+00001-00121102391ADDAY181031AY281031GF108991081091008001999999KA1120M+00161MD1210101+9999MW1851REMSYN086AAXX  15151 28952 /15// 83404 10000 21012 40239 52010 78588 889// 333 10016 555 60012;
0180289520999992000101518004+53210+063610FM-12+015699999V0203401N003010075019N9999999N1-00081-00171102421ADDAA100001091AY181061AY281061GF108991081091008001999999KA1999M+00161MD1210031+9999MW1851REMSYN082AAXX  15181 28952 115// 83403 11008 21017 40242 52003 60010 78588 889// 333 10016;
0140289520999992000101521004+53210+063610FM-12+015699999V0203401N002010075019N9999999N1-00131-00191102441ADDAY181031AY281031GF108991081091008001999999MD1210021+9999MW1851REMSYN066AAXX  15211 28952 415// 83402 11013 21019 40244 52002 78588 889//;
0171289520999992000101600004+53210+063610FM-12+015699999V0203201N002010075019N9999999N1-00161-00221102481ADDAY181061AY281061GF108991081091008001999999MA1999999100491MD1210021+9999MW1851REMSYN082AAXX  16001 28952 415// 83202 11016 21022 30049 40248 52002 78588 889// 555 1/103;
0220289520999992000101603004+53210+063610FM-12+015699999V0203201N002010075019N0200001N1-00141-00231102561ADDAA112000991AJ100089199999999AY181031AY221031GF108991081091008001999999GJ100009IA1239MD1210101+9999MW1021REMSYN104AAXX  16031 28952 /1598 83202 11014 21023 40256 52010 70282 889// 333 47008 55000 555 21016 69992 7002/;
0152289520999992000101606004+53210+063610FM-12+015699999V0203201N001010075019N0200001N1-00101-00281102691ADDAA115001091GF108991081091008001999999KA1999N-00161MD1210131+9999REMSYN076AAXX  16061 28952 12598 83201 11010 21028 40269 52013 69999 889// 333 21016;
0112289520999992000101609004+53210+063610FM-12+015699999V0203201N003010075019N0200001N1-00061-00301102751ADDGF108991081091008001999999MD1210041+9999REMSYN060AAXX  16091 28952 42598 83203 11006 21030 40275 52004 889//;
0143289520999992000101612004+53210+063610FM-12+015699999V0202701N003010075019N0200001N1+00001-00231102711ADDGF108991081091008001999999MA1999999100741MD1810021+9999REMSYN076AAXX  16121 28952 42598 82703 10000 21023 30074 40271 58002 889// 555 1/001;
0165289520999992000101615004+53210+063610FM-12+015699999V0202301N001010075019N9999999N1+00001-00111102661ADDAA199000091GF108991081091008001999999KA1999M+00001MD1310041+9999REMSYN070AAXX  16151 28952 325// 82301 10000 21011 40266 53004 889// 333 10000;EQDQ01  00002PRCP99
0165289520999992000101618004+53210+063610FM-12+015699999V0202301N003010075019N9999999N1+00021-00091102691ADDAA199000091GF108991081091008001999999KA1999M+00001MD1810061+9999REMSYN070AAXX  16181 28952 325// 82303 10002 21009 40269 58006 889// 333 10000;EQDQ01  00002PRCP99
0112289520999992000101621004+53210+063610FM-12+015699999V0202301N003010075019N9999999N1+00041-00191102751ADDGF108991081091008001999999MD1310051+9999REMSYN060AAXX  16211 28952 425// 82303 10004 21019 40275 53005 889//;
0143289520999992000101700004+53210+063610FM-12+015699999V0202701N002010075019N9999999N1+00201-00021102751ADDGF108991081091008001999999MA1999999100801MD1210031+9999REMSYN076AAXX  17001 28952 425// 82702 10020 21002 30080 40275 52003 889// 555 1/001;
0176289520999992000101703004+53210+063610FM-12+015699999V0202901N001012200019N0200001N1+00181-00101102871ADDAA199000091GF103991031091008001001001GJ100009MD1210101+9999REMSYN086AAXX  17031 28952 32598 32901 10018 21010 40287 52010 83900 333 55000 555 20000 7000/;EQDQ01  00002PRCP99
0165289520999992000101706004+53210+063610FM-12+015699999V0202901N005012200019N0200001N1+00361-00381102971ADDAA199000091GF101991011001999999031001KA1999N+00001MD1210111+9999REMSYN070AAXX  17061 28952 32998 12905 10036 21038 40297 52011 81030 333 20000;EQDQ01  00002PRCP99
0112289520999992000101709004+53210+063610FM-12+015699999V0202701N002012200019N0200001N1+00511-00141103021ADDGF105991031031008001001011MD1210071+9999REMSYN060AAXX  17091 28952 42598 52702 10051 21014 40302 52007 83301;
0143289520999992000101712004+53210+063610FM-12+015699999V0202901N003010075019N0200001N1+00511-00141103121ADDGF108991081091008001999999MA1999999101181MD1210101+9999REMSYN076AAXX  17121 28952 42598 82903 10051 21014 30118 40312 52010 889// 555 1/005;
0165289520999992000101715004+53210+063610FM-12+015699999V0209999C000010075019N9999999N1+00331-00081103161ADDAA199000091GF108991081091008001999999KA1999M+00601MD1210021+9999REMSYN070AAXX  17151 28952 325// 80000 10033 21008 40316 52002 889// 333 10060;EQDQ01  00002PRCP99
0165289520999992000101718004+53210+063610FM-12+015699999V0209999C000010075019N9999999N1+00241-00031103231ADDAA199000091GF108991081091008001999999KA1999M+00601MD1210061+9999REMSYN070AAXX  17181 28952 325// 80000 10024 21003 40323 52006 889// 333 10060;EQDQ01  00002PRCP99
0112289520999992000101721004+53210+063610FM-12+015699999V0209999C000010075019N9999999N1+00261+00051103301ADDGF108991081091008001999999MD1210081+9999REMSYN060AAXX  17211 28952 425// 80000 10026 20005 40330 52008 889//;
0143289520999992000101800004+53210+063610FM-12+015699999V0209999C000010075019N9999999N1+00221+00091103321ADDGF108991081091008001999999MA1999999101341MD1410001+9999REMSYN076AAXX  18001 28952 425// 80000 10022 20009 30134 40332 54000 889// 555 1/002;
0176289520999992000101803004+53210+063610FM-12+015699999V0209999C000010075019N0100001N1+00201+00041999999ADDAA199000091GF108991081091008001999999GJ102709MD1310051+9999REMSYN086AAXX  18031 28952 32597 80000 10020 20004 43337 53005 889// 333 55045 555 20018 7000/;EQDQ01  00002PRCP99
0165289520999992000101806004+53210+063610FM-12+015699999V0209999C000010075019N0200001N1+00371+00081103431ADDAA199000091GF108991081091008001999999KA1999N+00181MD1210081+9999REMSYN070AAXX  18061 28952 32598 80000 10037 20008 40343 52008 889// 333 20018;EQDQ01  00002PRCP99
0112289520999992000101809004+53210+063610FM-12+015699999V0209999C000010075019N0200001N1+00631-00031103401ADDGF107991071091008001001001MD1810021+9999REMSYN060AAXX  18091 28952 42598 70000 10063 21003 40340 58002 87900;
0143289520999992000101812004+53210+063610FM-12+015699999V0200501N002010075019N0200001N1+00541-00041103401ADDGF107991071091008001001001MA1999999101451MD1410001+9999REMSYN076AAXX  18121 28952 42598 70502 10054 21004 30145 40340 54000 87900 555 1/006;
0165289520999992000101815004+53210+063610FM-12+015699999V0200501N001010075019N9999999N1+00381-00051103411ADDAA199000091GF107991071091008001001001KA1999M+00651MD1410001+9999REMSYN070AAXX  18151 28952 325// 70501 10038 21005 40341 54000 87900 333 10065;EQDQ01  00002PRCP99
0165289520999992000101818004+53210+063610FM-12+015699999V0200501N001012200019N9999999N1+00031-00111103431ADDAA199000091GF102991021051008001001001KA1999M+00651MD1810011+9999REMSYN070AAXX  18181 28952 325// 20501 10003 21011 40343 58001 82500 333 10065;EQDQ01  00002PRCP99
0112289520999992000101821004+53210+063610FM-12+015699999V0209999C000012200019N9999999N1-00231-00361103411ADDGF102991021001999999031001MD1710011+9999REMSYN060AAXX  18211 28952 429// 20000 11023 21036 40341 57001 82030;
0153289520999992000101900004+53210+063610FM-12+015699999V0209999C000012200019N9999999N1-00281-00381103421ADDGA1001+999999999GF100991001001999999001001MA1999999101411MD1710021+9999REMSYN070AAXX  19001 28952 429// 00000 11028 21038 30141 40342 57002 555 1/104;
0186289520999992000101903004+53210+063610FM-12+015699999V0209999C000012200019N0200001N1-00301-00401103381ADDAA199000091GA1001+999999999GF100991001001999999001001GJ100189MD1710041+9999REMSYN080AAXX  19031 28952 32998 00000 11030 21040 40338 57004 333 55003 555 21034 7000/;EQDQ01  00002PRCP99
0175289520999992000101906004+53210+063610FM-12+015699999V0209999C000012200019N0200001N1+00491-00041103321ADDAA199000091GA1001+999999999GF100991001001999999001001KA1999N-00341MD1410001+9999REMSYN064AAXX  19061 28952 32998 00000 10049 21004 40332 54000 333 21034;EQDQ01  00002PRCP99
0112289520999992000101909004+53210+063610FM-12+015699999V0202701N004010750019N0200001N1+00651-00371103101ADDGF105991031011012501001091MD1810211+9999REMSYN060AAXX  19091 28952 42698 52704 10065 21037 40310 58021 83109;
0143289520999992000101912004+53210+063610FM-12+015699999V0202501N002012200019N0200001N1+00651-00291102801ADDGF102991001001999999001011MA1999999100861MD1710301+9999REMSYN076AAXX  19121 28952 42998 22502 10065 21029 30086 40280 57030 80001 555 1/006;
0175289520999992000101915004+53210+063610FM-12+015699999V0202301N003012200019N9999999N1+00281-00301102621ADDAA199000091GA1001+999999999GF100991001001999999001001KA1999M+00701MD1710191+9999REMSYN064AAXX  19151 28952 329// 02303 10028 21030 40262 57019 333 10070;EQDQ01  00002PRCP99
0175289520999992000101918004+53210+063610FM-12+015699999V0202001N003012200019N9999999N1+00121-00301102411ADDAA199000091GA1001+999999999GF100991001001999999001001KA1999M+00701MD1710161+9999REMSYN064AAXX  19181 28952 329// 02003 10012 21030 40241 57016 333 10070;EQDQ01  00002PRCP99
0112289520999992000101921004+53210+063610FM-12+015699999V0202301N003019999999N9999999N1+00021-00371102261ADDGF107991071001999999051001MD1710221+9999REMSYN060AAXX  19211 28952 429// 72303 10002 21037 40226 57022 87050;
0149289520999992000102000004+53210+063610FM-12+015699999V0202301N003019999999N9999999N1-00021-00331102071ADDGF108991999999008001999999MA1999999100111MD1710181+9999MW1891REMSYN076AAXX  20001 28952 425// 82303 11002 21033 30011 40207 57018 789// 555 1/101;
0157289520999992000102003004+53210+063610FM-12+015699999V0202301N003010075019N0200001N1-00021-00291101921ADDAA199000021GF107991071091008001001001GJ105469MD1710151+9999REMSYN086AAXX  20031 28952 32598 72303 11002 21029 40192 57015 87900 333 55091 555 21002 7000/;
0174289520999992000102006004+53210+063610FM-12+015699999V0202501N004010075019N0200001N1+00161+00001101791ADDAA199000021AY121061AY221061GF108991081091008001999999KA1999N-00021MD1710121+9999MW1261REMSYN076AAXX  20061 28952 31598 82504 10016 21000 40179 57012 72622 889// 333 21002;
0140289520999992000102009004+53210+063610FM-12+015699999V0202701N005010075019N0100001N1+00261+00161101731ADDAY181031AY221031GF108991081091008001999999MD1710051+9999MW1801REMSYN066AAXX  20091 28952 41597 82705 10026 20016 40173 57005 78082 889//;
0171289520999992000102012004+53210+063610FM-12+015699999V0202701N003010075019N0200001N1+00291+00191101651ADDAY181061AY221061GF108991081091008001999999MA1999999099721MD1710071+9999MW1021REMSYN082AAXX  20121 28952 41598 82703 10029 20019 39972 40165 57007 70282 889// 555 1/004;
0173289520999992000102015004+53210+063610FM-12+015699999V0202901N002010075019N9999999N1+00321+00191101651ADDAY181031AY221031GF108991081091008001999999KA1120M+00301MD1410001+9999MW1801REMSYN086AAXX  20151 28952 /15// 82902 10032 20019 40165 54000 78082 889// 333 10030 555 60012;
0180289520999992000102018004+53210+063610FM-12+015699999V0203401N003010075019N9999999N1+00321+00191101671ADDAA100001091AY181061AY221061GF108991081091008001999999KA1999M+00301MD1310021+9999MW1801REMSYN082AAXX  20181 28952 115// 83403 10032 20019 40167 53002 60010 78082 889// 333 10030;
0140289520999992000102021004+53210+063610FM-12+015699999V0203601N005010075019N9999999N1+00351+00251101911ADDAY181031AY221031GF108991081091008001999999MD1210231+9999MW1021REMSYN066AAXX  20211 28952 415// 83605 10035 20025 40191 52023 70282 889//;
0171289520999992000102100004+53210+063610FM-12+015699999V0203601N007010075019N9999999N1-00201-00481102411ADDAY181061AY221061GF107991071091008001001001MA1999999100421MD1210451+9999MW1021REMSYN082AAXX  21001 28952 415// 73607 11020 21048 30042 40241 52045 70282 87900 555 1/000;
0144289520999992000102103004+53210+063610FM-12+015699999V0203601N004012200019N0200001N1-00461-00601102931ADDGF102991021091008001001001MD1210501+9999REMSYN092AAXX  21031 28952 /2598 23604 11046 21060 40293 52050 82900 333 55000 555 21046 69972 7002/;
0152289520999992000102106004+53210+063610FM-12+015699999V0203601N005012200019N0200001N1-00281-00811103271ADDAA100000891GF102991021011012501001001KA1999N-00461MD1210341+9999REMSYN076AAXX  21061 28952 31698 23605 11028 21081 40327 52034 69970 82100 333 21046;
0112289520999992000102109004+53210+063610FM-12+015699999V0203601N003012200019N0200001N1-00081-00991103401ADDGF103991001001999999001011MD1210151+9999REMSYN060AAXX  21091 28952 42998 33603 11008 21099 40340 52015 80001;
0153289520999992000102112004+53210+063610FM-12+015699999V0203601N003012200019N0200001N1+00001-01051103511ADDGA1001+999999999GF100991001001999999001001MA1999999101521MD1210111+9999REMSYN070AAXX  21121 28952 42998 03603 10000 21105 30152 40351 52011 555 1/003;
0175289520999992000102115004+53210+063610FM-12+015699999V0209999C000012200019N9999999N1-00461-00811103631ADDAA199000091GA1001+999999999GF100991001001999999001001KA1999M+00001MD1210091+9999REMSYN064AAXX  21151 28952 329// 00000 11046 21081 40363 52009 333 10000;EQDQ01  00002PRCP99
0175289520999992000102118004+53210+063610FM-12+015699999V0209999C000012200019N9999999N1-00551-00851103691ADDAA199000091GA1001+999999999GF100991001001999999001001KA1999M+00001MD1210041+9999REMSYN064AAXX  21181 28952 329// 00000 11055 21085 40369 52004 333 10000;EQDQ01  00002PRCP99
0122289520999992000102121004+53210+063610FM-12+015699999V0209999C000012200019N9999999N1-00641-00871103651ADDGA1001+999999999GF100991001001999999001001MD1810051+9999REMSYN054AAXX  21211 28952 429// 00000 11064 21087 40365 58005;
0153289520999992000102200004+53210+063610FM-12+015699999V0209999C000012200019N9999999N1-00591-00781103491ADDGA1001+999999999GF100991001001999999001001MA1999999101451MD1710151+9999REMSYN070AAXX  22001 28952 429// 00000 11059 21078 30145 40349 57015 555 1/108;
0176289520999992000102203004+53210+063610FM-12+015699999V0201801N003010075019N0200001N1-00421-00761103361ADDAA199000091GF107991071091008001001001GJ105649MD1710111+9999REMSYN086AAXX  22031 28952 32598 71803 11042 21076 40336 57011 87900 333 55094 555 21064 7000/;EQDQ01  00002PRCP99
0193289520999992000102206004+53210+063610FM-12+015699999V0202301N004010075019N0200001N1-00161-00531103281ADDAA199000091AY181061AY211061GF108991081091008001999999KA1999N-00641MD1710071+9999MW1021REMSYN076AAXX  22061 28952 31598 82304 11016 21053 40328 57007 70281 889// 333 21064;EQDQ01  00002PRCP99
0112289520999992000102209004+53210+063610FM-12+015699999V0202001N003010075019N0200001N1+00251-00451103151ADDGF108991081091008001999999MD1710091+9999REMSYN060AAXX  22091 28952 42598 82003 10025 21045 40315 57009 889//;
0143289520999992000102212004+53210+063610FM-12+015699999V0202001N002010075019N0200001N1+00321-00221103141ADDGF107991071091008001001001MA1999999101181MD1410001+9999REMSYN076AAXX  22121 28952 42598 72002 10032 21022 30118 40314 54000 87900 555 1/002;
0145289520999992000102215004+53210+063610FM-12+015699999V0202001N002010075019N9999999N1+00261-00231103011ADDGF108991081091008001999999KA1120M+00321MD1810131+9999REMSYN080AAXX  22151 28952 /25// 82002 10026 21023 40301 58013 889// 333 10032 555 69902;
0152289520999992000102218004+53210+063610FM-12+015699999V0201801N001010075019N9999999N1+00141-00271102941ADDAA100000791GF108991081091008001999999KA1999M+00321MD1710081+9999REMSYN076AAXX  22181 28952 125// 81801 10014 21027 40294 57008 69900 889// 333 10032;
0112289520999992000102221004+53210+063610FM-12+015699999V0201801N002010075019N9999999N1+00091-00331102881ADDGF107991071091008001001001MD1710061+9999REMSYN060AAXX  22211 28952 425// 71802 10009 21033 40288 57006 87900;
0143289520999992000102300004+53210+063610FM-12+015699999V0201801N001010075019N9999999N1+00021-00271102821ADDGF107991071091008001001001MA1999999100841MD1710071+9999REMSYN076AAXX  23001 28952 425// 71801 10002 21027 30084 40282 57007 87900 555 1/102;
0176289520999992000102303004+53210+063610FM-12+015699999V0201801N002010075019N0200001N1-00021-00381102711ADDAA199000091GF107991071091008001001001GJ100009MD1710101+9999REMSYN086AAXX  23031 28952 32598 71802 11002 21038 40271 57010 87900 333 55000 555 21002 7990/;EQDQ01  00002PRCP99
0175289520999992000102306004+53210+063610FM-12+015699999V0202001N004012200019N0200001N1+00251-00111102611ADDAA199000091GA1001+999999999GF100991001001999999001001KA1999N-00021MD1710081+9999REMSYN064AAXX  23061 28952 32998 02004 10025 21011 40261 57008 333 21002;EQDQ01  00002PRCP99
0112289520999992000102309004+53210+063610FM-12+015699999V0200201N004010075019N0200001N1+00481-00051102451ADDGF107991071021008001001001MD1710141+9999REMSYN060AAXX  23091 28952 42598 70204 10048 21005 40245 57014 87200;
0143289520999992000102312004+53210+063610FM-12+015699999V0201801N004010075019N0200001N1+00461+00011102351ADDGF107991071091008001001001MA1999999100421MD1710101+9999REMSYN076AAXX  23121 28952 42598 71804 10046 20001 30042 40235 57010 87900 555 1/005;
0165289520999992000102315004+53210+063610FM-12+015699999V0201801N002010075019N9999999N1+00391-00011102241ADDAA199000091GF108991081091008001999999KA1999M+00541MD1710131+9999REMSYN070AAXX  23151 28952 325// 81802 10039 21001 40224 57013 889// 333 10054;EQDQ01  00002PRCP99
0165289520999992000102318004+53210+063610FM-12+015699999V0201801N005010075019N9999999N1+00281-00081102071ADDAA199000091GF107991071091008001001001KA1999M+00541MD1710161+9999REMSYN070AAXX  23181 28952 325// 71805 10028 21008 40207 57016 87900 333 10054;EQDQ01  00002PRCP99
0112289520999992000102321004+53210+063610FM-12+015699999V0201801N004010075019N9999999N1+00221-00051101911ADDGF105991051091008001001001MD1710171+9999REMSYN060AAXX  23211 28952 425// 51804 10022 21005 40191 57017 85900;
0143289520999992000102400004+53210+063610FM-12+015699999V0201801N004012200019N9999999N1+00001-00151101721ADDGF102991021091008001001001MA1999999099761MD1710201+9999REMSYN076AAXX  24001 28952 425// 21804 10000 21015 39976 40172 57020 82900 555 1/101;
0176289520999992000102403004+53210+063610FM-12+015699999V0202001N004010075019N0200001N1+00121-00111101521ADDAA199000091GF108991081091008001999999GJ102229MD1710181+9999REMSYN086AAXX  24031 28952 32598 82004 10012 21011 40152 57018 889// 333 55037 555 20000 7000/;EQDQ01  00002PRCP99
0165289520999992000102406004+53210+063610FM-12+015699999V0202001N004010075019N0100001N1+00271-00121101281ADDAA199000091GF108991081091008001999999KA1999N+00001MD1710231+9999REMSYN070AAXX  24061 28952 32597 82004 10027 21012 40128 57023 889// 333 20000;EQDQ01  00002PRCP99
0112289520999992000102409004+53210+063610FM-12+015699999V0202001N005010075019N0200001N1+00341-00041101111ADDGF108991081091008001999999MD1710161+9999REMSYN060AAXX  24091 28952 42598 82005 10034 21004 40111 57016 889//;
0171289520999992000102412004+53210+063610FM-12+015699999V0202001N006010075019N0100001N1+00161+00081100971ADDAY181061AY221061GF108991081091008001999999MA1999999099041MD1710151+9999MW1801REMSYN082AAXX  24121 28952 41597 82006 10016 20008 39904 40097 57015 78082 889// 555 1/002;
0173289520999992000102415004+53210+063610FM-12+015699999V0202501N002010075019N9999999N1+00071+00041100961ADDAY181031AY281031GF108991081091008001999999KA1120M+00341MD1710011+9999MW1851REMSYN086AAXX  24151 28952 /15// 82502 10007 20004 40096 57001 78588 889// 333 10034 555 60042;
0180289520999992000102418004+53210+063610FM-12+015699999V0202701N004010075019N9999999N1+00231+00131101021ADDAA100004191AY181061AY221061GF108991081091008001999999KA1999M+00341MD1310061+9999MW1021REMSYN082AAXX  24181 28952 115// 82704 10023 20013 40102 53006 60040 70282 889// 333 10034;
0112289520999992000102421004+53210+063610FM-12+015699999V0202701N003010075019N9999999N1+00191+00061101281ADDGF106991061091008001001001MD1210251+9999REMSYN060AAXX  24211 28952 425// 62703 10019 20006 40128 52025 86900;
0143289520999992000102500004+53210+063610FM-12+015699999V0202701N003012200019N9999999N1+00121-00141101481ADDGF102991021091008001001001MA1999999099541MD1210201+9999REMSYN076AAXX  25001 28952 425// 22703 10012 21014 39954 40148 52020 82900 555 1/000;
0144289520999992000102503004+53210+063610FM-12+015699999V0202701N003010075019N0200001N1+00061-00271101631ADDGF108991081091008001999999MD1210151+9999REMSYN092AAXX  25031 28952 /2598 82703 10006 21027 40163 52015 889// 333 55000 555 20006 60012 7005/;
0152289520999992000102506004+53210+063610FM-12+015699999V0202701N003012200019N0200001N1+00411-00111101861ADDAA100001091GF102991021001999999031001KA1999N+00061MD1210231+9999REMSYN076AAXX  25061 28952 12998 22703 10041 21011 40186 52023 60010 82030 333 20006;
0112289520999992000102509004+53210+063610FM-12+015699999V0202901N005010075019N0200001N1+00551-00161101951ADDGF107991071091008001001001MD1210111+9999REMSYN060AAXX  25091 28952 42598 72905 10055 21016 40195 52011 87900;
0143289520999992000102512004+53210+063610FM-12+015699999V0203201N002010075019N0200001N1+00391-00131102201ADDGF107991071091008001001001MA1999999100251MD1210221+9999REMSYN076AAXX  25121 28952 42598 73202 10039 21013 30025 40220 52022 87900 555 1/004;
0165289520999992000102515004+53210+063610FM-12+015699999V0209999C000010075019N9999999N1+00321-00121102271ADDAA199000091GF108991081091008001999999KA1999M+00601MD1210071+9999REMSYN070AAXX  25151 28952 325// 80000 10032 21012 40227 52007 889// 333 10060;EQDQ01  00002PRCP99
0175289520999992000102518004+53210+063610FM-12+015699999V0209999C000012200019N9999999N1-00041-00221102561ADDAA199000091GA1001+999999999GF100991001001999999001001KA1999M+00601MD1210271+9999REMSYN064AAXX  25181 28952 329// 00000 11004 21022 40256 52027 333 10060;EQDQ01  00002PRCP99
0122289520999992000102521004+53210+063610FM-12+015699999V0209999C000012200019N9999999N1-00161-00241102731ADDGA1001+999999999GF100991001001999999001001MD1210151+9999REMSYN054AAXX  25211 28952 429// 00000 11016 21024 40273 52015;
0153289520999992000102600004+53210+063610FM-12+015699999V0209999C000012200019N9999999N1-00331-00401102861ADDGA1001+999999999GF100991001001999999001001MA1999999100861MD1210121+9999REMSYN070AAXX  26001 28952 429// 00000 11033 21040 30086 40286 52012 555 1/004;
0186289520999992000102603004+53210+063610FM-12+015699999V0209999C000012200019N0200001N1-00401-00491103001ADDAA199000091GA1001+999999999GF100991001001999999001001GJ101149MD1210131+9999REMSYN080AAXX  26031 28952 32998 00000 11040 21049 40300 52013 333 55019 555 21041 7000/;EQDQ01  00002PRCP99
0175289520999992000102606004+53210+063610FM-12+015699999V0201801N002012200019N0200001N1+00301-00121103021ADDAA199000091GA1001+999999999GF100991001001999999001001KA1999N-00411MD1210071+9999REMSYN064AAXX  26061 28952 32998 01802 10030 21012 40302 52007 333 21041;EQDQ01  00002PRCP99
0122289520999992000102609004+53210+063610FM-12+015699999V0202001N003012200019N0200001N1+00701-00091102931ADDGA1001+999999999GF100991001001999999001001MD1810061+9999REMSYN054AAXX  26091 28952 42998 02003 10070 21009 40293 58006;
0153289520999992000102612004+53210+063610FM-12+015699999V0202001N002012200019N0200001N1+00711-00251102861ADDGA1001+999999999GF100991001001999999001001MA1999999100931MD1710071+9999REMSYN070AAXX  26121 28952 42998 02002 10071 21025 30093 40286 57007 555 1/006;
0175289520999992000102615004+53210+063610FM-12+015699999V0201801N002012200019N9999999N1+00161-00251102841ADDAA199000091GA1001+999999999GF100991001001999999001001KA1999M+00851MD1710061+9999REMSYN064AAXX  26151 28952 329// 01802 10016 21025 40284 57006 333 10085;EQDQ01  00002PRCP99
0175289520999992000102618004+53210+063610FM-12+015699999V0202301N003012200019N9999999N1+00181-00041102831ADDAA199000091GA1001+999999999GF100991001001999999001001KA1999M+00851MD1710011+9999REMSYN064AAXX  26181 28952 329// 02303 10018 21004 40283 57001 333 10085;EQDQ01  00002PRCP99
0112289520999992000102621004+53210+063610FM-12+015699999V0202301N003010075019N9999999N1+00121-00081102741ADDGF107991071091008001001001MD1710091+9999REMSYN060AAXX  26211 28952 425// 72303 10012 21008 40274 57009 87900;
0143289520999992000102700004+53210+063610FM-12+015699999V0202001N001010075019N9999999N1+00241-00031102661ADDGF108991081091008001999999MA1999999100711MD1710061+9999REMSYN076AAXX  27001 28952 425// 82001 10024 21003 30071 40266 57006 889// 555 1/002;
0176289520999992000102703004+53210+063610FM-12+015699999V0202001N003010075019N0200001N1+00271+00031102561ADDAA199000091GF108991081091008001999999GJ105049MD1710101+9999REMSYN086AAXX  27031 28952 32598 82003 10027 20003 40256 57010 889// 333 55084 555 20012 7000/;EQDQ01  00002PRCP99
0165289520999992000102706004+53210+063610FM-12+015699999V0202001N003010075019N0200001N1+00381+00121102471ADDAA199000091GF107991071091008001001001KA1999N+00121MD1710091+9999REMSYN070AAXX  27061 28952 32598 72003 10038 20012 40247 57009 87900 333 20012;EQDQ01  00002PRCP99
0140289520999992000102709004+53210+063610FM-12+015699999V0202001N003010075019N0100001N1+00371+00221102401ADDAY181031AY221031GF108991081091008001999999MD1710071+9999MW1801REMSYN066AAXX  27091 28952 41597 82003 10037 20022 40240 57007 78082 889//;
0171289520999992000102712004+53210+063610FM-12+015699999V0201801N002010075019N0200001N1+00321+00191102251ADDAY181061AY221061GF108991081091008001999999MA1999999100301MD1710151+9999MW1021REMSYN082AAXX  27121 28952 41598 81802 10032 20019 30030 40225 57015 70282 889// 555 1/004;
0145289520999992000102715004+53210+063610FM-12+015699999V0201801N002010075019N9999999N1+00261+00211102221ADDGF108991081091008001999999KA1120M+00451MD1710031+9999REMSYN080AAXX  27151 28952 /25// 81802 10026 20021 40222 57003 889// 333 10045 555 69942;
0152289520999992000102718004+53210+063610FM-12+015699999V0202301N002010075019N9999999N1+00271+00191102171ADDAA100000591GF108991081091008001999999KA1999M+00451MD1710041+9999REMSYN076AAXX  27181 28952 125// 82302 10027 20019 40217 57004 69940 889// 333 10045;
0112289520999992000102721004+53210+063610FM-12+015699999V0202301N001010075019N9999999N1+00251+00171102201ADDGF108991081091008001999999MD1310021+9999REMSYN060AAXX  27211 28952 425// 82301 10025 20017 40220 53002 889//;
0153289520999992000102800004+53210+063610FM-12+015699999V0202301N001012200019N9999999N1+00161+00111102141ADDGA1001+999999999GF100991001001999999001001MA1999999100191MD1810061+9999REMSYN070AAXX  28001 28952 429// 02301 10016 20011 30019 40214 58006 555 1/001;
0176289520999992000102803004+53210+063610FM-12+015699999V0202301N002012200019N0200001N1+00031-00051102131ADDAA199000091GF101991011051008001001001GJ100009MD1710021+9999REMSYN086AAXX  28031 28952 32598 12302 10003 21005 40213 57002 81500 333 55000 555 20003 7994/;EQDQ01  00002PRCP99
0165289520999992000102806004+53210+063610FM-12+015699999V0202001N003019999999N0200001N1+00281+00071102201ADDAA199000091GF105991051001999999081001KA1999N+00031MD1310081+9999REMSYN070AAXX  28061 28952 32998 52003 10028 20007 40220 53008 85080 333 20003;EQDQ01  00002PRCP99
0112289520999992000102809004+53210+063610FM-12+015699999V0202001N005010075019N0200001N1+00541+00301102181ADDGF108991081091008001999999MD1410001+9999REMSYN060AAXX  28091 28952 42598 82005 10054 20030 40218 54000 889//;
0143289520999992000102812004+53210+063610FM-12+015699999V0202001N005012200019N0200001N1+00741+00451102091ADDGF105991021091008001001011MA1999999100181MD1810071+9999REMSYN076AAXX  28121 28952 42598 52005 10074 20045 30018 40209 58007 82901 555 1/006;
0175289520999992000102815004+53210+063610FM-12+015699999V0202001N002012200019N9999999N1+00591+00441102111ADDAA199000091GA1001+999999999GF100991001001999999001001KA1999M+00751MD1310011+9999REMSYN064AAXX  28151 28952 329// 02002 10059 20044 40211 53001 333 10075;EQDQ01  00002PRCP99
0175289520999992000102818004+53210+063610FM-12+015699999V0201801N001012200019N9999999N1+00391+00241102061ADDAA199000091GA1001+999999999GF100991001001999999001001KA1999M+00751MD1810071+9999REMSYN064AAXX  28181 28952 329// 01801 10039 20024 40206 58007 333 10075;EQDQ01  00002PRCP99
0122289520999992000102821004+53210+063610FM-12+015699999V0201801N001012200019N9999999N1+00371+00221102031ADDGA1001+999999999GF100991001001999999001001MD1710031+9999REMSYN054AAXX  28211 28952 429// 01801 10037 20022 40203 57003;
0143289520999992000102900004+53210+063610FM-12+015699999V0201801N002010075019N9999999N1+00311+00211102021ADDGF107991071051008001001001MA1999999100081MD1710011+9999REMSYN076AAXX  29001 28952 425// 71802 10031 20021 30008 40202 57001 87500 555 1/002;
0176289520999992000102903004+53210+063610FM-12+015699999V0201801N004012200019N0200001N1+00291+00191101941ADDAA199000091GF102991001001999999001011GJ102169MD1710081+9999REMSYN086AAXX  29031 28952 32998 21804 10029 20019 40194 57008 80001 333 55036 555 20024 7000/;EQDQ01  00002PRCP99
0175289520999992000102906004+53210+063610FM-12+015699999V0202301N004012200019N0200001N1+00741+00231101841ADDAA199000091GA1001+999999999GF100991001001999999001001KA1999N+00241MD1710071+9999REMSYN064AAXX  29061 28952 32998 02304 10074 20023 40184 57007 333 20024;EQDQ01  00002PRCP99
0122289520999992000102909004+53210+063610FM-12+015699999V0202301N008012200019N0200001N1+01071+00171101601ADDGA1001+999999999GF100991001001999999001001MD1710201+9999REMSYN054AAXX  29091 28952 42998 02308 10107 20017 40160 57020;
0143289520999992000102912004+53210+063610FM-12+015699999V0202001N006012200019N0200001N1+01011+00171101401ADDGF103991001001999999001091MA1999999099521MD1710211+9999REMSYN076AAXX  29121 28952 42998 32006 10101 20017 39952 40140 57021 80009 555 1/011;
0175289520999992000102915004+53210+063610FM-12+015699999V0201801N004012200019N9999999N1+00671+00121101241ADDAA199000091GA1001+999999999GF100991001001999999001001KA1999M+01091MD1710181+9999REMSYN064AAXX  29151 28952 329// 01804 10067 20012 40124 57018 333 10109;EQDQ01  00002PRCP99
0165289520999992000102918004+53210+063610FM-12+015699999V0201801N003019999999N9999999N1+00511+00291101191ADDAA199000091GF108991001001999999001021KA1999M+01091MD1710061+9999REMSYN070AAXX  29181 28952 329// 81803 10051 20029 40119 57006 80002 333 10109;EQDQ01  00002PRCP99
0112289520999992000102921004+53210+063610FM-12+015699999V0202001N003010075019N9999999N1+00351+00121101051ADDGF107991071051008001999999MD1710151+9999REMSYN060AAXX  29211 28952 425// 72003 10035 20012 40105 57015 875//;
0171289520999992000103000004+53210+063610FM-12+015699999V0202001N003010075019N9999999N1+00311+00231100841ADDAY181061AY221061GF108991081091008001999999MA1999999098911MD1710221+9999MW1801REMSYN082AAXX  30001 28952 415// 82003 10031 20023 39891 40084 57022 78082 889// 555 1/002;
0166289520999992000103003004+53210+063610FM-12+015699999V0201801N002010075019N0200001N1+00331+00181100731ADDAY181031AY221031GF108991081091008001999999MD1710101+9999MW1021REMSYN092AAXX  30031 28952 /1598 81802 10033 20018 40073 57010 70282 889// 333 55086 555 60042 7004/;
0180289520999992000103006004+53210+063610FM-12+015699999V0202501N009010300019N0200001N1+00441+00241100701ADDAA100004191AY181061AY221061GF108991031071008001011999KA1999N+00311MD1710011+9999MW1021REMSYN082AAXX  30061 28952 11598 82509 10044 20024 40070 57001 60040 70282 8371/ 333 20031;
0140289520999992000103009004+53210+063610FM-12+015699999V0202901N004010075019N0200001N1+00281+00121100861ADDAY161031AY221031GF108991051071008001011999MD1310141+9999MW1211REMSYN066AAXX  30091 28952 41598 82904 10028 20012 40086 53014 72162 8571/;
0171289520999992000103012004+53210+063610FM-12+015699999V0202701N005010075019N0200001N1+00371-00161101061ADDAY161061AY221061GF107991071091008001001001MA1999999099141MD1210201+9999MW1011REMSYN082AAXX  30121 28952 41598 72705 10037 21016 39914 40106 52020 70162 87900 555 1/004;
0173289520999992000103015004+53210+063610FM-12+015699999V0202901N005010075019N9999999N1+00141-00211101531ADDAY181031AY221031GF108991081091008001999999KA1120M+00451MD1210451+9999MW1851REMSYN086AAXX  30151 28952 /15// 82905 10014 21021 40153 52045 78582 889// 333 10045 555 60012;
0190289520999992000103018004+53210+063610FM-12+015699999V0202701N004012200019N9999999N1-00141-00811101921ADDAA100001091AY181061AY211061GA1001+999999999GF100991001001999999001001KA1999M+00451MD1210351+9999MW1011REMSYN076AAXX  30181 28952 119// 02704 11014 21081 40192 52035 60010 70181 333 10045;
0122289520999992000103021004+53210+063610FM-12+015699999V0202701N003012200019N9999999N1-00241-00841102131ADDGA1001+999999999GF100991001001999999001001MD1210211+9999REMSYN054AAXX  30211 28952 429// 02703 11024 21084 40213 52021;
0143289520999992000103100004+53210+063610FM-12+015699999V0209999C000010075019N9999999N1-00281-00661102181ADDGF108991081091008001999999MA1999999100201MD1210051+9999REMSYN076AAXX  31001 28952 425// 80000 11028 21066 30020 40218 52005 889// 555 1/003;
0220289520999992000103103004+53210+063610FM-12+015699999V0201401N003010075019N0040001N1-00141-00281102081ADDAA112000491AJ100059199999999AY181031AY221031GF108991081091008001999999GJ100849IA1239MD1810101+9999MW1851REMSYN104AAXX  31031 28952 /1596 81403 11014 21028 40208 58010 78582 889// 333 47005 55014 555 21028 69942 7001/;
0180289520999992000103106004+53210+063610FM-12+015699999V0201801N003010075019N0020001N1+00041-00061101751ADDAA100000591AY181061AY221061GF108991081091008001999999KA1999N-00281MD1710311+9999MW1861REMSYN082AAXX  31061 28952 11595 81803 10004 21006 40175 57031 69940 78682 889// 333 21028;
0140289520999992000103109004+53210+063610FM-12+015699999V0202301N002010075019N0200001N1+00251+00121101521ADDAY181031AY221031GF108991081091008001999999MD1710201+9999MW1021REMSYN066AAXX  31091 28952 41598 82302 10025 20012 40152 57020 70282 889//;
0171289520999992000103112004+53210+063610FM-12+015699999V0202001N002010075019N0200001N1+00381+00201101421ADDAY181061AY221061GF107991071091008001001001MA1999999099491MD1710101+9999MW1021REMSYN082AAXX  31121 28952 41598 72002 10038 20020 39949 40142 57010 70282 87900 555 1/003;
0173289520999992000103115004+53210+063610FM-12+015699999V0203201N002010075019N9999999N1+00301+00201101531ADDAY181031AY221031GF108991081091008001999999KA1120M+00381MD1310111+9999MW1021REMSYN086AAXX  31151 28952 /15// 83202 10030 20020 40153 53011 70282 889// 333 10038 555 60042;
0180289520999992000103118004+53210+063610FM-12+015699999V0203201N005010075019N9999999N1+00001-00211101841ADDAA100004191AY181061AY221061GF108991081091008001999999KA1999M+00381MD1210281+9999MW1021REMSYN082AAXX  31181 28952 115// 83205 10000 21021 40184 52028 60040 70282 889// 333 10038;
0122289520999992000103121004+53210+063610FM-12+015699999V0203201N007012200019N9999999N1-00151-00631102091ADDGA1001+999999999GF100991001001999999001001MD1210231+9999REMSYN054AAXX  31211 28952 429// 03207 11015 21063 40209 52023;
0171289520999992000110100004+53210+063610FM-12+015699999V0203201N005010075019N9999999N1-00321-00561102431ADDAY181061AY211061GF108991081091008001999999MA1999999100441MD1210331+9999MW1851REMSYN082AAXX  01001 28952 415// 83205 11032 21056 30044 40243 52033 78581 889// 555 1/104;
0230289520999992000110103004+53210+063610FM-12+015699999V0203201N005012200019N0200001N1-00671-01091102781ADDAA112999929AJ100019199999999AY181031AY211031GA1001+999999999GF100991001001999999001001GJ100069IA1239MD1210311+9999MW1011REMSYN098AAXX  01031 28952 /1998 03205 11067 21109 40278 52031 70181 333 47001 55001 555 21068 69902 7004/;
0180289520999992000110106004+53210+063610FM-12+015699999V0203401N003012200019N0200001N1-00591-01221103041ADDAA100000791AY181061AY211061GF102991011011012501041011KA1999N-00681MD1210261+9999MW1031REMSYN082AAXX  01061 28952 11698 23403 11059 21122 40304 52026 69900 70381 81141 333 21068;
0112289520999992000110109004+53210+063610FM-12+015699999V0202701N003012200019N0200001N1-00381-01051103131ADDGF101991001001999999001011MD1210111+9999REMSYN060AAXX  01091 28952 42998 12703 11038 21105 40313 52011 80001;
0143289520999992000110112004+53210+063610FM-12+015699999V0202301N002010075019N0200001N1-00261-01001103081ADDGF107991071051008001001001MA1999999101081MD1810061+9999REMSYN076AAXX  01121 28952 42598 72302 11026 21100 30108 40308 58006 87500 555 1/003;
0165289520999992000110115004+53210+063610FM-12+015699999V0202301N002010075019N9999999N1-00161-00891102951ADDAA199000091GF108991081091008001999999KA1999M-00181MD1710131+9999REMSYN070AAXX  01151 28952 325// 82302 11016 21089 40295 57013 889// 333 11018;EQDQ01  00002PRCP99
0193289520999992000110118004+53210+063610FM-12+015699999V0202301N007010075019N9999999N1+00021-00621102671ADDAA199000021AY181061AY221061GF108991081091008001999999KA1999M+99999MD1710251+9999MW1851REMSYN076AAXX  01181 28952 315// 82307 10002 21062 40267 57025 78582 889// 333 11018;EQDQ01 -00182ATMX  
0140289520999992000110121004+53210+063610FM-12+015699999V0209999C000010075019N9999999N1+00061-00401102461ADDAY181031AY221031GF108991081091008001999999MD1710201+9999MW1261REMSYN066AAXX  01211 28952 415// 80000 10006 21040 40246 57020 72682 889//;
0171289520999992000110200004+53210+063610FM-12+015699999V0209999C000010075019N9999999N1+00221-00181102451ADDAY181061AY221061GF108991081091008001999999MA1999999100491MD1710011+9999MW1021REMSYN082AAXX  02001 28952 415// 80000 10022 21018 30049 40245 57001 70282 889// 555 1/002;
0144289520999992000110203004+53210+063610FM-12+015699999V0202301N002010075019N0200001N1+00261+00021102501ADDGF108991081091008001999999MD1310061+9999REMSYN092AAXX  02031 28952 /2598 82302 10026 20002 40250 53006 889// 333 55075 555 21016 69972 7997/;
0152289520999992000110206004+53210+063610FM-12+015699999V0202301N004010075019N0200001N1+00391+00081102511ADDAA100000891GF108991081091008001999999KA1999N-00161MD1210011+9999REMSYN076AAXX  02061 28952 12598 82304 10039 20008 40251 52001 69970 889// 333 21016;
0112289520999992000110209004+53210+063610FM-12+015699999V0202001N005012200019N0200001N1+00811+00151102401ADDGF102991021001999999031001MD1810081+9999REMSYN060AAXX  02091 28952 42998 22005 10081 20015 40240 58008 82030;
0153289520999992000110212004+53210+063610FM-12+015699999V0202001N005012200019N0200001N1+00871+00231102281ADDGA1001+999999999GF100991001001999999001001MA1999999100381MD1710101+9999REMSYN070AAXX  02121 28952 42998 02005 10087 20023 30038 40228 57010 555 1/012;
0165289520999992000110215004+53210+063610FM-12+015699999V0202001N004019999999N9999999N1+00541+00251102311ADDAA199000091GF106991061001999999031001KA1999M+00951MD1410001+9999REMSYN070AAXX  02151 28952 329// 62004 10054 20025 40231 54000 86030 333 10095;EQDQ01  00002PRCP99
0165289520999992000110218004+53210+063610FM-12+015699999V0202001N004019999999N9999999N1+00471+00191102461ADDAA199000091GF106991061001999999031001KA1999M+00951MD1310161+9999REMSYN070AAXX  02181 28952 329// 62004 10047 20019 40246 53016 86030 333 10095;EQDQ01  00002PRCP99
0143289520999992000110300004+53210+063610FM-12+015699999V0209999C000010075019N9999999N1+00301+00141102621ADDGF107991071051008001001001MA1999999100671MD1210101+9999REMSYN076AAXX  03001 28952 425// 70000 10030 20014 30067 40262 52010 87500 555 1/002;
0176289520999992000110303004+53210+063610FM-12+015699999V0209999C000010075019N0200001N1+00331+00201102811ADDAA199000091GF108991081091008001999999GJ102589MD1210171+9999REMSYN086AAXX  03031 28952 32598 80000 10033 20020 40281 52017 889// 333 55043 555 20029 7000/;EQDQ01  00002PRCP99
0165289520999992000110306004+53210+063610FM-12+015699999V0209999C000010075019N0200001N1+00511+00371102961ADDAA199000091GF107991071051008001999999KA1999N+00291MD1210161+9999REMSYN070AAXX  03061 28952 32598 70000 10051 20037 40296 52016 875// 333 20029;EQDQ01  00002PRCP99
0112289520999992000110309004+53210+063610FM-12+015699999V0209999C000010075019N0200001N1+00711+00431103081ADDGF107991071051008001999999MD1210131+9999REMSYN060AAXX  03091 28952 42598 70000 10071 20043 40308 52013 875//;
0143289520999992000110312004+53210+063610FM-12+015699999V0209999C000010075019N0200001N1+00591+00351103201ADDGF107991071051008001999999MA1999999101251MD1210101+9999REMSYN076AAXX  03121 28952 42598 70000 10059 20035 30125 40320 52010 875// 555 1/007;
0181289520999992000110315004+53210+063610FM-12+015699999V0209999C000010075019N9999999N1+00511+00391103321ADDAA199000091GF107991071051008001999999KA1999N+99999MD1210171+9999REMSYN070AAXX  03151 28952 325// 70000 10051 20039 40332 52017 875// 333 20075;EQDQ01  00002PRCP99Q02 +00752ATMN  
0181289520999992000110318004+53210+063610FM-12+015699999V0209999C000010075019N9999999N1+00411+00311103451ADDAA199000091GF107991071051008001999999KA1999N+99999MD1210071+9999REMSYN070AAXX  03181 28952 325// 70000 10041 20031 40345 52007 875// 333 20075;EQDQ01  00002PRCP99Q02 +00752ATMN  
0112289520999992000110321004+53210+063610FM-12+015699999V0209999C000010075019N9999999N1+00371+00271103531ADDGF107991071051008001999999MD1210081+9999REMSYN060AAXX  03211 28952 425// 70000 10037 20027 40353 52008 875//;
0143289520999992000110400004+53210+063610FM-12+015699999V0200901N003010075019N9999999N1+00301+00201103601ADDGF108991081091008001999999MA1999999101641MD1210071+9999REMSYN076AAXX  04001 28952 425// 80903 10030 20020 30164 40360 52007 889// 555 1/002;
0176289520999992000110403004+53210+063610FM-12+015699999V0201101N003010075019N0200001N1+00281+00181103671ADDAA199000091GF108991081091008001999999GJ100009MD1210071+9999REMSYN086AAXX  04031 28952 32598 81103 10028 20018 40367 52007 889// 333 55000 555 20028 7000/;EQDQ01  00002PRCP99
0165289520999992000110406004+53210+063610FM-12+015699999V0202001N002010075019N0200001N1+00541+00351103731ADDAA199000091GF108991081091008001999999KA1999N+00281MD1210061+9999REMSYN070AAXX  04061 28952 32598 82002 10054 20035 40373 52006 889// 333 20028;EQDQ01  00002PRCP99
0112289520999992000110409004+53210+063610FM-12+015699999V0202001N004010075019N0200001N1+00631+00241103731ADDGF108991081091008001999999MD1410001+9999REMSYN060AAXX  04091 28952 42598 82004 10063 20024 40373 54000 889//;
0143289520999992000110412004+53210+063610FM-12+015699999V0202001N002010075019N0200001N1+00611+00301103751ADDGF107991071051008001999999MA1999999101791MD1310021+9999REMSYN076AAXX  04121 28952 42598 72002 10061 20030 30179 40375 53002 875// 555 1/006;
0165289520999992000110415004+53210+063610FM-12+015699999V0202001N001010075019N9999999N1+00451+00171103751ADDAA199000091GF107991071051008001999999KA1999M+00651MD1410001+9999REMSYN070AAXX  04151 28952 325// 72001 10045 20017 40375 54000 875// 333 10065;EQDQ01  00002PRCP99
0165289520999992000110418004+53210+063610FM-12+015699999V0202001N002010075019N9999999N1+00401+00141103761ADDAA199000091GF106991061051008001001001KA1999M+00651MD1410001+9999REMSYN070AAXX  04181 28952 325// 62002 10040 20014 40376 54000 86500 333 10065;EQDQ01  00002PRCP99
0112289520999992000110421004+53210+063610FM-12+015699999V0202001N002010075019N9999999N1+00281+00071103591ADDGF107991071051008001001001MD1810161+9999REMSYN060AAXX  04211 28952 425// 72002 10028 20007 40359 58016 87500;
0162289520999992000110500004+53210+063610FM-12+015699999V0209999C000019999999N9999999N1+00261+00051103531ADDGF107991999051008001999999MA1999999101571MD1710061+9999REMSYN076AAXX  05001 28952 425// 70000 10026 20005 30157 40353 57006 885// 555 1/002;EQDQ01+000082SCOTLC
0184289520999992000110503004+53210+063610FM-12+015699999V0209999C000010001519N0100001N1+00271+00171103471ADDAA199000091GA1051+000159009GF107991071051008001999999MD1710061+9999REMSYN086AAXX  05031 28952 32597 70000 10027 20017 40347 57006 875// 333 85000 555 20026 7000/;EQDQ01  00002PRCP99
0165289520999992000110506004+53210+063610FM-12+015699999V0203201N002010075019N0200001N1+00381+00231103461ADDAA199000091GF107991071051008001999999KA1999N+00261MD1710011+9999REMSYN070AAXX  05061 28952 32598 73202 10038 20023 40346 57001 875// 333 20026;EQDQ01  00002PRCP99
0112289520999992000110509004+53210+063610FM-12+015699999V0203201N005010075019N0200001N1+00351+00141103521ADDGF108991081091008001999999MD1310061+9999REMSYN060AAXX  05091 28952 42598 83205 10035 20014 40352 53006 889//;
0143289520999992000110512004+53210+063610FM-12+015699999V0203401N005010075019N0200001N1+00231-00071103591ADDGF108991081091008001999999MA1999999101611MD1210051+9999REMSYN076AAXX  05121 28952 42598 83405 10023 21007 30161 40359 52005 889// 555 1/004;
0165289520999992000110515004+53210+063610FM-12+015699999V0203201N005010075019N9999999N1+00061-00111103671ADDAA199000091GF108991081091008001999999KA1999M+00381MD1210081+9999REMSYN070AAXX  05151 28952 325// 83205 10006 21011 40367 52008 889// 333 10038;EQDQ01  00002PRCP99
0165289520999992000110518004+53210+063610FM-12+015699999V0203201N006010075019N9999999N1-00181-00361103791ADDAA199000091GF108991081091008001999999KA1999M+00381MD1210081+9999REMSYN070AAXX  05181 28952 325// 83206 11018 21036 40379 52008 889// 333 10038;EQDQ01  00002PRCP99
0112289520999992000110521004+53210+063610FM-12+015699999V0203201N005010075019N9999999N1-00351-00491103841ADDGF108991081091008001999999MD1210061+9999REMSYN060AAXX  05211 28952 425// 83205 11035 21049 40384 52006 889//;
0143289520999992000110600004+53210+063610FM-12+015699999V0203201N005010075019N9999999N1-00431-00551103911ADDGF108991081091008001999999MA1999999101881MD1210051+9999REMSYN076AAXX  06001 28952 425// 83205 11043 21055 30188 40391 52005 889// 555 1/106;
0176289520999992000110603004+53210+063610FM-12+015699999V0203601N003010075019N0200001N1-00541-00681104051ADDAA199000091GF108991081091008001999999GJ100009MD1210131+9999REMSYN086AAXX  06031 28952 32598 83603 11054 21068 40405 52013 889// 333 55000 555 21054 7000/;EQDQ01  00002PRCP99
0174289520999992000110606004+53210+063610FM-12+015699999V0203601N006010075019N0100001N1-00531-00741104191ADDAA199000021AY181061AY221061GF108991081091008001999999KA1999N-00541MD1210151+9999MW1871REMSYN076AAXX  06061 28952 31597 83606 11053 21074 40419 52015 78782 889// 333 21054;
0140289520999992000110609004+53210+063610FM-12+015699999V0203601N005010075019N0100001N1-00521-00741104541ADDAY181031AY221031GF108991081091008001999999MD1210031+9999MW1871REMSYN066AAXX  06091 28952 41597 83605 11052 21074 40454 52003 78782 889//;
0171289520999992000110612004+53210+063610FM-12+015699999V0200201N006010075019N0200001N1-00631-00991104381ADDAY181061AY221061GF108991081091008001999999MA1999999102321MD1210131+9999MW1021REMSYN082AAXX  06121 28952 41598 80206 11063 21099 30232 40438 52013 70282 889// 555 1/105;
0155289520999992000110615004+53210+063610FM-12+015699999V0200501N006012200019N9999999N1-00781-01141104481ADDGA1001+999999999GF100991001001999999001001KA1120M-00521MD1210091+9999REMSYN074AAXX  06151 28952 /29// 00506 11078 21114 40448 52009 333 11052 555 69902;
0162289520999992000110618004+53210+063610FM-12+015699999V0200501N002012200019N9999999N1-01041-01321104751ADDAA100000791GA1001+999999999GF100991001001999999001001KA1999M+00521MD1210251+9999REMSYN070AAXX  06181 28952 129// 00502 11104 21132 40475 52025 69900 333 10052;
0122289520999992000110621004+53210+063610FM-12+015699999V0200201N003012200019N9999999N1-01261-01531104841ADDGA1001+999999999GF100991001001999999001001MD1210071+9999REMSYN054AAXX  06211 28952 429// 00203 11126 21153 40484 52007;
0153289520999992000110700004+53210+063610FM-12+015699999V0200201N002012200019N9999999N1-01421-01691104941ADDGA1001+999999999GF100991001001999999001001MA1999999102811MD1210081+9999REMSYN070AAXX  07001 28952 429// 00202 11142 21169 30281 40494 52008 555 1/115;
0186289520999992000110703004+53210+063610FM-12+015699999V0200501N002012200019N0200001N1-01521-01791105091ADDAA199000091GA1001+999999999GF100991001001999999001001GJ100009MD1210141+9999REMSYN080AAXX  07031 28952 32998 00502 11152 21179 40509 52014 333 55000 555 21152 7990/;EQDQ01  00002PRCP99
0175289520999992000110706004+53210+063610FM-12+015699999V0200501N002012200019N0200001N1-01061-01691105111ADDAA199000091GA1001+999999999GF100991001001999999001001KA1999N-01521MD1210061+9999REMSYN064AAXX  07061 28952 32998 00502 11106 21169 40511 52006 333 21152;EQDQ01  00002PRCP99
0153289520999992000110712004+53210+063610FM-12+015699999V0200501N009012200019N0200001N1-00781-01571105051ADDGA1001+999999999GF100991001001999999001001MA1999999102971MD1710011+9999REMSYN070AAXX  07121 28952 42998 00509 11078 21157 30297 40505 57001 555 1/108;
0175289520999992000110715004+53210+063610FM-12+015699999V0200501N001012200019N9999999N1-01081-01521105101ADDAA199000091GA1001+999999999GF100991001001999999001001KA1999M-00681MD1310031+9999REMSYN064AAXX  07151 28952 329// 00501 11108 21152 40510 53003 333 11068;EQDQ01  00002PRCP99
0175289520999992000110718004+53210+063610FM-12+015699999V0200701N001012200019N9999999N1-01301-01571105201ADDAA199000091GA1001+999999999GF100991001001999999001001KA1999M-00681MD1210081+9999REMSYN064AAXX  07181 28952 329// 00701 11130 21157 40520 52008 333 11068;EQDQ01  00002PRCP99
0122289520999992000110721004+53210+063610FM-12+015699999V0200701N001012200019N9999999N1-01441-01641105231ADDGA1001+999999999GF100991001001999999001001MD1210021+9999REMSYN054AAXX  07211 28952 429// 00701 11144 21164 40523 52002;
0165289520999992000110806004+53210+063610FM-12+015699999V0201801N001012200019N0200001N1-01021-01381105281ADDAA199000091GF102991021001999999031001KA1999N-01511MD1210061+9999REMSYN070AAXX  08061 28952 32998 21801 11102 21138 40528 52006 82030 333 21151;EQDQ01  00002PRCP99
0122289520999992000110809004+53210+063610FM-12+015699999V0202001N002012200019N0200001N1-00491-01321105111ADDGA1001+999999999GF100991001001999999001001MD1810121+9999REMSYN054AAXX  08091 28952 42998 02002 11049 21132 40511 58012;
0153289520999992000110812004+53210+063610FM-12+015699999V0202301N001012200019N0200001N1-00401-01401104971ADDGA1001+999999999GF100991001001999999001001MA1999999102921MD1710141+9999REMSYN070AAXX  08121 28952 42998 02301 11040 21140 30292 40497 57014 555 1/105;
0175289520999992000110815004+53210+063610FM-12+015699999V0202001N002012200019N9999999N1-00651-01471104991ADDAA199000091GA1001+999999999GF100991001001999999001001KA1999M-00401MD1410001+9999REMSYN064AAXX  08151 28952 329// 02002 11065 21147 40499 54000 333 11040;EQDQ01  00002PRCP99
0175289520999992000110818004+53210+063610FM-12+015699999V0202001N001012200019N9999999N1-00941-01341105011ADDAA199000091GA1001+999999999GF100991001001999999001001KA1999M-00401MD1810011+9999REMSYN064AAXX  08181 28952 329// 02001 11094 21134 40501 58001 333 11040;EQDQ01  00002PRCP99
0122289520999992000110821004+53210+063610FM-12+015699999V0200201N001012200019N9999999N1-00951-01361104931ADDGA1001+999999999GF100991001001999999001001MD1710061+9999REMSYN054AAXX  08211 28952 429// 00201 11095 21136 40493 57006;
0153289520999992000110900004+53210+063610FM-12+015699999V0202001N002012200019N9999999N1-01031-01391104911ADDGA1001+999999999GF100991001001999999001001MA1999999102811MD1710021+9999REMSYN070AAXX  09001 28952 429// 02002 11103 21139 30281 40491 57002 555 1/111;
0186289520999992000110903004+53210+063610FM-12+015699999V0202001N002012200019N0200001N1-01111-01311104911ADDAA199000091GA1001+999999999GF100991001001999999001001GJ105049MD1410001+9999REMSYN080AAXX  09031 28952 32998 02002 11111 21131 40491 54000 333 55084 555 21111 7000/;EQDQ01  00002PRCP99
0175289520999992000110906004+53210+063610FM-12+015699999V0202001N002012200019N0200001N1-00641-01091104881ADDAA199000091GA1001+999999999GF100991001001999999001001KA1999N-01111MD1410001+9999REMSYN064AAXX  09061 28952 32998 02002 11064 21109 40488 54000 333 21111;EQDQ01  00002PRCP99
0122289520999992000110909004+53210+063610FM-12+015699999V0209999C000012200019N0200001N1+00201-00651104771ADDGA1001+999999999GF100991001001999999001001MD1810041+9999REMSYN054AAXX  09091 28952 42998 00000 10020 21065 40477 58004;
0153289520999992000110912004+53210+063610FM-12+015699999V0209999C000012200019N0200001N1+00121-00831104641ADDGA1001+999999999GF100991001001999999001001MA1999999102641MD1710091+9999REMSYN070AAXX  09121 28952 42998 00000 10012 21083 30264 40464 57009 555 1/102;
0175289520999992000110915004+53210+063610FM-12+015699999V0209999C000012200019N9999999N1-00461-00851104721ADDAA199000091GA1001+999999999GF100991001001999999001001KA1999M+00261MD1310041+9999REMSYN064AAXX  09151 28952 329// 00000 11046 21085 40472 53004 333 10026;EQDQ01  00002PRCP99
0175289520999992000110918004+53210+063610FM-12+015699999V0209999C000012200019N9999999N1-00691-00981104741ADDAA199000091GA1001+999999999GF100991001001999999001001KA1999M+00261MD1410001+9999REMSYN064AAXX  09181 28952 329// 00000 11069 21098 40474 54000 333 10026;EQDQ01  00002PRCP99
0153289520999992000111000004+53210+063610FM-12+015699999V0209999C000012200019N9999999N1-00951-01161104731ADDGA1001+999999999GF100991001001999999001001MA1999999102641MD1810051+9999REMSYN070AAXX  10001 28952 429// 00000 11095 21116 30264 40473 58005 555 1/111;
0186289520999992000111003004+53210+063610FM-12+015699999V0209999C000012200019N0200001N1-01031-01161104731ADDAA199000091GA1001+999999999GF100991001001999999001001GJ104989MD1410001+9999REMSYN080AAXX  10031 28952 32998 00000 11103 21116 40473 54000 333 55083 555 21103 7000/;EQDQ01  00002PRCP99
0175289520999992000111006004+53210+063610FM-12+015699999V0209999C000012200019N0200001N1-00611-01051104701ADDAA199000091GA1001+999999999GF100991001001999999001001KA1999N-01031MD1410001+9999REMSYN064AAXX  10061 28952 32998 00000 11061 21105 40470 54000 333 21103;EQDQ01  00002PRCP99
0122289520999992000111009004+53210+063610FM-12+015699999V0209999C000012200019N0200001N1+00191-00841104481ADDGA1001+999999999GF100991001001999999001001MD1810161+9999REMSYN054AAXX  10091 28952 42998 00000 10019 21084 40448 58016;
0153289520999992000111012004+53210+063610FM-12+015699999V0209999C000012200019N0200001N1+00191-00891104371ADDGA1001+999999999GF100991001001999999001001MA1999999102371MD1710111+9999REMSYN070AAXX  10121 28952 42998 00000 10019 21089 30237 40437 57011 555 1/104;
0175289520999992000111015004+53210+063610FM-12+015699999V0209999C000012200019N9999999N1-00571-01091104391ADDAA199000091GA1001+999999999GF100991001001999999001001KA1999M+00191MD1710041+9999REMSYN064AAXX  10151 28952 329// 00000 11057 21109 40439 57004 333 10019;EQDQ01  00002PRCP99
0175289520999992000111018004+53210+063610FM-12+015699999V0209999C000012200019N9999999N1-00851-01081104341ADDAA199000091GA1001+999999999GF100991001001999999001001KA1999M+00191MD1710061+9999REMSYN064AAXX  10181 28952 329// 00000 11085 21108 40434 57006 333 10019;EQDQ01  00002PRCP99
0122289520999992000111021004+53210+063610FM-12+015699999V0209999C000012200019N9999999N1-01011-01211104281ADDGA1001+999999999GF100991001001999999001001MD1710071+9999REMSYN054AAXX  10211 28952 429// 00000 11101 21121 40428 57007;
0153289520999992000111100004+53210+063610FM-12+015699999V0209999C000012200019N9999999N1-01091-01221104211ADDGA1001+999999999GF100991001001999999001001MA1999999102131MD1710071+9999REMSYN070AAXX  11001 28952 429// 00000 11109 21122 30213 40421 57007 555 1/114;
0186289520999992000111103004+53210+063610FM-12+015699999V0209999C000012200019N0200001N1-01171-01301104181ADDAA199000091GA1001+999999999GF100991001001999999001001GJ104689MD1710051+9999REMSYN080AAXX  11031 28952 32998 00000 11117 21130 40418 57005 333 55078 555 21117 7000/;EQDQ01  00002PRCP99
0175289520999992000111106004+53210+063610FM-12+015699999V0202701N001012200019N0200001N1-00601-00951104131ADDAA199000091GA1001+999999999GF100991001001999999001001KA1999N-01171MD1410001+9999REMSYN064AAXX  11061 28952 32998 02701 11060 21095 40413 54000 333 21117;EQDQ01  00002PRCP99
0122289520999992000111109004+53210+063610FM-12+015699999V0209999C000012200019N0200001N1+00271-00801103951ADDGA1001+999999999GF100991001001999999001001MD1810101+9999REMSYN054AAXX  11091 28952 42998 00000 10027 21080 40395 58010;
0153289520999992000111112004+53210+063610FM-12+015699999V0209999C000012200019N0200001N1+00301-00661103851ADDGA1001+999999999GF100991001001999999001001MA1999999101881MD1710101+9999REMSYN070AAXX  11121 28952 42998 00000 10030 21066 30188 40385 57010 555 1/008;
0175289520999992000111115004+53210+063610FM-12+015699999V0209999C000012200019N9999999N1-00531-01281103861ADDAA199000091GA1001+999999999GF100991001001999999001001KA1999M+00301MD1710071+9999REMSYN064AAXX  11151 28952 329// 00000 11053 21128 40386 57007 333 10030;EQDQ01  00002PRCP99
0175289520999992000111118004+53210+063610FM-12+015699999V0209999C000012200019N9999999N1-00891-01331103771ADDAA199000091GA1001+999999999GF100991001001999999001001KA1999M+00301MD1710091+9999REMSYN064AAXX  11181 28952 329// 00000 11089 21133 40377 57009 333 10030;EQDQ01  00002PRCP99
0122289520999992000111121004+53210+063610FM-12+015699999V0209999C000012200019N9999999N1-01041-01401103721ADDGA1001+999999999GF100991001001999999001001MD1710071+9999REMSYN054AAXX  11211 28952 429// 00000 11104 21140 40372 57007;
0153289520999992000111200004+53210+063610FM-12+015699999V0209999C000012200019N9999999N1-01141-01421103581ADDGA1001+999999999GF100991001001999999001001MA1999999101491MD1710161+9999REMSYN070AAXX  12001 28952 429// 00000 11114 21142 30149 40358 57016 555 1/116;
0176289520999992000111203004+53210+063610FM-12+015699999V0209999C000012200019N0200001N1-01291-01491103581ADDAA199000091GF101991001001999999001011GJ103909MD1410001+9999REMSYN086AAXX  12031 28952 32998 10000 11129 21149 40358 54000 80001 333 55065 555 21129 7000/;EQDQ01  00002PRCP99
0175289520999992000111206004+53210+063610FM-12+015699999V0209999C000012200019N0200001N1-00661-01161103481ADDAA199000091GA1001+999999999GF100991001001999999001001KA1999N-01291MD1810051+9999REMSYN064AAXX  12061 28952 32998 00000 11066 21116 40348 58005 333 21129;EQDQ01  00002PRCP99
0122289520999992000111209004+53210+063610FM-12+015699999V0209999C000012200019N0200001N1+00291-00851103261ADDGA1001+999999999GF100991001001999999001001MD1710141+9999REMSYN054AAXX  12091 28952 42998 00000 10029 21085 40326 57014;
0143289520999992000111212004+53210+063610FM-12+015699999V0209999C000012200019N0200001N1+00241-00951103191ADDGF102991001001999999001011MA1999999101221MD1710081+9999REMSYN076AAXX  12121 28952 42998 20000 10024 21095 30122 40319 57008 80001 555 1/104;
0165289520999992000111215004+53210+063610FM-12+015699999V0203401N001012200019N9999999N1-00521-01111103181ADDAA199000091GF102991001001999999001011KA1999M+00431MD1710051+9999REMSYN070AAXX  12151 28952 329// 23401 11052 21111 40318 57005 80001 333 10043;EQDQ01  00002PRCP99
0165289520999992000111218004+53210+063610FM-12+015699999V0209999C000012200019N9999999N1-00741-01181103181ADDAA199000091GF102991001001999999001011KA1999M+00431MD1710031+9999REMSYN070AAXX  12181 28952 329// 20000 11074 21118 40318 57003 80001 333 10043;EQDQ01  00002PRCP99
0112289520999992000111221004+53210+063610FM-12+015699999V0200501N001019999999N9999999N1-00851-01171103091ADDGF107991001001999999001011MD1710091+9999REMSYN060AAXX  12211 28952 429// 70501 11085 21117 40309 57009 80001;
0143289520999992000111300004+53210+063610FM-12+015699999V0209999C000012200019N9999999N1-00771-01221103041ADDGF103991001001999999001011MA1999999101001MD1710051+9999REMSYN076AAXX  13001 28952 429// 30000 11077 21122 30100 40304 57005 80001 555 1/113;
0176289520999992000111303004+53210+063610FM-12+015699999V0209999C000012200019N0200001N1-00851-01231103021ADDAA199000091GF102991001001999999001011GJ103909MD1710021+9999REMSYN086AAXX  13031 28952 32998 20000 11085 21123 40302 57002 80001 333 55065 555 21103 7000/;EQDQ01  00002PRCP99
0175289520999992000111306004+53210+063610FM-12+015699999V0209999C000012200019N0200001N1-00491-01071102971ADDAA199000091GA1001+999999999GF100991001001999999001001KA1999N-01031MD1710021+9999REMSYN064AAXX  13061 28952 32998 00000 11049 21107 40297 57002 333 21103;EQDQ01  00002PRCP99
0122289520999992000111309004+53210+063610FM-12+015699999V0201401N002012200019N0200001N1+00261-00771102841ADDGA1001+999999999GF100991001001999999001001MD1710091+9999REMSYN054AAXX  13091 28952 42998 01402 10026 21077 40284 57009;
0143289520999992000111312004+53210+063610FM-12+015699999V0201401N002012200019N0200001N1-00201-00911102881ADDGF102991001001999999001011MA1999999100881MD1310011+9999REMSYN076AAXX  13121 28952 42998 21402 11020 21091 30088 40288 53001 80001 555 1/105;
0165289520999992000111318004+53210+063610FM-12+015699999V0201401N002012200019N9999999N1-00711-00801102931ADDAA199000091GF101991001001999999001011KA1999M+00301MD1310021+9999REMSYN070AAXX  13181 28952 329// 11402 11071 21080 40293 53002 80001 333 10030;EQDQ01  00002PRCP99
0122289520999992000111321004+53210+063610FM-12+015699999V0201601N002012200019N9999999N1-00711-00801102971ADDGA1001+999999999GF100991001001999999001001MD1210041+9999REMSYN054AAXX  13211 28952 429// 01602 11071 21080 40297 52004;
0143289520999992000111400004+53210+063610FM-12+015699999V0201801N001012200019N9999999N1-00751-00841103001ADDGF102991021091008001001001MA1999999100961MD1210021+9999REMSYN076AAXX  14001 28952 425// 21801 11075 21084 30096 40300 52002 82900 555 1/110;
0176289520999992000111403004+53210+063610FM-12+015699999V0201401N002010075019N0200001N1-00361-00501102991ADDAA199000091GF108991081091008001999999GJ104809MD1210021+9999REMSYN086AAXX  14031 28952 32598 81402 11036 21050 40299 52002 889// 333 55080 555 21075 7000/;EQDQ01  00002PRCP99
0165289520999992000111406004+53210+063610FM-12+015699999V0201101N003010075019N0200001N1-00111-00241103031ADDAA199000091GF108991081091008001999999KA1999N-00751MD1210071+9999REMSYN070AAXX  14061 28952 32598 81103 11011 21024 40303 52007 889// 333 21075;EQDQ01  00002PRCP99
0112289520999992000111409004+53210+063610FM-12+015699999V0201101N005012200019N0200001N1+00241-00091103011ADDGF104991021051008001001011MD1810011+9999REMSYN060AAXX  14091 28952 42598 41105 10024 21009 40301 58001 82501;
0143289520999992000111412004+53210+063610FM-12+015699999V0200901N002010075019N0200001N1+00181-00191102981ADDGF108991081091008001999999MA1999999101011MD1710031+9999REMSYN076AAXX  14121 28952 42598 80902 10018 21019 30101 40298 57003 889// 555 1/000;
0165289520999992000111415004+53210+063610FM-12+015699999V0200901N006010075019N9999999N1+00041-00231102971ADDAA199000091GF108991081091008001999999KA1999M+00251MD1710021+9999REMSYN070AAXX  14151 28952 325// 80906 10004 21023 40297 57002 889// 333 10025;EQDQ01  00002PRCP99
0165289520999992000111418004+53210+063610FM-12+015699999V0200901N003010075019N9999999N1-00041-00321102971ADDAA199000091GF108991081091008001999999KA1999M+00251MD1410001+9999REMSYN070AAXX  14181 28952 325// 80903 11004 21032 40297 54000 889// 333 10025;EQDQ01  00002PRCP99
0112289520999992000111421004+53210+063610FM-12+015699999V0200901N002010075019N9999999N1-00121-00341102911ADDGF108991081091008001999999MD1810061+9999REMSYN060AAXX  14211 28952 425// 80902 11012 21034 40291 58006 889//;
0143289520999992000111500004+53210+063610FM-12+015699999V0200901N003010075019N9999999N1-00261-00451102871ADDGF108991081091008001999999MA1999999100871MD1710061+9999REMSYN076AAXX  15001 28952 425// 80903 11026 21045 30087 40287 57006 889// 555 1/103;
0176289520999992000111503004+53210+063610FM-12+015699999V0200201N002019999999N0200001N1-00571-00681102871ADDAA199000091GF108991081001999999011999GJ100189MD1710031+9999REMSYN086AAXX  15031 28952 32998 80202 11057 21068 40287 57003 8801/ 333 55003 555 21057 7000/;EQDQ01  00002PRCP99
0165289520999992000111506004+53210+063610FM-12+015699999V0203601N002019999999N0200001N1-00461-00701102771ADDAA199000091GF106991001001999999001011KA1999N-00571MD1710081+9999REMSYN070AAXX  15061 28952 32998 63602 11046 21070 40277 57008 80001 333 21057;EQDQ01  00002PRCP99
0112289520999992000111509004+53210+063610FM-12+015699999V0203201N003019999999N0200001N1-00311-00731102711ADDGF106991021001999999031011MD1710041+9999REMSYN060AAXX  15091 28952 42998 63203 11031 21073 40271 57004 82031;
0143289520999992000111512004+53210+063610FM-12+015699999V0203401N003010075019N0200001N1-00631-00751102661ADDGF108991081091008001999999MA1999999100641MD1710081+9999REMSYN076AAXX  15121 28952 42598 83403 11063 21075 30064 40266 57008 889// 555 1/105;
0165289520999992000111515004+53210+063610FM-12+015699999V0203601N002019999999N9999999N1-00751-00881102681ADDAA199000091GF105991051001999999031001KA1999M-00311MD1310011+9999REMSYN070AAXX  15151 28952 329// 53602 11075 21088 40268 53001 85030 333 11031;EQDQ01  00002PRCP99
0165289520999992000111518004+53210+063610FM-12+015699999V0203601N002012200019N9999999N1-01011-01071102681ADDAA199000091GF102991001001999999001011KA1999M-00311MD1810021+9999REMSYN070AAXX  15181 28952 329// 23602 11101 21107 40268 58002 80001 333 11031;EQDQ01  00002PRCP99
0122289520999992000111521004+53210+063610FM-12+015699999V0203601N003012200019N9999999N1-01121-01181102691ADDGA1001+999999999GF100991001001999999001001MD1410001+9999REMSYN054AAXX  15211 28952 429// 03603 11112 21118 40269 54000;
0143289520999992000111600004+53210+063610FM-12+015699999V0203401N003019999999N9999999N1-01131-01191102751ADDGF108991081001999999011999MA1999999100681MD1310051+9999REMSYN076AAXX  16001 28952 429// 83403 11113 21119 30068 40275 53005 8801/ 555 1/113;
0172289520999992000111603004+53210+063610FM-12+015699999V0203401N002019999999N9999999N1-01031-01091102821ADDAY171031AY221031GF108991081001999999011999MD1210081+9999MW1711REMSYN098AAXX  16031 28952 /19// 83402 11103 21109 40282 52008 77172 8801/ 333 55043 555 21114 69902 7990/;
0180289520999992000111606004+53210+063610FM-12+015699999V0203401N001019999999N0100001N1-01001-01061102761ADDAA100000791AY171061AY221061GF108991081001999999021999KA1999N-01141MD1210091+9999MW1711REMSYN082AAXX  16061 28952 11997 83401 11100 21106 40276 52009 69900 77172 8802/ 333 21114;
0140289520999992000111609004+53210+063610FM-12+015699999V0202901N001019999999N0200001N1-00771-00871102891ADDAY171031AY221031GF108991081001999999021999MD1410001+9999MW1021REMSYN066AAXX  16091 28952 41998 82901 11077 21087 40289 54000 70272 8802/;
0171289520999992000111612004+53210+063610FM-12+015699999V0209999C000019999999N0200001N1-00631-00671102881ADDAY171061AY221061GF107991071001999999051999MA1999999100851MD1410001+9999MW1021REMSYN082AAXX  16121 28952 41998 70000 11063 21067 30085 40288 54000 70272 8705/ 555 1/106;
0145289520999992000111615004+53210+063610FM-12+015699999V0209999C000019999999N9999999N1-00631-00671102791ADDGF106991061001999999031001KA1120M-00631MD1810091+9999REMSYN080AAXX  16151 28952 /29// 60000 11063 21067 40279 58009 86030 333 11063 555 69902;
0171289520999992000111618004+53210+063610FM-12+015699999V0209999C000019999999N9999999N1-00461-00491102711ADDAA100000791GF107991071001999999051999KA1999M+99999MD1710051+9999REMSYN076AAXX  16181 28952 129// 70000 11046 21049 40271 57005 69900 8705/ 333 11063;EQDQ01 -00632ATMX  
0140289520999992000111621004+53210+063610FM-12+015699999V0202301N002010075019N9999999N1-00201+99999102701ADDAY181031AY221031GF108991081091008001999999MD1410001+9999MW1851REMSYN066AAXX  16211 28952 415// 82302 11020 20023 40270 54000 78582 889//;
0171289520999992000111700004+53210+063610FM-12+015699999V0202901N004010075019N9999999N1-00181-00201102351ADDAY181061AY221061GF108991081091008001999999MA1999999100361MD1810351+9999MW1851REMSYN082AAXX  17001 28952 415// 82904 11018 21020 30036 40235 58035 78582 889// 555 1/104;
0220289520999992000111703004+53210+063610FM-12+015699999V0202501N005010075019N9999999N1-00111-00301102051ADDAA112003091AJ100029199999999AY181031AY221031GF108991081091008001999999GJ100009IA1259MD1710271+9999MW1021REMSYN104AAXX  17031 28952 /15// 82505 11011 21030 40205 57027 70282 889// 333 41002 55000 555 21063 60032 7003/;
0180289520999992000111706004+53210+063610FM-12+015699999V0202501N005010075019N0200001N1+00051-00291102121ADDAA100003091AY181061AY221061GF108991081091008001999999KA1999N-00631MD1310071+9999MW1021REMSYN082AAXX  17061 28952 /1598 82505 10005 21029 40212 53007 60030 70282 889// 333 21063;
0112289520999992000111709004+53210+063610FM-12+015699999V0202701N005010075019N0200001N1+00231-00201102261ADDGF108991081091008001999999MD1210141+9999REMSYN060AAXX  17091 28952 42598 82705 10023 21020 40226 52014 889//;
0143289520999992000111712004+53210+063610FM-12+015699999V0202301N004010075019N0200001N1+00161-00151102291ADDGF108991081091008001999999MA1999999100331MD1210031+9999REMSYN076AAXX  17121 28952 42598 82304 10016 21015 30033 40229 52003 889// 555 1/000;
0173289520999992000111715004+53210+063610FM-12+015699999V0202001N002010075019N9999999N1-00041-00101102311ADDAY121031AY221031GF108991081091008001999999KA1120M+00231MD1210011+9999MW1851REMSYN086AAXX  17151 28952 /15// 82002 11004 21010 40231 52001 78522 889// 333 10023 555 69932;
0180289520999992000111718004+53210+063610FM-12+015699999V0202001N002010075019N9999999N1-00051-00261102121ADDAA100000391AY181061AY281061GF108991081091008001999999KA1999M+00231MD1810181+9999MW1021REMSYN082AAXX  17181 28952 115// 82002 11005 21026 40212 58018 69930 70288 889// 333 10023;
0143289520999992000111800004+53210+063610FM-12+015699999V0202001N008010075019N9999999N1-00191-00501101961ADDGF108991081091008001999999MA1999999099981MD1710041+9999REMSYN076AAXX  18001 28952 425// 82008 11019 21050 39998 40196 57004 889// 555 1/103;
0194289520999992000111803004+53210+063610FM-12+015699999V0202001N008010075019N9999999N1-00121-00381101771ADDAA112000391AA224069991AY181031AY221031GF108991081091008001999999MD1710171+9999MW1021REMSYN098AAXX  18031 28952 /15// 82008 11012 21038 40177 57017 70282 889// 333 78005 555 21019 69932 7001/;
0180289520999992000111806004+53210+063610FM-12+015699999V0202301N005010075019N0200001N1+00081-00211101791ADDAA100000391AY181061AY221061GF108991081091008001999999KA1999N-00191MD1310031+9999MW1021REMSYN082AAXX  18061 28952 11598 82305 10008 21021 40179 53003 69930 70282 889// 333 21019;
0112289520999992000111809004+53210+063610FM-12+015699999V0202301N004010075019N0200001N1+00221-00181101801ADDGF108991081091008001999999MD1210011+9999REMSYN060AAXX  18091 28952 42598 82304 10022 21018 40180 52001 889//;
0143289520999992000111812004+53210+063610FM-12+015699999V0202301N004010075019N0200001N1+00201-00111101801ADDGF107991071091008001001001MA1999999099851MD1410001+9999REMSYN076AAXX  18121 28952 42598 72304 10020 21011 39985 40180 54000 87900 555 1/000;
0175289520999992000111815004+53210+063610FM-12+015699999V0202501N003012200019N9999999N1-00021-00231101881ADDAA199000091GA1001+999999999GF100991001001999999001001KA1999M+00201MD1310071+9999REMSYN064AAXX  18151 28952 329// 02503 11002 21023 40188 53007 333 10020;EQDQ01  00002PRCP99
0165289520999992000111818004+53210+063610FM-12+015699999V0202301N002010075019N9999999N1-00181-00301101921ADDAA199000091GF107991071091008001001001KA1999M+00251MD1210021+9999REMSYN070AAXX  18181 28952 325// 72302 11018 21030 40192 52002 87900 333 10025;EQDQ01  00002PRCP99
0140289520999992000111821004+53210+063610FM-12+015699999V0201801N002010075019N9999999N1-00221-00351101901ADDAY181031AY221031GF108991081091008001999999MD1810021+9999MW1851REMSYN066AAXX  18211 28952 415// 81802 11022 21035 40190 58002 78582 889//;
0171289520999992000111900004+53210+063610FM-12+015699999V0209999C000010075019N9999999N1-00281-00381101861ADDAY181061AY221061GF108991081091008001999999MA1999999099881MD1710041+9999MW1021REMSYN082AAXX  19001 28952 415// 80000 11028 21038 39988 40186 57004 70282 889// 555 1/104;
0192289520999992000111903004+53210+063610FM-12+015699999V0209999C000010075019N9999999N1-00271-00401101861ADDAA112000021AJ100019199999999GF108991081091008001999999GJ100009IA1309MD1410001+9999REMSYN098AAXX  19031 28952 325// 80000 11027 21040 40186 54000 889// 333 42001 55000 555 21028 69902 7990/;
0180289520999992000111906004+53210+063610FM-12+015699999V0209999C000010075019N0040001N1-00271-00301101931ADDAA100000791AY181061AY221061GF108991081091008001999999KA1999N-00281MD1310071+9999MW1851REMSYN082AAXX  19061 28952 11596 80000 11027 21030 40193 53007 69900 78582 889// 333 21028;
0140289520999992000111909004+53210+063610FM-12+015699999V0203201N006012200019N0200001N1-00491-00941102091ADDAY181031AY211031GF103991031001999999031001MD1210151+9999MW1011REMSYN066AAXX  19091 28952 41998 33206 11049 21094 40209 52015 70181 83030;
0161289520999992000111912004+53210+063610FM-12+015699999V0203201N002012200019N0200001N1-00631-01131102291ADDAY181061AY211061GA1001+999999999GF100991001001999999001001MA1999999100271MW1021REMSYN070AAXX  19121 28952 41998 03202 11063 21113 30027 40229 70281 555 1/110;
0155289520999992000111915004+53210+063610FM-12+015699999V0209999C000012200019N9999999N1-00911-01251102391ADDGA1001+999999999GF100991001001999999001001KA1120M-00271MD1210091+9999REMSYN074AAXX  19151 28952 /29// 00000 11091 21125 40239 52009 333 11027 555 69902;
0162289520999992000111918004+53210+063610FM-12+015699999V0209999C000012200019N9999999N1-00911-01301102491ADDAA100000791GA1001+999999999GF100991001001999999001001KA1999M-00271MD1210101+9999REMSYN070AAXX  19181 28952 129// 00000 11091 21130 40249 52010 69900 333 11027;
0122289520999992000111921004+53210+063610FM-12+015699999V0209999C000012200019N9999999N1-00971-01331102491ADDGA1001+999999999GF100991001001999999001001MD1810021+9999REMSYN054AAXX  19211 28952 429// 00000 11097 21133 40249 58002;
0143289520999992000112000004+53210+063610FM-12+015699999V0201801N002019999999N9999999N1-01031-01311102531ADDGF108991081001999999011999MA1999999100481MD1310041+9999REMSYN076AAXX  20001 28952 429// 81802 11103 21131 30048 40253 53004 8801/ 555 1/110;
0205289520999992000112003004+53210+063610FM-12+015699999V0201801N002019999999N9999999N1-01051-01251102471ADDAA199000091AJ100069199999999GF106991061051999999001001GJ101629IA1239MD1810061+9999REMSYN092AAXX  20031 28952 329// 61802 11105 21125 40247 58006 86500 333 47006 55027 555 21113 7990/;EQDQ01  00002PRCP99
0174289520999992000112006004+53210+063610FM-12+015699999V0202301N001019999999N0040001N1-00951-01111102371ADDAA199000021AY171061AY221061GF108991081001999999021999KA1999N-01131MD1710101+9999MW1711REMSYN076AAXX  20061 28952 31996 82301 11095 21111 40237 57010 77172 8802/ 333 21113;
0150289520999992000112009004+53210+063610FM-12+015699999V0201801N001012200019N0200001N1-00591-00811102121ADDAY171031AY211031GA1001+999999999GF100991001001999999001001MD1710211+9999MW1011REMSYN060AAXX  20091 28952 41998 01801 11059 21081 40212 57021 70171;
0171289520999992000112012004+53210+063610FM-12+015699999V0209999C000010075019N0200001N1-00771-00911102121ADDAY171061AY211061GF108991051001008001021999MA1999999100101MD1410001+9999MW1031REMSYN082AAXX  20121 28952 41598 80000 11077 21091 30010 40212 54000 70371 8502/ 555 1/109;
0145289520999992000112015004+53210+063610FM-12+015699999V0209999C000010075019N9999999N1-00691-00811102111ADDGF107991071051008001999999KA1120M-00591MD1410001+9999REMSYN080AAXX  20151 28952 /25// 70000 11069 21081 40211 54000 875// 333 11059 555 60012;
0190289520999992000112018004+53210+063610FM-12+015699999V0209999C000012200019N9999999N1-00811-00871102151ADDAA100001091AY171061AY211061GA1001+999999999GF100991001001999999001001KA1999M-00591MD1310021+9999MW1761REMSYN076AAXX  20181 28952 119// 00000 11081 21087 40215 53002 60010 77671 333 11059;
0140289520999992000112021004+53210+063610FM-12+015699999V0203601N002019999999N9999999N1-00931-01001102201ADDAY171031AY211031GF108991081001999999021999MD1210041+9999MW1031REMSYN066AAXX  20211 28952 419// 83602 11093 21100 40220 52004 70371 8802/;
0171289520999992000112100004+53210+063610FM-12+015699999V0203601N003019999999N9999999N1-01311-01441102371ADDAY171061AY211061GF108991081001999999021999MA1999999100301MD1210131+9999MW1021REMSYN082AAXX  21001 28952 419// 83603 11131 21144 30030 40237 52013 70271 8802/ 555 1/114;
0213289520999992000112103004+53210+063610FM-12+015699999V0203601N003012200019N9999999N1-01741-01931102571ADDAA112000491AA299000021AJ100079199999999GA1001+999999999GF100991001001999999001001GJ100789IA1239MD1210161+9999REMSYN092AAXX  21031 28952 329// 03603 11174 21193 40257 52016 333 47007 55013 555 21174 69942 7002/;
0181289520999992000112106004+53210+063610FM-12+015699999V0203601N003012200019N0200001N1-01971-02231102791ADDAA100000591GA1001+999999999GF100991001001999999001001KA1999N+99999MD1210201+9999REMSYN070AAXX  21061 28952 12998 03603 11197 21223 40279 52020 69940 333 21174;EQDQ01 -01742ATMN  
0122289520999992000112109004+53210+063610FM-12+015699999V0203601N002012200019N0200001N1-01781-02111102821ADDGA1001+999999999GF100991001001999999001001MD1210051+9999REMSYN054AAXX  21091 28952 42998 03602 11178 21211 40282 52005;
0153289520999992000112112004+53210+063610FM-12+015699999V0203601N002012200019N0200001N1-01871-02201102921ADDGA1001+999999999GF100991001001999999001001MA1999999100791MD1210081+9999REMSYN070AAXX  21121 28952 42998 03602 11187 21220 30079 40292 52008 555 1/120;
0175289520999992000112115004+53210+063610FM-12+015699999V0203601N001012200019N9999999N1-02191-02441103051ADDAA199000091GA1001+999999999GF100991001001999999001001KA1999M-01741MD1210101+9999REMSYN064AAXX  21151 28952 329// 03601 11219 21244 40305 52010 333 11174;EQDQ01  00002PRCP99
0175289520999992000112118004+53210+063610FM-12+015699999V0203601N001012200019N9999999N1-02341-02591103151ADDAA199000091GA1001+999999999GF100991001001999999001001KA1999M-01741MD1210081+9999REMSYN064AAXX  21181 28952 329// 03601 11234 21259 40315 52008 333 11174;EQDQ01  00002PRCP99
0122289520999992000112121004+53210+063610FM-12+015699999V0209999C000012200019N9999999N1-02431-02611103211ADDGA1001+999999999GF100991001001999999001001MD1210061+9999REMSYN054AAXX  21211 28952 429// 00000 11243 21261 40321 52006;
0153289520999992000112200004+53210+063610FM-12+015699999V0209999C000012200019N9999999N1-02461-02631103271ADDGA1001+999999999GF100991001001999999001001MA1999999101091MD1210061+9999REMSYN070AAXX  22001 28952 429// 00000 11246 21263 30109 40327 52006 555 1/126;
0165289520999992000112206004+53210+063610FM-12+015699999V0203401N003012200019N0200001N1-02141-02471103441ADDAA199000091GF102991021001999999031001KA1999N-02461MD1210131+9999REMSYN070AAXX  22061 28952 32998 23403 11214 21247 40344 52013 82030 333 21246;EQDQ01  00002PRCP99
0122289520999992000112209004+53210+063610FM-12+015699999V0203401N003012200019N0200001N1-01891-02291103491ADDGA1001+999999999GF100991001001999999001001MD1210081+9999REMSYN054AAXX  22091 28952 42998 03403 11189 21229 40349 52008;
0153289520999992000112212004+53210+063610FM-12+015699999V0203401N002012200019N0200001N1-01991-02321103571ADDGA1001+999999999GF100991001001999999001001MA1999999101421MD1210071+9999REMSYN070AAXX  22121 28952 42998 03402 11199 21232 30142 40357 52007 555 1/121;
0175289520999992000112215004+53210+063610FM-12+015699999V0203401N003012200019N9999999N1-02241-02491103721ADDAA199000091GA1001+999999999GF100991001001999999001001KA1999M-01891MD1210131+9999REMSYN064AAXX  22151 28952 329// 03403 11224 21249 40372 52013 333 11189;EQDQ01  00002PRCP99
0161289520999992000112218004+53210+063610FM-12+015699999V0209999C000012200019N9999999N1-02391-02571103821ADDAA199000091GA1001+999999999GF100991001001999999001001MD1210081+9999REMSYN063AAXX  22181 28952 329// 00000 11239 21257 40382 52008 333 1189;EQDQ01  00002PRCP99
0122289520999992000112221004+53210+063610FM-12+015699999V0209999C000012200019N9999999N1-02391-02641103871ADDGA1001+999999999GF100991001001999999001001MD1210051+9999REMSYN054AAXX  22211 28952 429// 00000 11239 21264 40387 52005;
0153289520999992000112300004+53210+063610FM-12+015699999V0202701N001012200019N9999999N1-02441-02691103921ADDGA1001+999999999GF100991001001999999001001MA1999999101731MD1210051+9999REMSYN070AAXX  23001 28952 429// 02701 11244 21269 30173 40392 52005 555 1/127;
0215289520999992000112303004+53210+063610FM-12+015699999V0202701N001012200019N9999999N1-02431-02681103921ADDAA199000091AJ100079199999999GA1001+999999999GF100991001001999999001001GJ103549IA1239MD1410001+9999REMSYN086AAXX  23031 28952 329// 02701 11243 21268 40392 54000 333 47007 55059 555 21250 7000/;EQDQ01  00002PRCP99
0175289520999992000112306004+53210+063610FM-12+015699999V0201801N003012200019N0200001N1-02051-02301104001ADDAA199000091GA1001+999999999GF100991001001999999001001KA1999N-02501MD1310111+9999REMSYN064AAXX  23061 28952 32998 01803 11205 21230 40400 53011 333 21250;EQDQ01  00002PRCP99
0122289520999992000112309004+53210+063610FM-12+015699999V0201801N003012200019N0200001N1-01421-01931103841ADDGA1001+999999999GF100991001001999999001001MD1810101+9999REMSYN054AAXX  23091 28952 42998 01803 11142 21193 40384 58010;
0122289520999992000112312004+53210+063610FM-12+015699999V0201801N003012200019N0200001N1-01421-01931103841ADDGA1001+999999999GF100991001001999999001001MD1810101+9999REMSYN054AAXX  23121 28952 42998 01803 11142 21193 40384 58010;
0175289520999992000112315004+53210+063610FM-12+015699999V0201801N003012200019N9999999N1-01661-02001103841ADDAA199000091GA1001+999999999GF100991001001999999001001KA1999M-01421MD1310011+9999REMSYN064AAXX  23151 28952 329// 01803 11166 21200 40384 53001 333 11142;EQDQ01  00002PRCP99
0175289520999992000112318004+53210+063610FM-12+015699999V0201801N003012200019N9999999N1-01801-02061103961ADDAA199000091GA1001+999999999GF100991001001999999001001KA1999M-01421MD1410001+9999REMSYN064AAXX  23181 28952 329// 01803 11180 21206 40396 54000 333 11142;EQDQ01  00002PRCP99
0122289520999992000112321004+53210+063610FM-12+015699999V0201801N003012200019N9999999N1-01881-02141103861ADDGA1001+999999999GF100991001001999999001001MD1410001+9999REMSYN054AAXX  23211 28952 429// 01803 11188 21214 40386 54000;
0153289520999992000112400004+53210+063610FM-12+015699999V0201801N003012200019N9999999N1-01961-02221103871ADDGA1001+999999999GF100991001001999999001001MA1999999101721MD1410001+9999REMSYN070AAXX  24001 28952 429// 01803 11196 21222 30172 40387 54000 555 1/120;
0205289520999992000112403004+53210+063610FM-12+015699999V0201801N003012200019N9999999N1-02051-02301103821ADDAA199000091AJ100079199999999GF104991001001999999001011GJ103549IA1239MD1810051+9999REMSYN092AAXX  24031 28952 329// 41803 11205 21230 40382 58005 80001 333 47007 55059 555 21205 7000/;EQDQ01  00002PRCP99
0175289520999992000112406004+53210+063610FM-12+015699999V0209999C000012200019N0200001N1-01681-02021103891ADDAA199000091GA1001+999999999GF100991001001999999001001KA1999N-02051MD1310091+9999REMSYN064AAXX  24061 28952 32998 00000 11168 21202 40389 53009 333 21205;EQDQ01  00002PRCP99
0112289520999992000112409004+53210+063610FM-12+015699999V0209999C000012200019N0200001N1-01011-01741103771ADDGF102991001001999999001011MD1810061+9999REMSYN060AAXX  24091 28952 42998 20000 11101 21174 40377 58006 80001;
0153289520999992000112412004+53210+063610FM-12+015699999V0209999C000012200019N0200001N1-01381-01901103801ADDGA1001+999999999GF100991001001999999001001MA1999999101701MD1410001+9999REMSYN070AAXX  24121 28952 42998 00000 11138 21190 30170 40380 54000 555 1/120;
0175289520999992000112415004+53210+063610FM-12+015699999V0209999C000012200019N9999999N1-01771-02031103871ADDAA199000091GA1001+999999999GF100991001001999999001001KA1999M-00901MD1310031+9999REMSYN064AAXX  24151 28952 329// 00000 11177 21203 40387 53003 333 11090;EQDQ01  00002PRCP99
0175289520999992000112418004+53210+063610FM-12+015699999V0209999C000012200019N9999999N1-01801-02061103861ADDAA199000091GA1001+999999999GF100991001001999999001001KA1999M-00901MD1810011+9999REMSYN064AAXX  24181 28952 329// 00000 11180 21206 40386 58001 333 11090;EQDQ01  00002PRCP99
0122289520999992000112421004+53210+063610FM-12+015699999V0209999C000012200019N9999999N1-01911-02171103881ADDGA1001+999999999GF100991001001999999001001MD1310011+9999REMSYN054AAXX  24211 28952 429// 00000 11191 21217 40388 53001;
0153289520999992000112500004+53210+063610FM-12+015699999V0209999C000012200019N9999999N1-02131-02381103891ADDGA1001+999999999GF100991001001999999001001MA1999999101721MD1810011+9999REMSYN070AAXX  25001 28952 429// 00000 11213 21238 30172 40389 58001 555 1/124;
0215289520999992000112503004+53210+063610FM-12+015699999V0209999C000012200019N9999999N1-02111-02291103881ADDAA199000091AJ100079199999999GA1001+999999999GF100991001001999999001001GJ104149IA1279MD1410001+9999REMSYN086AAXX  25031 28952 329// 00000 11211 21229 40388 54000 333 43007 55069 555 21219 7000/;EQDQ01  00002PRCP99
0175289520999992000112506004+53210+063610FM-12+015699999V0209999C000012200019N0200001N1-01541-01881103811ADDAA199000091GA1001+999999999GF100991001001999999001001KA1999N-02191MD1810031+9999REMSYN064AAXX  25061 28952 32998 00000 11154 21188 40381 58003 333 21219;EQDQ01  00002PRCP99
0122289520999992000112509004+53210+063610FM-12+015699999V0209999C000012200019N0200001N1-00731-01491103741ADDGA1001+999999999GF100991001001999999001001MD1710061+9999REMSYN054AAXX  25091 28952 42998 00000 11073 21149 40374 57006;
0153289520999992000112512004+53210+063610FM-12+015699999V0209999C000012200019N0200001N1-00801-01481103671ADDGA1001+999999999GF100991001001999999001001MA1999999101621MD1710011+9999REMSYN070AAXX  25121 28952 42998 00000 11080 21148 30162 40367 57001 555 1/109;
0175289520999992000112515004+53210+063610FM-12+015699999V0209999C000012200019N9999999N1-01421-01691103671ADDAA199000091GA1001+999999999GF100991001001999999001001KA1999M-00731MD1710051+9999REMSYN064AAXX  25151 28952 329// 00000 11142 21169 40367 57005 333 11073;EQDQ01  00002PRCP99
0175289520999992000112518004+53210+063610FM-12+015699999V0209999C000012200019N9999999N1-01591-01781103651ADDAA199000091GA1001+999999999GF100991001001999999001001KA1999M-00731MD1710041+9999REMSYN064AAXX  25181 28952 329// 00000 11159 21178 40365 57004 333 11073;EQDQ01  00002PRCP99
0122289520999992000112521004+53210+063610FM-12+015699999V0209999C000012200019N9999999N1-01701-01891103561ADDGA1001+999999999GF100991001001999999001001MD1710091+9999REMSYN054AAXX  25211 28952 429// 00000 11170 21189 40356 57009;
0153289520999992000112600004+53210+063610FM-12+015699999V0202001N002012200019N9999999N1-01831-02021103541ADDGA1001+999999999GF100991001001999999001001MA1999999101401MD1710041+9999REMSYN070AAXX  26001 28952 429// 02002 11183 21202 30140 40354 57004 555 1/124;
0205289520999992000112603004+53210+063610FM-12+015699999V0202001N001012200019N9999999N1-01941-02131103491ADDAA199000091AJ100079199999999GF101991001001999999001011GJ104329IA1279MD1710061+9999REMSYN092AAXX  26031 28952 329// 12001 11194 21213 40349 57006 80001 333 43007 55072 555 21194 7000/;EQDQ01  00002PRCP99
0165289520999992000112606004+53210+063610FM-12+015699999V0201801N001010075019N0200001N1-01631-01891103431ADDAA199000091GF107991051051008001001021KA1999N-01941MD1710031+9999REMSYN070AAXX  26061 28952 32598 71801 11163 21189 40343 57003 85502 333 21194;EQDQ01  00002PRCP99
0112289520999992000112609004+53210+063610FM-12+015699999V0202001N001010075019N0200001N1-00961-01481103251ADDGF108991051051008001001091MD1710121+9999REMSYN060AAXX  26091 28952 42598 82001 11096 21148 40325 57012 85509;
0153289520999992000112612004+53210+063610FM-12+015699999V0201801N001012200019N0200001N1-01021-01551103161ADDGA1001+999999999GF100991001001999999001001MA1999999101101MD1710091+9999REMSYN070AAXX  26121 28952 42998 01801 11102 21155 30110 40316 57009 555 1/117;
0175289520999992000112615004+53210+063610FM-12+015699999V0201801N001012200019N9999999N1-00941-01341103131ADDAA199000091GA1001+999999999GF100991001001999999001001KA1999M-00941MD1710031+9999REMSYN064AAXX  26151 28952 329// 01801 11094 21134 40313 57003 333 11094;EQDQ01  00002PRCP99
0165289520999992000112618004+53210+063610FM-12+015699999V0202001N001019999999N9999999N1-01041-01321103071ADDAA199000091GF106991001001999999001091KA1999M-00941MD1710061+9999REMSYN070AAXX  26181 28952 329// 62001 11104 21132 40307 57006 80009 333 11094;EQDQ01  00002PRCP99
0122289520999992000112621004+53210+063610FM-12+015699999V0209999C000012200019N9999999N1-01291-01421103061ADDGA1001+999999999GF100991001001999999001001MD1710031+9999REMSYN054AAXX  26211 28952 429// 00000 11129 21142 40306 57003;
0153289520999992000112700004+53210+063610FM-12+015699999V0209999C000012200019N9999999N1-01551-01681103041ADDGA1001+999999999GF100991001001999999001001MA1999999100931MD1710051+9999REMSYN070AAXX  27001 28952 429// 00000 11155 21168 30093 40304 57005 555 1/119;
0215289520999992000112703004+53210+063610FM-12+015699999V0209999C000012200019N9999999N1-01821-01941103061ADDAA199000091AJ100079199999999GA1001+999999999GF100991001001999999001001GJ100549IA1279MD1410001+9999REMSYN086AAXX  27031 28952 329// 00000 11182 21194 40306 54000 333 43007 55009 555 21182 7000/;EQDQ01  00002PRCP99
0175289520999992000112706004+53210+063610FM-12+015699999V0209999C000012200019N0200001N1-01511-01701103121ADDAA199000091GA1001+999999999GF100991001001999999001001KA1999N-01821MD1310101+9999REMSYN064AAXX  27061 28952 32998 00000 11151 21170 40312 53010 333 21182;EQDQ01  00002PRCP99
0122289520999992000112709004+53210+063610FM-12+015699999V0209999C000012200019N0200001N1-00971-01551103061ADDGA1001+999999999GF100991001001999999001001MD1810031+9999REMSYN054AAXX  27091 28952 42998 00000 11097 21155 40306 58003;
0153289520999992000112712004+53210+063610FM-12+015699999V0209999C000012200019N0200001N1-01231-01661103021ADDGA1001+999999999GF100991001001999999001001MA1999999100941MD1710061+9999REMSYN070AAXX  27121 28952 42998 00000 11123 21166 30094 40302 57006 555 1/118;
0175289520999992000112715004+53210+063610FM-12+015699999V0209999C000012200019N9999999N1-01641-01831102981ADDAA199000091GA1001+999999999GF100991001001999999001001KA1999M-00861MD1710071+9999REMSYN064AAXX  27151 28952 329// 00000 11164 21183 40298 57007 333 11086;EQDQ01  00002PRCP99
0175289520999992000112718004+53210+063610FM-12+015699999V0202001N001012200019N9999999N1-01781-01971102901ADDAA199000091GA1001+999999999GF100991001001999999001001KA1999M-00861MD1710101+9999REMSYN064AAXX  27181 28952 329// 02001 11178 21197 40290 57010 333 11086;EQDQ01  00002PRCP99
0122289520999992000112721004+53210+063610FM-12+015699999V0201801N001012200019N9999999N1-01831-01951102731ADDGA1001+999999999GF100991001001999999001001MD1710151+9999REMSYN054AAXX  27211 28952 429// 01801 11183 21195 40273 57015;
0153289520999992000112800004+53210+063610FM-12+015699999V0209999C000012200019N9999999N1-01941-02131102521ADDGA1001+999999999GF100991001001999999001001MA1999999100391MD1710231+9999REMSYN070AAXX  28001 28952 429// 00000 11194 21213 30039 40252 57023 555 1/122;
0215289520999992000112803004+53210+063610FM-12+015699999V0201801N002012200019N9999999N1-01921-02041102331ADDAA199000091AJ100079199999999GA1001+999999999GF100991001001999999001001GJ103189IA1279MD1710181+9999REMSYN086AAXX  28031 28952 329// 01802 11192 21204 40233 57018 333 43007 55053 555 21194 7000/;EQDQ01  00002PRCP99
0165289520999992000112806004+53210+063610FM-12+015699999V0202301N003012200019N0200001N1-01471-01531102091ADDAA199000091GF101991001001999999001011KA1999N-01941MD1710191+9999REMSYN070AAXX  28061 28952 32998 12303 11147 21153 40209 57019 80001 333 21194;EQDQ01  00002PRCP99
0112289520999992000112809004+53210+063610FM-12+015699999V0201801N003019999999N0200001N1-00631-01081101731ADDGF107991001001999999001011MD1710291+9999REMSYN060AAXX  28091 28952 42998 71803 11063 21108 40173 57029 80001;
0143289520999992000112812004+53210+063610FM-12+015699999V0202001N003010075019N0200001N1-00751-01151101531ADDGF107991071051008001001001MA1999999099521MD1710211+9999REMSYN076AAXX  28121 28952 42598 72003 11075 21115 39952 40153 57021 87500 555 1/109;
0180289520999992000112815004+53210+063610FM-12+015699999V0203201N002010075019N9999999N1-00511-00701101431ADDAA112000791AY171031AY221031GF107991071051008001999999KA1120M-00511MD1710071+9999MW1711REMSYN082AAXX  28151 28952 /15// 73202 11051 21070 40143 57007 77172 875// 333 11051 69902;
0180289520999992000112818004+53210+063610FM-12+015699999V0203401N005019999999N9999999N1-00691-00981101501ADDAA100000791AY171061AY221061GF108991081001999999021999KA1999M-00511MD1310051+9999MW1021REMSYN082AAXX  28181 28952 119// 83405 11069 21098 40150 53005 69900 70272 8802/ 333 11051;
0140289520999992000112821004+53210+063610FM-12+015699999V0203401N005019999999N9999999N1-00751-00881101651ADDAY171031AY221031GF108991081001999999021999MD1210141+9999MW1711REMSYN066AAXX  28211 28952 419// 83405 11075 21088 40165 52014 77172 8802/;
0171289520999992000112900004+53210+063610FM-12+015699999V0203401N005019999999N9999999N1-00711-00921101691ADDAY171061AY231061GF108991081001999999021999MA1999999099691MD1210051+9999MW1711REMSYN082AAXX  29001 28952 419// 83405 11071 21092 39969 40169 52005 77173 8802/ 555 1/109;
0220289520999992000112903004+53210+063610FM-12+015699999V0203201N006019999999N9999999N1-00871-01061101991ADDAA112000391AJ100079199999999AY171031AY231031GF107991071001999999051001GJ103069IA1239MD1210281+9999MW1361REMSYN104AAXX  29031 28952 /19// 73206 11087 21106 40199 52028 73673 87050 333 47007 55051 555 21087 69932 7993/;
0190289520999992000112906004+53210+063610FM-12+015699999V0203401N004012200019N0200001N1-00851-01131102451ADDAA100000391AY171061AY231061GA1001+999999999GF100991001001999999001001KA1999N-00871MD1210451+9999MW1361REMSYN076AAXX  29061 28952 11998 03404 11085 21113 40245 52045 69930 73673 333 21087;
0150289520999992000112909004+53210+063610FM-12+015699999V0203401N005012200019N0200001N1-00891-01331102841ADDAY131031AY201031GA1001+999999999GF100991001001999999001001MD1210381+9999MW1021REMSYN060AAXX  29091 28952 41998 03405 11089 21133 40284 52038 70230;
0181289520999992000112912004+53210+063610FM-12+015699999V0209999C000012200019N0200001N1-01231-01581103151ADDAY131061AY201061GA1001+999999999GF100991001001999999001001MA1999999101071MD1210271+9999MW1021REMSYN076AAXX  29121 28952 41998 00000 11123 21158 30107 40315 52027 70230 555 1/116;
0165289520999992000112915004+53210+063610FM-12+015699999V0209999C000019999999N9999999N1-01561-01751103391ADDAA199000091GF107991071091999999001001KA1999M-00801MD1210201+9999REMSYN070AAXX  29151 28952 329// 70000 11156 21175 40339 52020 87900 333 11080;EQDQ01  00002PRCP99
0175289520999992000112918004+53210+063610FM-12+015699999V0201801N002012200019N9999999N1-01501-01701103401ADDAA199000091GA1001+999999999GF100991001001999999001001KA1999M-00801MD1210031+9999REMSYN064AAXX  29181 28952 329// 01802 11150 21170 40340 52003 333 11080;EQDQ01  00002PRCP99
0112289520999992000112921004+53210+063610FM-12+015699999V0201801N002012200019N9999999N1-01291-01491103251ADDGF102991021091008001001001MD1810131+9999REMSYN060AAXX  29211 28952 425// 21802 11129 21149 40325 58013 82900;
0153289520999992000113000004+53210+063610FM-12+015699999V0201801N003012200019N9999999N1-01111-01311103131ADDGA1001+999999999GF100991001001999999001001MA1999999101071MD1710101+9999REMSYN070AAXX  30001 28952 429// 01803 11111 21131 30107 40313 57010 555 1/113;
0205289520999992000113003004+53210+063610FM-12+015699999V0201801N003010075019N9999999N1-01171-01301103151ADDAA199000091AJ100089199999999GF107991071091008001001001GJ103609IA1239MD1410001+9999REMSYN092AAXX  30031 28952 325// 71803 11117 21130 40315 54000 87900 333 47008 55060 555 21159 7000/;EQDQ01  00002PRCP99
0165289520999992000113006004+53210+063610FM-12+015699999V0202001N004010075019N0200001N1-00881-00991103091ADDAA199000091GF107991071091008001001001KA1999N-01591MD1810021+9999REMSYN070AAXX  30061 28952 32598 72004 11088 21099 40309 58002 87900 333 21159;EQDQ01  00002PRCP99
0112289520999992000113009004+53210+063610FM-12+015699999V0202001N004019999999N0200001N1-00511-00761103051ADDGF108991021001999999031061MD1710011+9999REMSYN060AAXX  30091 28952 42998 82004 11051 21076 40305 57001 82036;
0143289520999992000113012004+53210+063610FM-12+015699999V0201801N005010075019N0200001N1-00461-00661102931ADDGF107991071051008001999999MA1999999100921MD1710121+9999REMSYN076AAXX  30121 28952 42598 71805 11046 21066 30092 40293 57012 875// 555 1/107;
0165289520999992000113015004+53210+063610FM-12+015699999V0202001N005012200019N9999999N1-00581-00801102831ADDAA199000091GF103991031001999999031001KA1999M-00451MD1710121+9999REMSYN070AAXX  30151 28952 329// 32005 11058 21080 40283 57012 83030 333 11045;EQDQ01  00002PRCP99
0165289520999992000113018004+53210+063610FM-12+015699999V0202001N005019999999N9999999N1-00841-01071102731ADDAA199000091GF108991001001999999001061KA1999M-00451MD1710101+9999REMSYN070AAXX  30181 28952 329// 82005 11084 21107 40273 57010 80006 333 11045;EQDQ01  00002PRCP99
0112289520999992000113021004+53210+063610FM-12+015699999V0202001N005019999999N9999999N1-00831-00931102531ADDGF108991081001999999021999MD1710201+9999REMSYN060AAXX  30211 28952 429// 82005 11083 21093 40253 57020 8802/;
0143289520999992000120100004+53210+063610FM-12+015699999V0202001N007019999999N9999999N1-00671-00791102381ADDGF108991081001999999021999MA1999999100361MD1710141+9999REMSYN076AAXX  01001 28952 429// 82007 11067 21079 30036 40238 57014 8802/ 555 1/107;
0220289520999992000120103004+53210+063610FM-12+015699999V0201801N007019999999N9999999N1-00941-01151102221ADDAA112999929AJ100089199999999AY171031AY221031GF108991081001999999021999GJ100249IA1239MD1710181+9999MW1711REMSYN104AAXX  01031 28952 /19// 81807 11094 21115 40222 57018 77172 8802/ 333 47008 55004 555 21094 69902 7990/;
0199289520999992000120106004+53210+063610FM-12+015699999V0201801N007019999999N0100001N1-01051-01251102061ADDAA100000791AY171061AY221061GF108991081001999999021999KA1999N+99999MD1710161+9999MW1711REMSYN082AAXX  01061 28952 11997 81807 11105 21125 40206 57016 69900 77172 8802/ 333 21094;EQDQ01 -00942ATMN  
0140289520999992000120109004+53210+063610FM-12+015699999V0201801N006019999999N0040001N1-01011-01211101831ADDAY171031AY271031GF108991081001999999021999MD1710231+9999MW1711REMSYN066AAXX  01091 28952 41996 81806 11101 21121 40183 57023 77177 8802/;
0171289520999992000120112004+53210+063610FM-12+015699999V0201801N004019999999N0100001N1-01001-01131101571ADDAY171061AY271061GF108991081001999999021999MA1999999099541MD1710251+9999MW1711REMSYN082AAXX  01121 28952 41997 81804 11100 21113 39954 40157 57025 77177 8802/ 555 1/108;
0173289520999992000120115004+53210+063610FM-12+015699999V0201801N002019999999N9999999N1-00991-01111101361ADDAY171031AY271031GF108991081001999999021999KA1120M-00941MD1710211+9999MW1711REMSYN086AAXX  01151 28952 /19// 81802 11099 21111 40136 57021 77177 8802/ 333 11094 555 60032;
0180289520999992000120118004+53210+063610FM-12+015699999V0201801N001019999999N9999999N1-00981-01101101191ADDAA100003091AY171061AY271061GF108991081001999999021999KA1999M-00941MD1710161+9999MW1711REMSYN082AAXX  01181 28952 119// 81801 11098 21110 40119 57016 60030 77177 8802/ 333 11094;
0140289520999992000120121004+53210+063610FM-12+015699999V0203201N002010075019N9999999N1-01131-01191101131ADDAY171031AY221031GF107991071051008001001001MD1710071+9999MW1021REMSYN066AAXX  01211 28952 415// 73202 11113 21119 40113 57007 70272 87500;
0181289520999992000120200004+53210+063610FM-12+015699999V0209999C000012200019N9999999N1-01781-01901101211ADDAY171061AY221061GA1001+999999999GF100991001001999999001001MA1999999099131MD1310031+9999MW1011REMSYN076AAXX  02001 28952 419// 00000 11178 21190 39913 40121 53003 70172 555 1/119;
0192289520999992000120203004+53210+063610FM-12+015699999V0209999C000012200019N9999999N1-01661-01791101211ADDAA112999929AJ100119199999999GF102991001001999999001011GJ100009IA1239MD1210011+9999REMSYN098AAXX  02031 28952 /29// 20000 11166 21179 40121 52001 80001 333 47011 55000 555 21179 69902 7003/;
0152289520999992000120206004+53210+063610FM-12+015699999V0209999C000019999999N0200001N1-01191-01251101201ADDAA100000791GF105991021001999999041091KA1999N-01791MD1210031+9999REMSYN076AAXX  02061 28952 12998 50000 11119 21125 40120 52003 69900 82049 333 21179;
0112289520999992000120209004+53210+063610FM-12+015699999V0202301N002010075019N0200001N1-00681-00881101231ADDGF107991071051008001999999MD1210071+9999REMSYN060AAXX  02091 28952 42598 72302 11068 21088 40123 52007 875//;
0143289520999992000120212004+53210+063610FM-12+015699999V0202301N002010075019N0200001N1-00571-00751101361ADDGF107991071051008001001001MA1999999099361MD1210121+9999REMSYN076AAXX  02121 28952 42598 72302 11057 21075 39936 40136 52012 87500 555 1/108;
0165289520999992000120215004+53210+063610FM-12+015699999V0202301N002010075019N9999999N1-00771-00831101461ADDAA199000091GF107991071051008001999999KA1999M-00571MD1210091+9999REMSYN070AAXX  02151 28952 325// 72302 11077 21083 40146 52009 875// 333 11057;EQDQ01  00002PRCP99
0165289520999992000120218004+53210+063610FM-12+015699999V0202301N002010075019N9999999N1-00951-01161101481ADDAA199000091GF107991071051008001999999KA1999M-00571MD1410001+9999REMSYN070AAXX  02181 28952 325// 72302 11095 21116 40148 54000 875// 333 11057;EQDQ01  00002PRCP99
0112289520999992000120221004+53210+063610FM-12+015699999V0209999C000010075019N9999999N1-00961-01121101431ADDGF107991071051008001999999MD1810051+9999REMSYN060AAXX  02211 28952 425// 70000 11096 21112 40143 58005 875//;
0080289520999992000120300004+53210+063610FM-12+015699999V0201801N002019999999N9999999N1-00631-00711999999ADDGF108991999999008001999999REMSYN042AAXX  03001 28952 415// 81802 11063 21071;
0220289520999992000120303004+53210+063610FM-12+015699999V0201801N002010075019N9999999N1-00531-00561100981ADDAA112001091AJ100129199999999AY181031AY221031GF108991081091008001999999GJ100609IA1239MD1710131+9999MW1851REMSYN104AAXX  03031 28952 /15// 81802 11053 21056 40098 57013 78582 889// 333 47012 55010 555 21096 60012 7001/;
0180289520999992000120306004+53210+063610FM-12+015699999V0202001N001010075019N0040001N1-00531-00601100941ADDAA100001091AY181061AY281061GF108991081091008001999999KA1999N-00961MD1710041+9999MW1851REMSYN082AAXX  03061 28952 11596 82001 11053 21060 40094 57004 60010 78588 889// 333 21096;
0140289520999992000120309004+53210+063610FM-12+015699999V0203201N001010075019N0100001N1-00511-00681100931ADDAY181031AY221031GF108991081091008001999999MD1710011+9999MW1851REMSYN066AAXX  03091 28952 41597 83201 11051 21068 40093 57001 78582 889//;
0171289520999992000120312004+53210+063610FM-12+015699999V0203401N006010075019N0200001N1-00751-01351101011ADDAY181061AY221061GF107991071091008001001001MA1999999099011MD1310051+9999MW1021REMSYN082AAXX  03121 28952 41598 73406 11075 21135 39901 40101 53005 70282 87900 555 1/110;
0145289520999992000120315004+53210+063610FM-12+015699999V0203601N006010075019N9999999N1-01541-01811101381ADDGF107991071091008001001001KA1120M-00481MD1210291+9999REMSYN080AAXX  03151 28952 /25// 73606 11154 21181 40138 52029 87900 333 11048 555 69962;
0162289520999992000120318004+53210+063610FM-12+015699999V0203401N002012200019N9999999N1-02071-02321101511ADDAA100000591GA1001+999999999GF100991001001999999001001KA1999M-00481MD1210101+9999REMSYN070AAXX  03181 28952 129// 03402 11207 21232 40151 52010 69960 333 11048;
0122289520999992000120321004+53210+063610FM-12+015699999V0203201N004012200019N9999999N1-02231-02551101901ADDGA1001+999999999GF100991001001999999001001MD1210361+9999REMSYN054AAXX  03211 28952 429// 03204 11223 21255 40190 52036;
0153289520999992000120400004+53210+063610FM-12+015699999V0203201N003012200019N9999999N1-02491-02811102061ADDGA1001+999999999GF100991001001999999001001MA1999999099901MD1210141+9999REMSYN070AAXX  04001 28952 429// 03203 11249 21281 39990 40206 52014 555 1/127;
0215289520999992000120403004+53210+063610FM-12+015699999V0203201N001012200019N9999999N1-02651-02901102321ADDAA199000091AJ100149199999999GA1001+999999999GF100991001001999999001001GJ100009IA1239MD1210251+9999REMSYN086AAXX  04031 28952 329// 03201 11265 21290 40232 52025 333 47014 55000 555 21266 7996/;EQDQ01  00002PRCP99
0165289520999992000120406004+53210+063610FM-12+015699999V0209999C000012200019N0200001N1-02621-02941102501ADDAA199000091GF103991001001999999001011KA1999N-02661MD1210171+9999REMSYN070AAXX  04061 28952 32998 30000 11262 21294 40250 52017 80001 333 21266;EQDQ01  00002PRCP99
0112289520999992000120409004+53210+063610FM-12+015699999V0202001N001012200019N0200001N1-02151-02551102481ADDGF102991001001999999001011MD1210011+9999REMSYN060AAXX  04091 28952 42998 22001 11215 21255 40248 52001 80001;
0143289520999992000120412004+53210+063610FM-12+015699999V0202001N001019999999N0200001N1-02131-02461102491ADDGF108991081001999999011999MA1999999100341MD1210011+9999REMSYN076AAXX  04121 28952 42998 82001 11213 21246 30034 40249 52001 8801/ 555 1/120;
0165289520999992000120415004+53210+063610FM-12+015699999V0201801N003019999999N9999999N1-01841-02171102281ADDAA199000091GF108991081001999999011999KA1999M-01841MD1810161+9999REMSYN070AAXX  04151 28952 329// 81803 11184 21217 40228 58016 8801/ 333 11184;EQDQ01  00002PRCP99
0193289520999992000120418004+53210+063610FM-12+015699999V0201801N002010075019N9999999N1-01601-01871102091ADDAA199000021AY181061AY221061GF108991081091008001999999KA1999M+99999MD1710181+9999MW1851REMSYN076AAXX  04181 28952 315// 81802 11160 21187 40209 57018 78582 889// 333 11184;EQDQ01 -01842ATMX  
0140289520999992000120421004+53210+063610FM-12+015699999V0200901N003010075019N9999999N1-01641-01901101851ADDAY181031AY221031GF108991081091008001999999MD1710241+9999MW1851REMSYN066AAXX  04211 28952 415// 80903 11164 21190 40185 57024 78582 889//;
0171289520999992000120500004+53210+063610FM-12+015699999V0200901N003010075019N9999999N1-01531-01801101721ADDAY181061AY281061GF108991081091008001999999MA1999999099641MD1710121+9999MW1851REMSYN082AAXX  05001 28952 415// 80903 11153 21180 39964 40172 57012 78588 889// 555 1/116;
0239289520999992000120503004+53210+063610FM-12+015699999V0200501N002019999999N9999999N1-01611-01871101731ADDAA112003091AJ100179199999999AY181031AY281031GF107991999091008001999999GJ103309IA1239MD1310011+9999MW1851REMSYN104AAXX  05031 28952 /15// 70502 11161 21187 40173 53001 78588 889// 333 47017 55055 555 21184 60032 7003/;EQDQ01+000082SCOTLC
0140289520999992000120509004+53210+063610FM-12+015699999V0200201N006010750019N0200001N1-01921-02251102251ADDAY171031AY221031GF105991031051008001001021MD1210291+9999MW1021REMSYN066AAXX  05091 28952 41598 50206 11192 21225 40225 52029 70272 83502;
0171289520999992000120512004+53210+063610FM-12+015699999V0203401N005019999999N0040001N1-01971-02231102541ADDAY171061AY221061GF108991081001999999021999MA1999999100411MD1210281+9999MW1711REMSYN082AAXX  05121 28952 41996 83405 11197 21223 30041 40254 52028 77172 8802/ 555 1/118;
0173289520999992000120515004+53210+063610FM-12+015699999V0203601N004010075019N9999999N1-02301-02631102911ADDAY171031AY221031GF107991071051008001001001KA1120M-01611MD1210341+9999MW1221REMSYN086AAXX  05151 28952 /15// 73604 11230 21263 40291 52034 72272 87500 333 11161 555 69962;
0190289520999992000120518004+53210+063610FM-12+015699999V0203601N002012200019N9999999N1-02991-03301103301ADDAA100000591AY171061AY211061GA1001+999999999GF100991001001999999001001KA1999M-01611MD1210321+9999MW1011REMSYN076AAXX  05181 28952 119// 03602 11299 21330 40330 52032 69960 70171 333 11161;
0122289520999992000120521004+53210+063610FM-12+015699999V0209999C000012200019N9999999N1-03291-03511103561ADDGA1001+999999999GF100991001001999999001001MD1210231+9999REMSYN054AAXX  05211 28952 429// 00000 11329 21351 40356 52023;
0153289520999992000120600004+53210+063610FM-12+015699999V0203601N002012200019N9999999N1-03601-03901103811ADDGA1001+999999999GF100991001001999999001001MA1999999101511MD1210211+9999REMSYN070AAXX  06001 28952 429// 03602 11360 21390 30151 40381 52021 555 1/137;
0196289520999992000120603004+53210+063610FM-12+015699999V0203601N002012200019N9999999N1-03681-03971103961ADDAA199000021AJ100179199999999GA1001+999999999GF100991001001999999001001GJ100009IA1239MD1210151+9999REMSYN086AAXX  06031 28952 329// 03602 11368 21397 40396 52015 333 47017 55000 555 21372 7996/;
0175289520999992000120606004+53210+063610FM-12+015699999V0209999C000012200019N0200001N1-03581-03861104091ADDAA199000091GA1001+999999999GF100991001001999999001001KA1999N-03721MD1210121+9999REMSYN064AAXX  06061 28952 32998 00000 11358 21386 40409 52012 333 21372;EQDQ01  00002PRCP99
0122289520999992000120609004+53210+063610FM-12+015699999V0203601N001012200019N0200001N1-03071-03361104041ADDGA1001+999999999GF100991001001999999001001MD1210011+9999REMSYN054AAXX  06091 28952 42998 03601 11307 21336 40404 52001;
0153289520999992000120612004+53210+063610FM-12+015699999V0203601N001012200019N0200001N1-03111-03401104121ADDGA1001+999999999GF100991001001999999001001MA1999999101851MD1210061+9999REMSYN070AAXX  06121 28952 42998 03601 11311 21340 30185 40412 52006 555 1/134;
0175289520999992000120615004+53210+063610FM-12+015699999V0203601N001012200019N9999999N1-03331-03561104191ADDAA199000091GA1001+999999999GF100991001001999999001001KA1999M-02971MD1210051+9999REMSYN064AAXX  06151 28952 329// 03601 11333 21356 40419 52005 333 11297;EQDQ01  00002PRCP99
0175289520999992000120618004+53210+063610FM-12+015699999V0203601N001012200019N9999999N1-03531-03771104291ADDAA199000091GA1001+999999999GF100991001001999999001001KA1999M-02971MD1210081+9999REMSYN064AAXX  06181 28952 329// 03601 11353 21377 40429 52008 333 11297;EQDQ01  00002PRCP99
0122289520999992000120621004+53210+063610FM-12+015699999V0203601N001012200019N9999999N1-03491-03701104271ADDGA1001+999999999GF100991001001999999001001MD1410001+9999REMSYN054AAXX  06211 28952 429// 03601 11349 21370 40427 54000;
0153289520999992000120700004+53210+063610FM-12+015699999V0203601N001012200019N9999999N1-03551-03831104311ADDGA1001+999999999GF100991001001999999001001MA1999999102001MD1310021+9999REMSYN070AAXX  07001 28952 429// 03601 11355 21383 30200 40431 53002 555 1/139;
0215289520999992000120703004+53210+063610FM-12+015699999V0209999C000012200019N9999999N1-03681-03971104311ADDAA199000091AJ100179199999999GA1001+999999999GF100991001001999999001001GJ104149IA1239MD1410001+9999REMSYN086AAXX  07031 28952 329// 00000 11368 21397 40431 54000 333 47017 55069 555 21377 7000/;EQDQ01  00002PRCP99
0175289520999992000120706004+53210+063610FM-12+015699999V0209999C000012200019N0200001N1-03101-03341104311ADDAA199000091GA1001+999999999GF100991001001999999001001KA1999N-03771MD1310051+9999REMSYN064AAXX  07061 28952 32998 00000 11310 21334 40431 53005 333 21377;EQDQ01  00002PRCP99
0122289520999992000120709004+53210+063610FM-12+015699999V0209999C000012200019N0200001N1-02341-02901104181ADDGA1001+999999999GF100991001001999999001001MD1810071+9999REMSYN054AAXX  07091 28952 42998 00000 11234 21290 40418 58007;
0153289520999992000120712004+53210+063610FM-12+015699999V0209999C000012200019N0200001N1-02581-02971104161ADDGA1001+999999999GF100991001001999999001001MA1999999101941MD1710041+9999REMSYN070AAXX  07121 28952 42998 00000 11258 21297 30194 40416 57004 555 1/133;
0175289520999992000120715004+53210+063610FM-12+015699999V0209999C000012200019N9999999N1-02751-03061104111ADDAA199000091GA1001+999999999GF100991001001999999001001KA1999M-02201MD1710061+9999REMSYN064AAXX  07151 28952 329// 00000 11275 21306 40411 57006 333 11220;EQDQ01  00002PRCP99
0175289520999992000120718004+53210+063610FM-12+015699999V0209999C000012200019N9999999N1-02901-03131104061ADDAA199000091GA1001+999999999GF100991001001999999001001KA1999M-02201MD1710051+9999REMSYN064AAXX  07181 28952 329// 00000 11290 21313 40406 57005 333 11220;EQDQ01  00002PRCP99
0122289520999992000120721004+53210+063610FM-12+015699999V0209999C000012200019N9999999N1-03031-03271103981ADDGA1001+999999999GF100991001001999999001001MD1710091+9999REMSYN054AAXX  07211 28952 429// 00000 11303 21327 40398 57009;
0153289520999992000120800004+53210+063610FM-12+015699999V0209999C000012200019N9999999N1-03031-03271103881ADDGA1001+999999999GF100991001001999999001001MA1999999101641MD1710101+9999REMSYN070AAXX  08001 28952 429// 00000 11303 21327 30164 40388 57010 555 1/134;
0205289520999992000120803004+53210+063610FM-12+015699999V0202001N001012200019N9999999N1-02901-03131103671ADDAA199000091AJ100179199999999GF101991001001999999001011GJ103909IA1239MD1710191+9999REMSYN092AAXX  08031 28952 329// 12001 11290 21313 40367 57019 80001 333 47017 55065 555 21306 7000/;EQDQ01  00002PRCP99
0165289520999992000120806004+53210+063610FM-12+015699999V0202301N002010075019N0200001N1-02481-02731103641ADDAA199000091GF106991051051008001001011KA1999N-03061MD1410001+9999REMSYN070AAXX  08061 28952 32598 62302 11248 21273 40364 54000 85501 333 21306;EQDQ01  00002PRCP99
0112289520999992000120809004+53210+063610FM-12+015699999V0202001N002010075019N0200001N1-02041-02441103461ADDGF106991061051008001001001MD1810141+9999REMSYN060AAXX  08091 28952 42598 62002 11204 21244 40346 58014 86500;
0143289520999992000120812004+53210+063610FM-12+015699999V0202001N002010075019N0200001N1-01801-02211103261ADDGF107991071051008001001001MA1999999101131MD1710181+9999REMSYN076AAXX  08121 28952 42598 72002 11180 21221 30113 40326 57018 87500 555 1/119;
0165289520999992000120815004+53210+063610FM-12+015699999V0202001N002012200019N9999999N1-01751-02251103201ADDAA199000091GF102991001001999999001011KA1999M-01751MD1710061+9999REMSYN070AAXX  08151 28952 329// 22002 11175 21225 40320 57006 80001 333 11175;EQDQ01  00002PRCP99
0165289520999992000120818004+53210+063610FM-12+015699999V0202001N003012200019N9999999N1-01861-02351103081ADDAA199000091GF102991001001999999001011KA1999M-01751MD1710121+9999REMSYN070AAXX  08181 28952 329// 22003 11186 21235 40308 57012 80001 333 11175;EQDQ01  00002PRCP99
0112289520999992000120821004+53210+063610FM-12+015699999V0202001N002012200019N9999999N1-01751-02171102991ADDGF101991001001999999001011MD1710091+9999REMSYN060AAXX  08211 28952 429// 12002 11175 21217 40299 57009 80001;
0143289520999992000120900004+53210+063610FM-12+015699999V0202001N002019999999N9999999N1-01571-01991102891ADDGF106991061001999999031001MA1999999100781MD1710081+9999REMSYN076AAXX  09001 28952 429// 62002 11157 21199 30078 40289 57008 86030 555 1/117;
0205289520999992000120903004+53210+063610FM-12+015699999V0202001N002019999999N9999999N1-01631-02051102801ADDAA199000091AJ100179199999999GF106991061001999999031001GJ100009IA1239MD1710081+9999REMSYN092AAXX  09031 28952 329// 62002 11163 21205 40280 57008 86030 333 47017 55000 555 21187 7000/;EQDQ01  00002PRCP99
0165289520999992000120906004+53210+063610FM-12+015699999V0201801N002010075019N0200001N1-01241-01671102581ADDAA199000091GF107991071051008001001001KA1999N-01871MD1710191+9999REMSYN070AAXX  09061 28952 32598 71802 11124 21167 40258 57019 87500 333 21187;EQDQ01  00002PRCP99
0112289520999992000120909004+53210+063610FM-12+015699999V0202301N003010075019N0200001N1-00891-01441102391ADDGF108991081091008001999999MD1710151+9999REMSYN060AAXX  09091 28952 42598 82303 11089 21144 40239 57015 889//;
0143289520999992000120912004+53210+063610FM-12+015699999V0202001N003010075019N0200001N1-00831-01201102261ADDGF108991081091008001999999MA1999999100241MD1710121+9999REMSYN076AAXX  09121 28952 42598 82003 11083 21120 30024 40226 57012 889// 555 1/110;
0165289520999992000120915004+53210+063610FM-12+015699999V0209999C000012200019N9999999N1-00891-01091102191ADDAA199000091GF102991021001999999031001KA1999M-00831MD1710071+9999REMSYN070AAXX  09151 28952 329// 20000 11089 21109 40219 57007 82030 333 11083;EQDQ01  00002PRCP99
0165289520999992000120918004+53210+063610FM-12+015699999V0209999C000010075019N9999999N1-00871-01111102231ADDAA199000091GF108991081091008001999999KA1999M-00831MD1310041+9999REMSYN070AAXX  09181 28952 325// 80000 11087 21111 40223 53004 889// 333 11083;EQDQ01  00002PRCP99
0122289520999992000120921004+53210+063610FM-12+015699999V0209999C000012200019N9999999N1-01141-01341102301ADDGA1001+999999999GF100991001001999999001001MD1210031+9999REMSYN054AAXX  09211 28952 429// 00000 11114 21134 40230 52003;
0143289520999992000121000004+53210+063610FM-12+015699999V0209999C000010075019N9999999N1-00991-01211102281ADDGF108991081091008001999999MA1999999100241MD1410001+9999REMSYN076AAXX  10001 28952 425// 80000 11099 21121 30024 40228 54000 889// 555 1/110;
0205289520999992000121003004+53210+063610FM-12+015699999V0209999C000010075019N9999999N1-00691-00891102281ADDAA199000091AJ100179199999999GF108991081091008001999999GJ100429IA1279MD1310031+9999REMSYN092AAXX  10031 28952 325// 80000 11069 21089 40228 53003 889// 333 43017 55007 555 21128 7000/;EQDQ01  00002PRCP99
0193289520999992000121006004+53210+063610FM-12+015699999V0202301N002019999999N0200001N1-00501-00711102331ADDAA199000091AY181061AY221061GF108991081001999999071999KA1999N-01281MD1210061+9999MW1021REMSYN076AAXX  10061 28952 31998 82302 11050 21071 40233 52006 70282 8807/ 333 21128;EQDQ01  00002PRCP99
0112289520999992000121009004+53210+063610FM-12+015699999V0202001N002019999999N0200001N1-00431-00771102351ADDGF108991081001999999021999MD1210021+9999REMSYN060AAXX  10091 28952 42998 82002 11043 21077 40235 52002 8802/;
0143289520999992000121012004+53210+063610FM-12+015699999V0202301N002010075019N0200001N1-00461-00661102471ADDGF108991081091008001999999MA1999999100471MD1210121+9999REMSYN076AAXX  10121 28952 42598 82302 11046 21066 30047 40247 52012 889// 555 1/107;
0173289520999992000121015004+53210+063610FM-12+015699999V0202501N005010075019N9999999N1-00531-00861102561ADDAY181031AY221031GF108991081091008001999999KA1120M-00381MD1210071+9999MW1851REMSYN086AAXX  10151 28952 /15// 82505 11053 21086 40256 52007 78582 889// 333 11038 555 69902;
0180289520999992000121018004+53210+063610FM-12+015699999V0202501N003010075019N9999999N1-00561-00821102641ADDAA100000791AY181061AY221061GF108991081091008001999999KA1999M-00381MD1210061+9999MW1851REMSYN082AAXX  10181 28952 115// 82503 11056 21082 40264 52006 69900 78582 889// 333 11038;
0140289520999992000121021004+53210+063610FM-12+015699999V0202501N002010075019N9999999N1-00541-00871102781ADDAY181031AY221031GF108991081091008001999999MD1210131+9999MW1021REMSYN066AAXX  10211 28952 415// 82502 11054 21087 40278 52013 70282 889//;
0171289520999992000121100004+53210+063610FM-12+015699999V0202301N002010075019N9999999N1-00611-00881102841ADDAY181061AY221061GF108991081091008001999999MA1999999100811MD1210061+9999MW1021REMSYN082AAXX  11001 28952 415// 82302 11061 21088 30081 40284 52006 70282 889// 555 1/109;
0171289520999992000121106004+53210+063610FM-12+015699999V0202001N001019999999N0200001N1-00511-00721103001ADDAA100000791GF106991999091008001001001KA1999N-00691MD1210101+9999REMSYN076AAXX  11061 28952 12598 62001 11051 21072 40300 52010 69900 87900 333 21069;EQDQ01+000072SCOTLC
0112289520999992000121109004+53210+063610FM-12+015699999V0202001N001012200019N0200001N1-00241-00681103001ADDGF102991021091008001001001MD1210011+9999REMSYN060AAXX  11091 28952 42598 22001 11024 21068 40300 52001 82900;
0143289520999992000121112004+53210+063610FM-12+015699999V0201601N001012200019N0200001N1-00631-00751103001ADDGF102991021051008001001001MA1999999100971MD1810031+9999REMSYN076AAXX  11121 28952 42598 21601 11063 21075 30097 40300 58003 82500 555 1/110;
0165289520999992000121115004+53210+063610FM-12+015699999V0201801N002019999999N9999999N1-00791-00931103041ADDAA199000091GF108991021001999999041041KA1999M-00201MD1310031+9999REMSYN070AAXX  11151 28952 329// 81802 11079 21093 40304 53003 82044 333 11020;EQDQ01  00002PRCP99
0165289520999992000121118004+53210+063610FM-12+015699999V0202001N002019999999N9999999N1-00691-00781103001ADDAA199000091GF108991051001999999041041KA1999M-00201MD1810031+9999REMSYN070AAXX  11181 28952 329// 82002 11069 21078 40300 58003 85044 333 11020;EQDQ01  00002PRCP99
0112289520999992000121121004+53210+063610FM-12+015699999V0201801N004019999999N9999999N1-00531-00711102921ADDGF108991081001999999021999MD1710061+9999REMSYN060AAXX  11211 28952 429// 81804 11053 21071 40292 57006 8802/;
0143289520999992000121200004+53210+063610FM-12+015699999V0201801N003019999999N9999999N1-00491-00661102841ADDGF108991081001999999021999MA1999999100831MD1710081+9999REMSYN076AAXX  12001 28952 429// 81803 11049 21066 30083 40284 57008 8802/ 555 1/106;
0205289520999992000121203004+53210+063610FM-12+015699999V0201801N004010075019N0200001N1-00781-00881102841ADDAA199000091AJ100139199999999GF107991071051008001999999GJ103249IA1239MD1710031+9999REMSYN092AAXX  12031 28952 32598 71804 11078 21088 40284 57003 875// 333 47013 55054 555 21108 7000/;EQDQ01  00002PRCP99
0165289520999992000121206004+53210+063610FM-12+015699999V0201801N003010075019N0200001N1-01021-01151102771ADDAA199000091GF107991071051008001999999KA1999N-01081MD1710081+9999REMSYN070AAXX  12061 28952 32598 71803 11102 21115 40277 57008 875// 333 21108;EQDQ01  00002PRCP99
0112289520999992000121209004+53210+063610FM-12+015699999V0202001N003010075019N0200001N1-01091-01371102701ADDGF107991071051008001999999MD1710071+9999REMSYN060AAXX  12091 28952 42598 72003 11109 21137 40270 57007 875//;
0143289520999992000121212004+53210+063610FM-12+015699999V0202001N003019999999N0200001N1-01081-01361102611ADDGF108991081001999999021999MA1999999100561MD1710091+9999REMSYN076AAXX  12121 28952 42998 82003 11108 21136 30056 40261 57009 8802/ 555 1/111;
0165289520999992000121215004+53210+063610FM-12+015699999V0202001N002019999999N9999999N1-01231-01501102601ADDAA199000091GF108991081001999999011999KA1999M-00781MD1710031+9999REMSYN070AAXX  12151 28952 329// 82002 11123 21150 40260 57003 8801/ 333 11078;EQDQ01  00002PRCP99
0165289520999992000121218004+53210+063610FM-12+015699999V0202001N001019999999N9999999N1-01321-01591102541ADDAA199000091GF105991051001999999041001KA1999M-00781MD1710071+9999REMSYN070AAXX  12181 28952 329// 52001 11132 21159 40254 57007 85040 333 11078;EQDQ01  00002PRCP99
0112289520999992000121221004+53210+063610FM-12+015699999V0202001N002010075019N9999999N1-01291-01561102551ADDGF107991071051008001001001MD1310021+9999REMSYN060AAXX  12211 28952 425// 72002 11129 21156 40255 53002 87500;
0143289520999992000121300004+53210+063610FM-12+015699999V0202001N001012200019N9999999N1-01381-01651102491ADDGF103991001001999999001011MA1999999100411MD1810071+9999REMSYN076AAXX  13001 28952 429// 32001 11138 21165 30041 40249 58007 80001 555 1/115;
0205289520999992000121303004+53210+063610FM-12+015699999V0202001N001010075019N9999999N1-01531-01801102451ADDAA199000091AJ100139199999999GF107991071051008001999999GJ100369IA1239MD1710061+9999REMSYN092AAXX  13031 28952 325// 72001 11153 21180 40245 57006 875// 333 47013 55006 555 21153 7000/;EQDQ01  00002PRCP99
0165289520999992000121306004+53210+063610FM-12+015699999V0201801N002010075019N0200001N1-01191-01461102511ADDAA199000091GF108991081091008001999999KA1999N-01531MD1310091+9999REMSYN070AAXX  13061 28952 32598 81802 11119 21146 40251 53009 889// 333 21153;EQDQ01  00002PRCP99
0140289520999992000121309004+53210+063610FM-12+015699999V0209999C000010075019N0040001N1-00871-01201102411ADDAY121031AY221031GF108991081091008001999999MD1810061+9999MW1101REMSYN066AAXX  13091 28952 41596 80000 11087 21120 40241 58006 71022 889//;
0143289520999992000121312004+53210+063610FM-12+015699999V0209999C000010075019N0100001N1-00891-01181102351ADDGF107991061091008001001021MA1999999100321MD1710061+9999REMSYN076AAXX  13121 28952 42597 70000 11089 21118 30032 40235 57006 86902 555 1/110;
0165289520999992000121315004+53210+063610FM-12+015699999V0209999C000010075019N9999999N1-00851-01041102321ADDAA199000091GF107991071091008001001001KA1999M-00801MD1710031+9999REMSYN070AAXX  13151 28952 325// 70000 11085 21104 40232 57003 87900 333 11080;EQDQ01  00002PRCP99
0165289520999992000121318004+53210+063610FM-12+015699999V0209999C000010075019N9999999N1-00891-01091102261ADDAA199000091GF108991081091008001999999KA1999M-00801MD1710051+9999REMSYN070AAXX  13181 28952 325// 80000 11089 21109 40226 57005 889// 333 11080;EQDQ01  00002PRCP99
0112289520999992000121321004+53210+063610FM-12+015699999V0209999C000010075019N9999999N1-00891-01091102201ADDGF107991071091008001001001MD1710061+9999REMSYN060AAXX  13211 28952 425// 70000 11089 21109 40220 57006 87900;
0143289520999992000121400004+53210+063610FM-12+015699999V0209999C000010075019N9999999N1-00891-01091102111ADDGF107991071091008001001001MA1999999100091MD1710091+9999REMSYN076AAXX  14001 28952 425// 70000 11089 21109 30009 40211 57009 87900 555 1/110;
0205289520999992000121403004+53210+063610FM-12+015699999V0209999C000010075019N9999999N1-01071-01271102031ADDAA199000091AJ100139199999999GF108991081091008001999999GJ100009IA1279MD1710101+9999REMSYN092AAXX  14031 28952 325// 80000 11107 21127 40203 57010 889// 333 43013 55000 555 21107 7000/;EQDQ01  00002PRCP99
0181289520999992000121406004+53210+063610FM-12+015699999V0201601N002019999999N0200001N1-01141-01201102021ADDAA199000091GF108991081001999999021999KA1999N+99999MD1710031+9999REMSYN070AAXX  14061 28952 32998 81602 11114 21120 40202 57003 8802/ 333 21107;EQDQ01  00002PRCP99Q02 -01072ATMN  
0112289520999992000121409004+53210+063610FM-12+015699999V0201601N002019999999N0200001N1-00951-01111101871ADDGF108991061001999999051021MD1710131+9999REMSYN060AAXX  14091 28952 42998 81602 11095 21111 40187 57013 86052;
0143289520999992000121412004+53210+063610FM-12+015699999V0201601N002010075019N0200001N1-00941-01061101881ADDGF107991071051008001999999MA1999999099841MD1310011+9999REMSYN076AAXX  14121 28952 42598 71602 11094 21106 39984 40188 53001 875// 555 1/110;
0165289520999992000121415004+53210+063610FM-12+015699999V0201801N002019999999N9999999N1-01121-01251101811ADDAA199000091GF106991061001999999051011KA1999M-00931MD1810081+9999REMSYN070AAXX  14151 28952 329// 61802 11112 21125 40181 58008 86051 333 11093;EQDQ01  00002PRCP99
0165289520999992000121418004+53210+063610FM-12+015699999V0201801N002010075019N9999999N1-01151-01281101741ADDAA199000091GF107991071051008001999999KA1999M-00931MD1710071+9999REMSYN070AAXX  14181 28952 325// 71802 11115 21128 40174 57007 875// 333 11093;EQDQ01  00002PRCP99
0112289520999992000121421004+53210+063610FM-12+015699999V0201801N002010075019N9999999N1-01101-01381101681ADDGF107991071051008001999999MD1710041+9999REMSYN060AAXX  14211 28952 425// 71802 11110 21138 40168 57004 875//;
0143289520999992000121500004+53210+063610FM-12+015699999V0201801N002010075019N9999999N1-01031-01391101561ADDGF108991081091008001999999MA1999999099531MD1710121+9999REMSYN076AAXX  15001 28952 425// 81802 11103 21139 39953 40156 57012 889// 555 1/112;
0205289520999992000121503004+53210+063610FM-12+015699999V0201801N002010075019N9999999N1-01021-01381101531ADDAA199000091AJ100139199999999GF108991081091008001999999GJ100009IA1279MD1710031+9999REMSYN092AAXX  15031 28952 325// 81802 11102 21138 40153 57003 889// 333 43013 55000 555 21115 7000/;EQDQ01  00002PRCP99
0165289520999992000121506004+53210+063610FM-12+015699999V0201801N003012200019N0200001N1-01051-01491101551ADDAA199000091GF106991031091008001001011KA1999N-01151MD1310021+9999REMSYN070AAXX  15061 28952 32598 61803 11105 21149 40155 53002 83901 333 21115;EQDQ01  00002PRCP99
0112289520999992000121509004+53210+063610FM-12+015699999V0201801N003010750019N0200001N1-01031-01471101481ADDGF107991041091008001001051MD1810071+9999REMSYN060AAXX  15091 28952 42598 71803 11103 21147 40148 58007 84905;
0171289520999992000121512004+53210+063610FM-12+015699999V0201801N003010075019N0040001N1-00841-00991101451ADDAY181061AY221061GF108991081091008001999999MA1999999099441MD1710011+9999MW1851REMSYN082AAXX  15121 28952 41596 81803 11084 21099 39944 40145 57001 78582 889// 555 1/109;
0173289520999992000121515004+53210+063610FM-12+015699999V0201801N004010075019N9999999N1-00591-00631101471ADDAY181031AY221031GF108991081091008001999999KA1120M-00601MD1310031+9999MW1851REMSYN086AAXX  15151 28952 /15// 81804 11059 21063 40147 53003 78582 889// 333 11060 555 69942;
0199289520999992000121518004+53210+063610FM-12+015699999V0201801N003010075019N9999999N1-00461-00491101481ADDAA100000591AY181061AY221061GF107991071091008001001001KA1999M+99999MD1210031+9999MW1851REMSYN082AAXX  15181 28952 115// 71803 11046 21049 40148 52003 69940 78582 87900 333 11060;EQDQ01 -00602ATMX  
0140289520999992000121521004+53210+063610FM-12+015699999V0202001N003010075019N9999999N1-00381-00501101501ADDAY181031AY221031GF108991081091008001999999MD1210021+9999MW1021REMSYN066AAXX  15211 28952 415// 82003 11038 21050 40150 52002 70282 889//;
0171289520999992000121600004+53210+063610FM-12+015699999V0202301N005019999999N9999999N1-00281-00351101471ADDAY171061AY221061GF108991081001999999011999MA1999999099501MD1810021+9999MW1711REMSYN082AAXX  16001 28952 419// 82305 11028 21035 39950 40147 58002 77172 8801/ 555 1/104;
0220289520999992000121603004+53210+063610FM-12+015699999V0202301N005019999999N9999999N1-00281-00351101401ADDAA112001091AJ100149199999999AY171031AY271031GF108991081001999999011999GJ101149IA1239MD1710071+9999MW1711REMSYN104AAXX  16031 28952 /19// 82305 11028 21035 40140 57007 77177 8801/ 333 47014 55019 555 21059 60012 7002/;
0180289520999992000121606004+53210+063610FM-12+015699999V0202301N003019999999N0040001N1-00221-00281101431ADDAA100001091AY171061AY271061GF108991081001999999021999KA1999N-00591MD1310031+9999MW1711REMSYN082AAXX  16061 28952 11996 82303 11022 21028 40143 53003 60010 77177 8802/ 333 21059;
0140289520999992000121609004+53210+063610FM-12+015699999V0202301N005019999999N0100001N1-00121-00251101381ADDAY171031AY271031GF108991081001999999021999MD1810031+9999MW1711REMSYN066AAXX  16091 28952 41997 82305 11012 21025 40138 58003 77177 8802/;
0171289520999992000121612004+53210+063610FM-12+015699999V0202301N003019999999N0100001N1-00161-00241101421ADDAY171061AY221061GF108991081001999999021999MA1999999099451MD1310021+9999MW1711REMSYN082AAXX  16121 28952 41997 82303 11016 21024 39945 40142 53002 77172 8802/ 555 1/103;
0173289520999992000121615004+53210+063610FM-12+015699999V0202301N004019999999N9999999N1-00181-00261101351ADDAY171031AY271031GF108991081001999999021999KA1120M-00121MD1810071+9999MW1711REMSYN086AAXX  16151 28952 /19// 82304 11018 21026 40135 58007 77177 8802/ 333 11012 555 60012;
0180289520999992000121618004+53210+063610FM-12+015699999V0202001N003019999999N9999999N1-00161-00271101331ADDAA100001091AY171061AY221061GF108991081001999999021999KA1999M-00121MD1710021+9999MW1021REMSYN082AAXX  16181 28952 119// 82003 11016 21027 40133 57002 60010 70272 8802/ 333 11012;
0112289520999992000121621004+53210+063610FM-12+015699999V0202001N003019999999N9999999N1-00211-00301101351ADDGF108991081001999999021999MD1310021+9999REMSYN060AAXX  16211 28952 429// 82003 11021 21030 40135 53002 8802/;
0171289520999992000121700004+53210+063610FM-12+015699999V0202301N002019999999N9999999N1-00221-00311101341ADDAY171061AY221061GF108991081001999999011999MA1999999099371MD1810011+9999MW1021REMSYN082AAXX  17001 28952 419// 82302 11022 21031 39937 40134 58001 70272 8801/ 555 1/103;
0220289520999992000121703004+53210+063610FM-12+015699999V0202301N002019999999N9999999N1-00191-00251101361ADDAA112000891AJ100169199999999AY171031AY221031GF108991081001999999011999GJ100009IA1239MD1310021+9999MW1711REMSYN104AAXX  17031 28952 /19// 82302 11019 21025 40136 53002 77172 8801/ 333 47016 55000 555 21024 69982 7002/;
0180289520999992000121706004+53210+063610FM-12+015699999V0202001N002010075019N0200001N1-00101-00171101431ADDAA100000891AY171061AY221061GF106991061061008001001001KA1999N-00241MD1210091+9999MW1031REMSYN082AAXX  17061 28952 11598 62002 11010 21017 40143 52009 69980 70372 86600 333 21024;
0112289520999992000121709004+53210+063610FM-12+015699999V0209999C000012200019N0200001N1+00101-00011101601ADDGF103991011001999999031011MD1210181+9999REMSYN060AAXX  17091 28952 42998 30000 10010 21001 40160 52018 81031;
0143289520999992000121712004+53210+063610FM-12+015699999V0201801N002019999999N0200001N1-00441-00501101781ADDGF108991031001999999031021MA1999999099791MD1210131+9999REMSYN076AAXX  17121 28952 42998 81802 11044 21050 39979 40178 52013 83032 555 1/110;
0145289520999992000121715004+53210+063610FM-12+015699999V0201801N003019999999N9999999N1-00241-00331101801ADDGF108991081001999999021999KA1120M+00101MD1210031+9999REMSYN080AAXX  17151 28952 /29// 81803 11024 21033 40180 52003 8802/ 333 10010 555 69902;
0180289520999992000121718004+53210+063610FM-12+015699999V0201801N002019999999N9999999N1-00041-00071101651ADDAA100000791AY171061AY221061GF108991081001999999021999KA1999M+00101MD1810121+9999MW1711REMSYN082AAXX  17181 28952 119// 81802 11004 21007 40165 58012 69900 77172 8802/ 333 10010;
0140289520999992000121721004+53210+063610FM-12+015699999V0202001N004019999999N9999999N1+00071+00011101561ADDAY171031AY271031GF108991081001999999021999MD1710081+9999MW1711REMSYN066AAXX  17211 28952 419// 82004 10007 20001 40156 57008 77177 8802/;
0171289520999992000121800004+53210+063610FM-12+015699999V0202001N006019999999N9999999N1+00001-00031101581ADDAY171061AY271061GF108991081001999999021999MA1999999099631MD1310011+9999MW1731REMSYN082AAXX  18001 28952 419// 82006 10000 21003 39963 40158 53001 77377 8802/ 555 1/000;
0220289520999992000121803004+53210+063610FM-12+015699999V0202001N007019999999N9999999N1-00161-00331101601ADDAA112008091AJ100219199999999AY171031AY231031GF108991081001999999021999GJ101629IA1239MD1410001+9999MW1361REMSYN104AAXX  18031 28952 /19// 82007 11016 21033 40160 54000 73673 8802/ 333 47021 55027 555 21026 60082 7008/;
0199289520999992000121806004+53210+063610FM-12+015699999V0202001N006019999999N0200001N1-00431-00591101701ADDAA100007991AY171061AY231061GF108991081001999999071999KA1999N+99999MD1310091+9999MW1361REMSYN082AAXX  18061 28952 11998 82006 11043 21059 40170 53009 60080 73673 8807/ 333 21026;EQDQ01 -00262ATMN  
0140289520999992000121809004+53210+063610FM-12+015699999V0202001N008019999999N0200001N1-00611-00801101671ADDAY131031AY231031GF108991081001999999021999MD1810051+9999MW1361REMSYN066AAXX  18091 28952 41998 82008 11061 21080 40167 58005 73633 8802/;
0171289520999992000121812004+53210+063610FM-12+015699999V0201801N004019999999N0100001N1-00581-00691101581ADDAY171061AY231061GF108991081001999999021999MA1999999099581MD1710091+9999MW1711REMSYN082AAXX  18121 28952 41997 81804 11058 21069 39958 40158 57009 77173 8802/ 555 1/106;
0173289520999992000121815004+53210+063610FM-12+015699999V0201801N006010075019N9999999N1-00531-00711101411ADDAY171031AY231031GF108991081001008001021999KA1120M-00431MD1710051+9999MW1361REMSYN086AAXX  18151 28952 /15// 81806 11053 21071 40141 57005 73673 8802/ 333 11043 555 69932;
0180289520999992000121818004+53210+063610FM-12+015699999V0201801N006010075019N9999999N1-00381-00501101451ADDAA100000391AY171061AY231061GF108991081001008001021999KA1999M-00161MD1710061+9999MW1021REMSYN082AAXX  18181 28952 115// 81806 11038 21050 40145 57006 69930 70273 8802/ 333 11016;
0112289520999992000121821004+53210+063610FM-12+015699999V0202001N004010075019N9999999N1-00231-00351101401ADDGF108991081001008001021999MD1710041+9999REMSYN060AAXX  18211 28952 425// 82004 11023 21035 40140 57004 8802/;
0171289520999992000121900004+53210+063610FM-12+015699999V0202001N004010075019N9999999N1-00111-00211101371ADDAY171061AY221061GF108991081001008001021999MA1999999099421MD1710011+9999MW1711REMSYN082AAXX  19001 28952 415// 82004 11011 21021 39942 40137 57001 77172 8802/ 555 1/102;
0220289520999992000121903004+53210+063610FM-12+015699999V0202001N003010075019N9999999N1-00331-00401101431ADDAA112000491AJ100219199999999AY171031AY221031GF107991071051008001001001GJ100009IA1239MD1310041+9999MW1021REMSYN104AAXX  19031 28952 /15// 72003 11033 21040 40143 53004 70272 87500 333 47021 55000 555 21053 69942 7997/;
0180289520999992000121906004+53210+063610FM-12+015699999V0202301N003012200019N0200001N1-00241-00331101631ADDAA100000591AY171061AY221061GF104991041051008001001001KA1999N-00531MD1210201+9999MW1021REMSYN082AAXX  19061 28952 11598 42303 11024 21033 40163 52020 69940 70272 84500 333 21053;
0112289520999992000121909004+53210+063610FM-12+015699999V0202001N003012200019N0200001N1-00111-00401101731ADDGF102991001001999999001051MD1210111+9999REMSYN060AAXX  19091 28952 42998 22003 11011 21040 40173 52011 80005;
0143289520999992000121912004+53210+063610FM-12+015699999V0202301N002019999999N0200001N1-00511-00611101871ADDGF106991061001999999071001MA1999999099881MD1210111+9999REMSYN076AAXX  19121 28952 42998 62302 11051 21061 39988 40187 52011 86070 555 1/108;
0165289520999992000121915004+53210+063610FM-12+015699999V0201801N003019999999N9999999N1-00611-00651102021ADDAA199000091GF107991071001999999051001KA1999M-00111MD1210131+9999REMSYN070AAXX  19151 28952 329// 71803 11061 21065 40202 52013 87050 333 11011;EQDQ01  00002PRCP99
0175289520999992000121918004+53210+063610FM-12+015699999V0202001N002012200019N9999999N1-00891-00961102131ADDAA199000091GA1001+999999999GF100991001001999999001001KA1999M-00111MD1210101+9999REMSYN064AAXX  19181 28952 329// 02002 11089 21096 40213 52010 333 11011;EQDQ01  00002PRCP99
0122289520999992000121921004+53210+063610FM-12+015699999V0201801N002012200019N9999999N1-01011-01071102251ADDGA1001+999999999GF100991001001999999001001MD1210101+9999REMSYN054AAXX  19211 28952 429// 01802 11101 21107 40225 52010;
0153289520999992000122000004+53210+063610FM-12+015699999V0201801N002012200019N9999999N1-01131-01191102381ADDGA1001+999999999GF100991001001999999001001MA1999999100311MD1210101+9999REMSYN070AAXX  20001 28952 429// 01802 11113 21119 30031 40238 52010 555 1/116;
0215289520999992000122003004+53210+063610FM-12+015699999V0201801N002012200019N9999999N1-01441-01571102531ADDAA199000091AJ100219199999999GA1001+999999999GF100991001001999999001001GJ103369IA1239MD1210141+9999REMSYN086AAXX  20031 28952 329// 01802 11144 21157 40253 52014 333 47021 55056 555 21144 7000/;EQDQ01  00002PRCP99
0193289520999992000122006004+53210+063610FM-12+015699999V0201801N002019999999N0040001N1-01331-01391102781ADDAA199000091AY111061AY211061GF108991081001999999011999KA1999N-01441MD1210251+9999MW1101REMSYN076AAXX  20061 28952 31996 81802 11133 21139 40278 52025 71011 8801/ 333 21144;EQDQ01  00002PRCP99
0140289520999992000122009004+53210+063610FM-12+015699999V0201801N003019999999N0040001N1-00831-00891102681ADDAY121031AY221031GF108991081001999999021999MD1810051+9999MW1101REMSYN066AAXX  20091 28952 41996 81803 11083 21089 40268 58005 71022 8802/;
0171289520999992000122012004+53210+063610FM-12+015699999V0201801N003019999999N0040001N1-00861-00891102711ADDAY121061AY221061GF108991081001999999021999MA1999999100681MD1310031+9999MW1101REMSYN082AAXX  20121 28952 41996 81803 11086 21089 30068 40271 53003 71022 8802/ 555 1/109;
0193289520999992000122015004+53210+063610FM-12+015699999V0201601N003019999999N9999999N1-00811-00831102681ADDAA199000091AY121031AY221031GF108991081001999999021999KA1999M-00811MD1810031+9999MW1101REMSYN076AAXX  20151 28952 319// 81603 11081 21083 40268 58003 71022 8802/ 333 11081;EQDQ01  00002PRCP99
0193289520999992000122018004+53210+063610FM-12+015699999V0201601N002019999999N9999999N1-00971-01011102571ADDAA199000091AY121061AY221061GF107991071001999999031001KA1999M-00811MD1710131+9999MW1101REMSYN076AAXX  20181 28952 319// 71602 11097 21101 40257 57013 71022 87030 333 11081;EQDQ01  00002PRCP99
0140289520999992000122021004+53210+063610FM-12+015699999V0201401N002019999999N9999999N1-00731-00731102421ADDAY171031AY221031GF108991081001999999021999MD1710121+9999MW1711REMSYN066AAXX  20211 28952 419// 81402 11073 21073 40242 57012 77172 8802/;
0171289520999992000122100004+53210+063610FM-12+015699999V0201801N002019999999N9999999N1-00691-00741102101ADDAY171061AY221061GF108991081001999999021999MA1999999100091MD1710311+9999MW1021REMSYN082AAXX  21001 28952 419// 81802 11069 21074 30009 40210 57031 70272 8802/ 555 1/108;
0220289520999992000122103004+53210+063610FM-12+015699999V0200901N003019999999N9999999N1-00691-00741101851ADDAA112001091AJ100229199999999AY171031AY221031GF108991081001999999021999GJ100009IA1239MD1710251+9999MW1711REMSYN104AAXX  21031 28952 /19// 80903 11069 21074 40185 57025 77172 8802/ 333 47022 55000 555 21097 60012 7001/;
0180289520999992000122106004+53210+063610FM-12+015699999V0201101N002019999999N0040001N1-00611-00651101731ADDAA100001091AY171061AY221061GF108991081001999999021999KA1999N-00971MD1710111+9999MW1711REMSYN082AAXX  21061 28952 11996 81102 11061 21065 40173 57011 60010 77172 8802/ 333 21097;
0140289520999992000122109004+53210+063610FM-12+015699999V0201101N002019999999N0040001N1-00471-00531101621ADDAY171031AY271031GF108991081001999999021999MD1710091+9999MW1711REMSYN066AAXX  21091 28952 41996 81102 11047 21053 40162 57009 77177 8802/;
0171289520999992000122112004+53210+063610FM-12+015699999V0202701N002010075019N0200001N1-00541-00641101681ADDAY171061AY211061GF108991081001008001021999MA1999999099691MD1310051+9999MW1021REMSYN082AAXX  21121 28952 41598 82702 11054 21064 39969 40168 53005 70271 8802/ 555 1/106;
0145289520999992000122115004+53210+063610FM-12+015699999V0209999C000010075019N9999999N1-00881-00951101811ADDGF107991071091008001001001KA1120M-00441MD1210101+9999REMSYN080AAXX  21151 28952 /25// 70000 11088 21095 40181 52010 87900 333 11044 555 60012;
0152289520999992000122118004+53210+063610FM-12+015699999V0203201N001010075019N9999999N1-01031-01091102051ADDAA100002091GF108991081091008001999999KA1999M-00441MD1210221+9999REMSYN076AAXX  21181 28952 125// 83201 11103 21109 40205 52022 60020 889// 333 11044;
0140289520999992000122121004+53210+063610FM-12+015699999V0209999C000010075019N9999999N1-00841-00871102111ADDAY141031AY221031GF108991081091008001999999MD1210081+9999MW1461REMSYN066AAXX  21211 28952 415// 80000 11084 21087 40211 52008 74642 889//;
0171289520999992000122200004+53210+063610FM-12+015699999V0203601N001010075019N9999999N1-00741-00741102221ADDAY141061AY221061GF108991081091008001999999MA1999999100201MD1210111+9999MW1021REMSYN082AAXX  22001 28952 415// 83601 11074 21074 30020 40222 52011 70242 889// 555 1/108;
0205289520999992000122203004+53210+063610FM-12+015699999V0203401N001010075019N9999999N1-01221-01281102301ADDAA199000091AJ100239199999999GF108991081091008001999999GJ100009IA1239MD1210041+9999REMSYN092AAXX  22031 28952 325// 83401 11122 21128 40230 52004 889// 333 47023 55000 555 21122 7002/;EQDQ01  00002PRCP99
0174289520999992000122206004+53210+063610FM-12+015699999V0203601N002019999999N0100001N1-01171-01231102291ADDAA199000021AY171061AY221061GF108991081001999999021999KA1999N-01221MD1810011+9999MW1711REMSYN076AAXX  22061 28952 31997 83602 11117 21123 40229 58001 77172 8802/ 333 21122;
0140289520999992000122209004+53210+063610FM-12+015699999V0200701N002012200019N0100001N1-00851-00921102051ADDAY171031AY211031GF101991011011008001001001MD1710201+9999MW1021REMSYN066AAXX  22091 28952 41597 10702 11085 21092 40205 57020 70271 81100;
0171289520999992000122212004+53210+063610FM-12+015699999V0200701N004019999999N0100001N1-00971-01141101641ADDAY171061AY211061GF108991081001999999021999MA1999999099611MD1710421+9999MW1031REMSYN082AAXX  22121 28952 41997 80704 11097 21114 39961 40164 57042 70371 8802/ 555 1/109;
0173289520999992000122215004+53210+063610FM-12+015699999V0200701N004019999999N9999999N1-00821-00921101081ADDAY171031AY221031GF108991081001999999021999KA1120M-00751MD1710531+9999MW1711REMSYN086AAXX  22151 28952 /19// 80704 11082 21092 40108 57053 77172 8802/ 333 11075 555 69942;
0199289520999992000122218004+53210+063610FM-12+015699999V0201401N004019999999N9999999N1-00381-00431100741ADDAA100000591AY171061AY221061GF108991081001999999021999KA1999M+99999MD1710311+9999MW1711REMSYN082AAXX  22181 28952 119// 81404 11038 21043 40074 57031 69940 77172 8802/ 333 11075;EQDQ01 -00752ATMX  
0140289520999992000122221004+53210+063610FM-12+015699999V0201401N006010075019N9999999N1-00231-00261100501ADDAY171031AY221031GF108991081091008001999999MD1710221+9999MW1021REMSYN066AAXX  22211 28952 415// 81406 11023 21026 40050 57022 70272 889//;
0171289520999992000122300004+53210+063610FM-12+015699999V0201601N008010075019N9999999N1-00571-00751100471ADDAY181061AY271061GF108991081091008001999999MA1999999098491MD1710061+9999MW1851REMSYN082AAXX  23001 28952 415// 81608 11057 21075 39849 40047 57006 78587 889// 555 1/107;
0230289520999992000122303004+53210+063610FM-12+015699999V0201601N007012200019N9999999N1-00811-01081100611ADDAA112001091AJ100219199999999AY181031AY231031GA1001+999999999GF100991001001999999001001GJ100849IA1239MD1310131+9999MW1361REMSYN098AAXX  23031 28952 /19// 01607 11081 21108 40061 53013 73683 333 47021 55014 555 21082 60012 7002/;
0176289520999992000122306004+53210+063610FM-12+015699999V0202301N004012200019N0200001N1-01051-01411101061ADDAA100001091AY181061AY231061GA1001+999999999GF100991001001999999001001MD1210421+9999MW1361REMSYN075AAXX  23061 28952 11998 02304 11105 21141 40106 52042 60010 73683 333 1082;
0150289520999992000122309004+53210+063610FM-12+015699999V0202301N005012200019N0200001N1-00921-01261101251ADDAY131031AY231031GA1001+999999999GF100991001001999999001001MD1210201+9999MW1361REMSYN060AAXX  23091 28952 41998 02305 11092 21126 40125 52020 73633;
0181289520999992000122312004+53210+063610FM-12+015699999V0202301N003012200019N0200001N1-01171-01521101491ADDAY131061AY201061GA1001+999999999GF100991001001999999001001MA1999999099441MD1210201+9999MW1021REMSYN076AAXX  23121 28952 41998 02303 11117 21152 39944 40149 52020 70230 555 1/114;
0203289520999992000122315004+53210+063610FM-12+015699999V0202301N005012200019N9999999N1-01501-01841101731ADDAA199000091AY131031AY201031GA1001+999999999GF100991001001999999001001KA1999M-00811MD1210231+9999MW1361REMSYN070AAXX  23151 28952 319// 02305 11150 21184 40173 52023 73630 333 11081;EQDQ01  00002PRCP99
0203289520999992000122318004+53210+063610FM-12+015699999V0201801N007012200019N9999999N1-01601-01941101911ADDAA199000091AY131061AY201061GA1001+999999999GF100991001001999999001001KA1999M-00811MD1210151+9999MW1361REMSYN070AAXX  23181 28952 319// 01807 11160 21194 40191 52015 73630 333 11081;EQDQ01  00002PRCP99
0150289520999992000122321004+53210+063610FM-12+015699999V0201801N003012200019N9999999N1-01701-02121102051ADDAY131031AY201031GA1001+999999999GF100991001001999999001001MD1210141+9999MW1021REMSYN060AAXX  23211 28952 419// 01803 11170 21212 40205 52014 70230;
0181289520999992000122400004+53210+063610FM-12+015699999V0202301N003012200019N9999999N1-01911-02171102171ADDAY131061AY201061GA1001+999999999GF100991001001999999001001MA1999999100061MD1210101+9999MW1021REMSYN076AAXX  24001 28952 419// 02303 11191 21217 30006 40217 52010 70230 555 1/121;
0205289520999992000122403004+53210+063610FM-12+015699999V0202001N003019999999N9999999N1-01881-02141102211ADDAA199000091AJ100219199999999GF106991061001999999031001GJ103609IA1239MD1210051+9999REMSYN092AAXX  24031 28952 329// 62003 11188 21214 40221 52005 86030 333 47021 55060 555 21191 7000/;EQDQ01  00002PRCP99
0165289520999992000122406004+53210+063610FM-12+015699999V0201801N003019999999N0200001N1-01711-01971102291ADDAA199000091GF108991081001999999011999KA1999N-01911MD1210081+9999REMSYN070AAXX  24061 28952 32998 81803 11171 21197 40229 52008 8801/ 333 21191;EQDQ01  00002PRCP99
0140289520999992000122409004+53210+063610FM-12+015699999V0202301N007019999999N0100001N1-01321-01591102171ADDAY171031AY231031GF108991081001999999011999MD1810091+9999MW1711REMSYN066AAXX  24091 28952 41997 82307 11132 21159 40217 58009 77173 8801/;
0171289520999992000122412004+53210+063610FM-12+015699999V0202301N008019999999N0200001N1-01051-01331102031ADDAY171061AY231061GF108991081001999999021999MA1999999099991MD1710111+9999MW1361REMSYN082AAXX  24121 28952 41998 82308 11105 21133 39999 40203 57011 73673 8802/ 555 1/112;
0173289520999992000122415004+53210+063610FM-12+015699999V0201801N008019999999N9999999N1-01031-01311102071ADDAY131031AY231031GF105991051001999999031001KA1120M-01031MD1310041+9999MW1361REMSYN086AAXX  24151 28952 /19// 51808 11103 21131 40207 53004 73633 85030 333 11103 555 69902;
0190289520999992000122418004+53210+063610FM-12+015699999V0201801N009012200019N9999999N1-01141-01421102051ADDAA100000791AY131061AY231061GA1001+999999999GF100991001001999999001001KA1999M-01031MD1810041+9999MW1361REMSYN076AAXX  24181 28952 119// 01809 11114 21142 40205 58004 69900 73633 333 11103;
0150289520999992000122421004+53210+063610FM-12+015699999V0202301N007012200019N9999999N1-01071-01351102111ADDAY131031AY231031GA1001+999999999GF100991001001999999001001MD1310081+9999MW1361REMSYN060AAXX  24211 28952 419// 02307 11107 21135 40211 53008 73633;
0171289520999992000122500004+53210+063610FM-12+015699999V0201801N007012200019N9999999N1-01001-01201102131ADDAY131061AY231061GF103991031001999999031001MA1999999100091MD1210021+9999MW1361REMSYN082AAXX  25001 28952 419// 31807 11100 21120 30009 40213 52002 73633 83030 555 1/112;
0233289520999992000122503004+53210+063610FM-12+015699999V0202001N007019999999N9999999N1-01111-01391102141ADDAA199000091AJ100219199999999AY131031AY231031GF107991071001999999041001GJ100009IA1239MD1210011+9999MW1361REMSYN098AAXX  25031 28952 319// 72007 11111 21139 40214 52001 73633 87040 333 47021 55000 555 21114 7990/;EQDQ01  00002PRCP99
0193289520999992000122506004+53210+063610FM-12+015699999V0202001N004019999999N0200001N1-01071-01351102191ADDAA199000091AY171061AY231061GF108991081001999999021999KA1999N-01141MD1210051+9999MW1021REMSYN076AAXX  25061 28952 31998 82004 11107 21135 40219 52005 70273 8802/ 333 21114;EQDQ01  00002PRCP99
0112289520999992000122509004+53210+063610FM-12+015699999V0202001N006019999999N0200001N1-00871-01111102081ADDGF108991081001999999011999MD1810091+9999REMSYN060AAXX  25091 28952 42998 82006 11087 21111 40208 58009 8801/;
0143289520999992000122512004+53210+063610FM-12+015699999V0202001N007019999999N0200001N1-00791-01011101921ADDGF106991061001999999031001MA1999999099901MD1710161+9999REMSYN076AAXX  25121 28952 42998 62007 11079 21101 39990 40192 57016 86030 555 1/109;
0173289520999992000122515004+53210+063610FM-12+015699999V0201801N006019999999N9999999N1-00731-00941101861ADDAY171031AY231031GF108991081001999999021999KA1120M-00731MD1710061+9999MW1711REMSYN086AAXX  25151 28952 /19// 81806 11073 21094 40186 57006 77173 8802/ 333 11073 555 69932;
0199289520999992000122518004+53210+063610FM-12+015699999V0202001N009010075019N9999999N1-00671-00871101771ADDAA100000391AY171061AY231061GF108991081001008001021999KA1999M+99999MD1710081+9999MW1361REMSYN082AAXX  25181 28952 115// 82009 11067 21087 40177 57008 69930 73673 8802/ 333 11073;EQDQ01 -00732ATMX  
0140289520999992000122521004+53210+063610FM-12+015699999V0202001N005010075019N9999999N1-00691-00851101641ADDAY131031AY231031GF108991081001008001021999MD1710121+9999MW1361REMSYN066AAXX  25211 28952 415// 82005 11069 21085 40164 57012 73633 8802/;
0171289520999992000122600004+53210+063610FM-12+015699999V0201801N004010075019N9999999N1-00631-00781101531ADDAY171061AY231061GF108991081001008001021999MA1999999099531MD1710111+9999MW1711REMSYN082AAXX  26001 28952 415// 81804 11063 21078 39953 40153 57011 77173 8802/ 555 1/107;
0220289520999992000122603004+53210+063610FM-12+015699999V0201801N003019999999N9999999N1-00531-00601101451ADDAA112000291AJ100219199999999AY171031AY231031GF108991081001999999021999GJ100009IA1239MD1710061+9999MW1711REMSYN104AAXX  26031 28952 /19// 81803 11053 21060 40145 57006 77173 8802/ 333 47021 55000 555 21073 69922 7995/;
0180289520999992000122606004+53210+063610FM-12+015699999V0202001N003010075019N0200001N1-00401-00491101511ADDAA100000191AY171061AY231061GF107991071051008001001001KA1999N-00731MD1310061+9999MW1021REMSYN082AAXX  26061 28952 11598 72003 11040 21049 40151 53006 69920 70273 87500 333 21073;
0112289520999992000122609004+53210+063610FM-12+015699999V0202501N003019999999N0200001N1-00501-00911101651ADDGF105991051001999999031001MD1210141+9999REMSYN060AAXX  26091 28952 42998 52503 11050 21091 40165 52014 85030;
0132289520999992000122612004+53210+063610FM-12+015699999V0202701N003012200019N0200001N1-00791-01201101961ADDGA1001+999999999GF100991001001999999001001MD1210271+9999REMSYN064AAXX  26121 28952 42998 02703 11079 21120 40196 52027 555 1/113;
0156289520999992000122615004+53210+063610FM-12+015699999V0202001N002012200019N9999999N1-01421-01621102161ADDAA199000021GA1001+999999999GF100991001001999999001001KA1999M-00401MD1210151+9999REMSYN064AAXX  26151 28952 329// 02002 11142 21162 40216 52015 333 11040;
0168289520999992000122618004+53210+063610FM-12+015699999V0201801N002012200019N9999999N1-01491-01691102301ADDAA100000791GA1001+999999999GF100991001001999999001001KA1999M-00401MD1210141+9999REMSYN076AAXX  26181 28952 129// 01802 11149 21169 40230 52014 69900 80001 333 11040;
0128289520999992000122621004+53210+063610FM-12+015699999V0201801N001012200019N9999999N1-01381-01511102281ADDGA1001+999999999GF100991001001999999001001MD1810021+9999REMSYN060AAXX  26211 28952 429// 01801 11138 21151 40228 58002 80001;
0171289520999992000122700004+53210+063610FM-12+015699999V0201801N004010075019N9999999N1-01001-01131102191ADDAY171061AY211061GF108991081001008001021999MA1999999100151MD1710061+9999MW1711REMSYN082AAXX  27001 28952 425// 81804 11100 21113 30015 40219 57006 77171 8802/ 555 1/111;
0220289520999992000122703004+53210+063610FM-12+015699999V0201801N006010075019N9999999N1-00631-00781101861ADDAA112000691AJ100239199999999AY171031AY231031GF108991081001008001021999GJ101629IA1239MD1710301+9999MW1711REMSYN104AAXX  27031 28952 /15// 81806 11063 21078 40186 57030 77173 8802/ 333 47023 55027 555 21164 69962 7996/;
0180289520999992000122706004+53210+063610FM-12+015699999V0201801N003010075019N0040001N1-00491-00551101611ADDAA112000591AY171061AY231061GF108991081001008001021999KA1999N-01641MD1710221+9999MW1711REMSYN082AAXX  27061 28952 11596 81803 11049 21055 40161 57022 69962 77173 8802/ 333 21164;
0140289520999992000122709004+53210+063610FM-12+015699999V0202301N005010075019N0040001N1-00201-00291101431ADDAY171031AY231031GF108991081001008001021999MD1710171+9999MW1711REMSYN066AAXX  27091 28952 41596 82305 11020 21029 40143 57017 77173 8802/;
0171289520999992000122712004+53210+063610FM-12+015699999V0202301N003019999999N0200001N1-00161-00361101431ADDAY171061AY231061GF108991081001999999021999MA1999999099461MD1410001+9999MW1021REMSYN082AAXX  27121 28952 41998 82303 11016 21036 39946 40143 54000 70273 8802/ 555 1/103;
0173289520999992000122715004+53210+063610FM-12+015699999V0202301N002010075019N9999999N1-00181-00261101411ADDAY171031AY221031GF108991081001008001021999KA1120M-00161MD1810021+9999MW1711REMSYN086AAXX  27151 28952 /15// 82302 11018 21026 40141 58002 77172 8802/ 333 11016 555 60032;
0180289520999992000122718004+53210+063610FM-12+015699999V0202701N003010075019N9999999N1-00161-00211101481ADDAA100003091AY171061AY221061GF108991081001008001021999KA1999M-00161MD1310071+9999MW1711REMSYN082AAXX  27181 28952 115// 82703 11016 21021 40148 53007 60030 77172 8802/ 333 11016;
0140289520999992000122721004+53210+063610FM-12+015699999V0203401N003010075019N9999999N1-00461-00521101781ADDAY171031AY221031GF108991081001008001021999MD1210281+9999MW1021REMSYN066AAXX  27211 28952 415// 83403 11046 21052 40178 52028 70272 8802/;
0171289520999992000122800004+53210+063610FM-12+015699999V0203601N002010075019N9999999N1-00911-01021102061ADDAY171061AY221061GF108991081091008001999999MA1999999100041MD1210251+9999MW1021REMSYN082AAXX  28001 28952 415// 83602 11091 21102 30004 40206 52025 70272 889// 555 1/110;
0192289520999992000122803004+53210+063610FM-12+015699999V0203601N001010075019N9999999N1-01441-01571102311ADDAA112003091AJ100289199999999GF108991081091008001999999GJ100009IA1239MD1210201+9999REMSYN098AAXX  28031 28952 /25// 83601 11144 21157 40231 52020 889// 333 47028 55000 555 21144 60032 7006/;
0180289520999992000122806004+53210+063610FM-12+015699999V0203601N001010075019N0100001N1-01481-01751102521ADDAA100003091AY181061AY221061GF108991081091008001999999KA1999N-01441MD1210201+9999MW1851REMSYN082AAXX  28061 28952 11597 83601 11148 21175 40252 52020 60030 78582 889// 333 21144;
0140289520999992000122809004+53210+063610FM-12+015699999V0209999C000010075019N0100001N1-01041-01241102491ADDAY181031AY221031GF108991081091008001999999MD1410001+9999MW1851REMSYN066AAXX  28091 28952 41597 80000 11104 21124 40249 54000 78582 889//;
0171289520999992000122812004+53210+063610FM-12+015699999V0200501N001010075019N0100001N1-00981-01101102401ADDAY181061AY281061GF108991081091008001999999MA1999999100351MD1810091+9999MW1851REMSYN082AAXX  28121 28952 41597 80501 11098 21110 30035 40240 58009 78588 889// 555 1/108;
0173289520999992000122815004+53210+063610FM-12+015699999V0200501N001010075019N9999999N1-00991-01161102401ADDAY181031AY221031GF108991081091008001999999KA1120M-00981MD1410001+9999MW1021REMSYN086AAXX  28151 28952 /15// 80501 11099 21116 40240 54000 70282 889// 333 11098 555 60032;
0199289520999992000122818004+53210+063610FM-12+015699999V0200501N001010075019N9999999N1-00741-00911102131ADDAA100003091AY181061AY221061GF108991081091008001999999KA1999M+99999MD1810241+9999MW1021REMSYN082AAXX  28181 28952 115// 80501 11074 21091 40213 58024 60030 70282 889// 333 11098;EQDQ01 -00982ATMX  
0220289520999992000122903004+53210+063610FM-12+015699999V0202301N002010075019N9999999N1-00301-00401101661ADDAA112002091AJ100309199999999AY181031AY221031GF108991081091008001999999GJ100009IA1239MD1710101+9999MW1851REMSYN104AAXX  29031 28952 /15// 82302 11030 21040 40166 57010 78582 889// 333 47030 55000 555 21099 60022 7006/;
0199289520999992000122906004+53210+063610FM-12+015699999V0202901N003010075019N0100001N1-01181-01451101991ADDAA100002091AY181061AY221061GF108991081091008001999999KA1999N+99999MD1310241+9999MW1261REMSYN082AAXX  29061 28952 11597 82903 11118 21145 40199 53024 60020 72682 889// 333 21099;EQDQ01 -00992ATMN  
0112289520999992000122909004+53210+063610FM-12+015699999V0203201N003010075019N0200001N1-01291-01561102161ADDGF107991071091008001001001MD1210171+9999REMSYN060AAXX  29091 28952 42598 73203 11129 21156 40216 52017 87900;
0153289520999992000122912004+53210+063610FM-12+015699999V0203201N002012200019N0200001N1-01481-01751102321ADDGA1001+999999999GF100991001001999999001001MA1999999100251MD1210151+9999REMSYN070AAXX  29121 28952 42998 03202 11148 21175 30025 40232 52015 555 1/117;
0145289520999992000122915004+53210+063610FM-12+015699999V0203201N002010075019N9999999N1-01401-01601102771ADDGF108991081091008001999999KA1120M-00301MD1210441+9999REMSYN080AAXX  29151 28952 /25// 83202 11140 21160 40277 52044 889// 333 11030 555 69932;
0162289520999992000122918004+53210+063610FM-12+015699999V0209999C000012200019N9999999N1-02051-02241103031ADDAA100000391GA1001+999999999GF100991001001999999001001KA1999M-00301MD1210201+9999REMSYN070AAXX  29181 28952 129// 00000 11205 21224 40303 52020 69930 333 11030;
0122289520999992000122921004+53210+063610FM-12+015699999V0209999C000012200019N9999999N1-02361-02551103231ADDGA1001+999999999GF100991001001999999001001MD1210161+9999REMSYN054AAXX  29211 28952 429// 00000 11236 21255 40323 52016;
0153289520999992000123000004+53210+063610FM-12+015699999V0209999C000012200019N9999999N1-02631-02871103371ADDGA1001+999999999GF100991001001999999001001MA1999999101181MD1210131+9999REMSYN070AAXX  30001 28952 429// 00000 11263 21287 30118 40337 52013 555 1/129;
0215289520999992000123003004+53210+063610FM-12+015699999V0209999C000012200019N9999999N1-02621-02871103471ADDAA199000091AJ100319199999999GA1001+999999999GF100991001001999999001001GJ100009IA1239MD1210101+9999REMSYN086AAXX  30031 28952 329// 00000 11262 21287 40347 52010 333 47031 55000 555 21270 7993/;EQDQ01  00002PRCP99
0165289520999992000123006004+53210+063610FM-12+015699999V0201601N002019999999N0200001N1-02051-02301103451ADDAA199000091GF108991081001999999021999KA1999N-02701MD1210021+9999REMSYN070AAXX  30061 28952 32998 81602 11205 21230 40345 52002 8802/ 333 21270;EQDQ01  00002PRCP99
0112289520999992000123009004+53210+063610FM-12+015699999V0201801N003019999999N0200001N1-01581-01851103211ADDGF108991081001999999011999MD1810201+9999REMSYN060AAXX  30091 28952 42998 81803 11158 21185 40321 58020 8801/;
0171289520999992000123012004+53210+063610FM-12+015699999V0201801N005019999999N0100001N1-01231-01501102961ADDAY171061AY221061GF108991081001999999021999MA1999999100881MD1710221+9999MW1711REMSYN082AAXX  30121 28952 41997 81805 11123 21150 30088 40296 57022 77172 8802/ 555 1/112;
0173289520999992000123015004+53210+063610FM-12+015699999V0201801N007010075019N9999999N1-00901-01061102631ADDAY171031AY231031GF108991081001008001021999KA1120M-00901MD1710281+9999MW1711REMSYN086AAXX  30151 28952 /15// 81807 11090 21106 40263 57028 77173 8802/ 333 11090 555 60022;
0199289520999992000123018004+53210+063610FM-12+015699999V0202301N004010075019N9999999N1-00551-00661102561ADDAA100002091AY171061AY231061GF108991081001008001021999KA1999M+99999MD1710071+9999MW1021REMSYN082AAXX  30181 28952 115// 82304 11055 21066 40256 57007 60020 70273 8802/ 333 11090;EQDQ01 -00902ATMX  
0112289520999992000123021004+53210+063610FM-12+015699999V0202001N002010075019N9999999N1-00421-00541102521ADDGF107991071091008001001001MD1710021+9999REMSYN060AAXX  30211 28952 425// 72002 11042 21054 40252 57002 87900;
0153289520999992000123100004+53210+063610FM-12+015699999V0209999C000012200019N9999999N1-00621-00701102611ADDGA1001+999999999GF100991001001999999001001MA1999999100581MD1310071+9999REMSYN070AAXX  31001 28952 429// 00000 11062 21070 30058 40261 53007 555 1/108;
0220289520999992000123103004+53210+063610FM-12+015699999V0209999C000010075019N9999999N1-00651-00731102621ADDAA112999929AJ100309199999999AY141031AY221031GF108991081091008001999999GJ100009IA1239MD1210021+9999MW1481REMSYN104AAXX  31031 28952 /15// 80000 11065 21073 40262 52002 74842 889// 333 47030 55000 555 21091 69902 7002/;
0180289520999992000123106004+53210+063610FM-12+015699999V0209999C000019999999N0005001N1-00541-00581102661ADDAA100000791AY141061AY211061GF108991081001999999021999KA1999N-01011MD1210051+9999MW1481REMSYN082AAXX  31061 28952 11993 80000 11054 21058 40266 52005 69900 74841 8802/ 333 21101;
0140289520999992000123109004+53210+063610FM-12+015699999V0209999C000019999999N0005001N1-00401-00421102701ADDAY141031AY241031GF108991081001999999021999MD1210041+9999MW1481REMSYN066AAXX  31091 28952 41993 80000 11040 21042 40270 52004 74844 8802/;
0171289520999992000123112004+53210+063610FM-12+015699999V0209999C000019999999N0200001N1-00401-00401102701ADDAY141061AY221061GF108991081001999999021999MA1999999100701MD1410001+9999MW1021REMSYN082AAXX  31121 28952 41998 80000 11040 21040 30070 40270 54000 70242 8802/ 555 1/105;
0181289520999992000123115004+53210+063610FM-12+015699999V0201101N002019999999N9999999N1-00421-00421102651ADDAA199000091GF106991999001999999031001KA1999M-00401MD1810051+9999REMSYN070AAXX  31151 28952 329// 61102 11042 21042 40265 58005 85030 333 11040;EQDQ01+000052SCOTLCQ02  00002PRCP99
0181289520999992000123118004+53210+063610FM-12+015699999V0201801N003019999999N9999999N1-00121-00321102531ADDAA199000091GF106991061001999999031001KA1999M+99999MD1710091+9999REMSYN070AAXX  31181 28952 329// 61803 11012 21032 40253 57009 86030 333 11040;EQDQ01  00002PRCP99Q02 -00402ATMX  
0122289520999992000123121004+53210+063610FM-12+015699999V0201801N002012200019N9999999N1-00491-00521102521ADDGA1001+999999999GF100991001001999999001001MD1710041+9999REMSYN054AAXX  31211 28952 429// 01802 11049 21052 40252 57004;
